id,city,hometown,joined,lat,lon,name,state,visited,group_id
82284732,Brentwood,Nashville,1447004865000,36.0,-86.79,"""Courtney""",TN,1447004865000,15297782
10682650,Nashville,,1411062370000,36.06,-86.96,Aaron Boggs,TN,1504184731000,15297782
90950872,Nashville,,1464964139000,36.14,-86.74,Aaron Briggs,TN,1508726729000,15297782
212947116,Nashville,,1473880532000,36.14,-86.74,Aaron Hurt,TN,1473880532000,15297782
7768516,Springfield,"Urbandale, IA",1404163616000,36.52,-86.87,Aaron Webb,TN,1505884855000,15297782
5739275,Mount Juliet,"Clarksville, TN",1432147568000,36.22,-86.52,Aaron West,TN,1447448762000,15297782
226998086,Brentwood,,1505063006000,36.0,-86.79,Abbey D.,TN,1506308211000,15297782
11531202,Pune,,1484710021000,18.53,73.84,Abhishek Goyal,,1484710021000,15297782
89867622,Nashville,,1404142206000,36.17,-86.78,Adam Dillon,TN,1457638595000,15297782
153674632,Nashville,,1498070890000,36.18,-86.74,Adam Reidelbach,TN,1503014297000,15297782
34817302,Nashville,,1429036657000,36.13,-86.8,Adam Solesby,TN,1429036657000,15297782
184190895,Nashville,,1423156884000,36.11,-86.78,Adam Swinford,TN,1423156884000,15297782
96956502,Nashville,,1479154099000,36.06,-86.96,Adedotun,TN,1483667572000,15297782
25765422,Hermitage,Chicago,1434403847000,36.19,-86.6,Ahmad Murrah,TN,1500304395000,15297782
230036643,Nashville,,1497907884000,36.14,-86.74,Al Briggs,TN,1497907884000,15297782
11872972,Nashville,,1457026213000,36.13,-86.8,Alan,TN,1502828458000,15297782
32005912,Brooklyn,,1405186491000,40.7,-73.99,Alan Laidlaw,NY,1458583590000,15297782
213226825,Mount Juliet,Nashville,1486155134000,36.22,-86.52,Aleshia C,TN,1486155134000,15297782
182576190,Nashville,,1416176313000,36.18,-86.81,Alex Tolbert,TN,1447412889000,15297782
115794742,Nashville,,1421633349000,36.14,-86.74,Alicia Dawson,TN,1423278321000,15297782
68500302,College Park,,1487608636000,39.0,-76.93,Alisher,MD,1489606564000,15297782
173102542,Nashville,,1412008855000,36.16,-86.79,Alissa G,TN,1507649292000,15297782
85560402,Chattanooga,,1468435215000,35.0,-85.33,Allie O'Connell,TN,1484858763000,15297782
4287703,Nashville,Nashville,1437684341000,36.13,-86.8,Allison,TN,1497582177000,15297782
237231604,Nashville,,1506177957000,36.11,-86.86,Amber Tatum,TN,1506177957000,15297782
183780783,Nashville,,1435246328000,36.11,-86.86,Amy Ashida,TN,1455122079000,15297782
118705672,Nashville,,1458410216000,36.11,-86.86,Amy Culbertson,TN,1458410216000,15297782
163745662,Nashville,,1409083284000,36.18,-86.81,Amy Merhige,TN,1419031660000,15297782
87153092,San Francisco,,1419290928000,37.78,-122.42,Andre Moore,CA,1454394471000,15297782
186615345,Nashville,,1457317024000,36.13,-86.8,Andrew Horvatits,TN,1489199016000,15297782
174481252,Nashville,,1412081109000,36.18,-86.81,Andrew Smith,TN,1412081109000,15297782
106892732,Nashville,Nashville,1455808541000,36.17,-86.72,Andrew West,TN,1468510762000,15297782
82236412,Chattanooga,Chattanooga,1497983113000,35.07,-85.31,Andrew Zallie,TN,1500410961000,15297782
191319374,Nashville,,1439578694000,36.16,-86.79,Andy Cisneros,TN,1439578694000,15297782
130732102,Charleston,Hershey,1468357682000,32.78,-79.94,Andy Seavers,SC,1508385163000,15297782
10604590,Nashville,,1433082864000,36.15,-86.86,Ankur Patwa,TN,1493919002000,15297782
140459092,Nashville,,1429303534000,36.11,-86.86,Ann Howard,TN,1483549106000,15297782
102807422,Nashville,,1411142832000,36.11,-86.86,Anna Davis,TN,1470060088000,15297782
34842792,Nashville,,1421774162000,36.13,-86.8,Anna Hamil,TN,1422230970000,15297782
141477462,Brentwood,,1443131779000,36.0,-86.79,Anna Schmunk,TN,1447086975000,15297782
157037552,Nashville,,1405698008000,36.18,-86.81,Anupa Naik,TN,1452186487000,15297782
217429206,Lebanon,,1507603482000,36.21,-86.31,Aprilia Hestya Alam,TN,1507603482000,15297782
9471631,Nashville,,1410799413000,36.18,-86.74,Arienne Holland,TN,1507075175000,15297782
13334523,Nashville,,1418847065000,36.18,-86.74,Ashley Dowsley,TN,1446710316000,15297782
143661922,Murfreesboro,,1492628497000,35.78,-86.33,Ashley Wilkinson,TN,1503417092000,15297782
188728885,Nashville,,1434483610000,36.18,-86.81,Ashlyn Jennings,TN,1435758061000,15297782
218625584,Nashville,,1496169992000,36.1,-86.66,Athena Perez,TN,1499822555000,15297782
215105368,Franklin,,1481731519000,35.92,-86.89,Atish Patel,TN,1489544436000,15297782
12619910,Nashville,Earth,1426858836000,36.17,-86.79,Atom Groom,TN,1445269251000,15297782
183749942,Nashville,,1435868042000,36.09,-86.82,ayumi fukuda bennett,TN,1485381337000,15297782
197725905,Nashville,,1452107229000,36.22,-86.77,Bart Mackey,TN,1452122805000,15297782
233746608,Nashville,,1504287931000,36.17,-86.78,Bassam Lamale,TN,1504287931000,15297782
75873682,Nashville,,1484145484000,36.17,-86.78,Bayron,TN,1497912316000,15297782
205798116,Nashville,Nashville,1469656079000,36.08,-86.72,Ben,TN,1469656079000,15297782
196994526,Brentwood,,1450449916000,36.0,-86.79,Ben Forrest,TN,1450449916000,15297782
13283630,Nashville,,1406065455000,36.13,-86.8,Ben Henderson,TN,1502763459000,15297782
167335402,Nashville,,1410016420000,36.18,-86.81,Beth Minter,TN,1502462178000,15297782
121602682,Memphis,,1463512251000,35.07,-89.96,Bikram,TN,1497821422000,15297782
184361273,Brentwood,,1424720299000,36.0,-86.79,Bill Brainerd,TN,1466434376000,15297782
191552924,Spring Hill,,1440031489000,35.76,-86.88,Billy Burle,TN,1457180913000,15297782
199280875,Nashville,,1484597291000,36.17,-86.72,Blair McMillan,TN,1485444949000,15297782
176466992,Franklin,,1413058662000,35.93,-86.81,Blair S,TN,1434459367000,15297782
194422601,Nashville,,1445435130000,36.14,-86.74,Bobbie Jo Meredith,TN,1445435130000,15297782
157942332,Nashville,,1406146879000,36.18,-86.74,Brad Hughes,TN,1410803727000,15297782
97790252,Spring Hill,,1460636358000,35.76,-86.88,Brad Posey,TN,1484589452000,15297782
183608847,Nashville,,1486401017000,36.17,-86.79,Brandi Leath,TN,1489629648000,15297782
14225169,Nashville,"Nashville, TN",1449893703000,36.16,-86.79,Brandon,TN,1485385291000,15297782
133644212,Nashville,,1424274545000,36.14,-86.74,Brandon Heller,TN,1424306660000,15297782
15117341,Franklin,Sugar Grove,1405376191000,35.92,-86.89,Brandon Kellogg,TN,1421419185000,15297782
156747812,Brentwood,,1421723378000,36.0,-86.79,Brian Carter,TN,1437604468000,15297782
186005970,Nashville,Nashville,1498505689000,36.18,-86.74,Brittain Brantley,TN,1502415596000,15297782
181369272,Hermitage,"Paris, TN",1468939917000,36.19,-86.6,Brittany,TN,1471460931000,15297782
71744742,Nashville,Nashville,1471356333000,36.08,-86.72,Bryan Duplantis,TN,1500477150000,15297782
14494537,Franklin,"Mission Viejo, CA",1475034419000,35.93,-86.81,Bryan Mayes,TN,1477346486000,15297782
24889702,Nashville,,1406148231000,36.09,-86.82,Cale Mooth,TN,1507138265000,15297782
51412912,Nashville,,1429121288000,36.22,-86.77,Carla Engle,TN,1503682292000,15297782
154017642,Kansas City,kansas city,1491380312000,39.27,-94.57,Carrie Jeske,MO,1500978049000,15297782
202734378,Nashville,,1497395914000,36.11,-86.86,Carter Harris,TN,1497395914000,15297782
230751605,Nashville,,1498765617000,36.14,-86.74,cecelia worcester,TN,1505475496000,15297782
86371752,Nashville,,1403653892000,36.18,-86.81,Centresource,TN,1435710095000,15297782
57907252,Nashville,,1405015041000,36.09,-86.82,Chad Upjohn,TN,1500476807000,15297782
213623394,Nashville,,1474855381000,36.14,-86.74,Chandra Shekar,TN,1479336756000,15297782
12541555,Huntsville,,1404170959000,34.76,-86.68,Charles,AL,1486762494000,15297782
98327812,Franklin,,1480979545000,35.92,-86.89,Chas Frank,TN,1493905401000,15297782
9993735,Nashville,nashville,1486995893000,36.16,-86.79,Cheedem Zouaoui,TN,1495633866000,15297782
221913413,Brentwood,,1497926230000,36.0,-86.79,Cheryl,TN,1502554448000,15297782
217751064,Nashville,,1496327185000,36.17,-86.78,Cheryl Abernathy,TN,1502496095000,15297782
191646932,Nashville,,1440218301000,36.1,-86.66,Chetan,TN,1506085252000,15297782
204795329,Hendersonville,,1470632667000,36.32,-86.61,Chip Hysler,TN,1503167706000,15297782
229716792,Nashville,,1505483701000,36.21,-86.72,Chip Hysler,TN,1505483701000,15297782
208117552,Nashville,,1495044518000,36.17,-86.78,Chris,TN,1498104370000,15297782
223826543,Nashville,,1489609292000,36.14,-86.74,Chris Boyd,TN,1508265080000,15297782
160120322,Nashville,,1415412852000,36.17,-86.78,chris gann,TN,1501293356000,15297782
13040902,Nashville,,1404137564000,36.13,-86.8,Chris H.,TN,1438292935000,15297782
184547023,Nashville,,1484496663000,36.16,-86.79,Chris Jarvis,TN,1505708011000,15297782
231340007,Nashville,,1499489532000,36.14,-86.74,Chris Leonard,TN,1499820265000,15297782
173858412,Franklin,"Slidell, LA",1504665857000,35.92,-86.89,Chris McKnight,TN,1505599583000,15297782
185183217,Franklin,,1426202961000,35.93,-86.81,Chris Paterson,TN,1426289567000,15297782
210257704,Nashville,,1470163975000,36.17,-86.72,Chris Sipe,TN,1492117000000,15297782
47572122,Nashville,Chicago,1404758627000,36.17,-86.78,Chris SpinMan Spintzyk,TN,1465325437000,15297782
212662038,Goodlettsville,,1483478766000,36.32,-86.72,Chris Trinosky,TN,1483478766000,15297782
75647182,Nashville,,1410966054000,36.16,-86.78,Chrisanthi,TN,1410986857000,15297782
154626412,Nashville,Brooklyn,1496167385000,36.18,-86.81,Christina Vergona,TN,1505832797000,15297782
155172922,Lebanon,,1404755054000,36.21,-86.31,Christine Buckley,TN,1404755054000,15297782
12880123,Nashville,,1502716030000,36.14,-86.74,Christopher Igoe,TN,1502716030000,15297782
206584249,Nashville,,1465227768000,36.14,-86.74,Christy Frink,TN,1487192946000,15297782
189067158,Nashville,,1435171447000,36.18,-86.81,Christy Graham,TN,1438269145000,15297782
6045513,Nashville,,1403711805000,36.13,-86.8,Chuck Bryant,TN,1507650211000,15297782
197780893,Nashville,,1499975943000,36.17,-86.72,Claire Sweet,TN,1499975943000,15297782
119792682,Nashville,,1486004924000,36.17,-86.78,Clark Buckner,TN,1492612301000,15297782
186968995,Nashville,,1430855023000,36.16,-86.79,Clayton Lainhart,TN,1431018004000,15297782
75802552,Franklin,franklin,1487348668000,35.92,-86.89,cmoot,TN,1506352677000,15297782
108579222,New York,,1494617489000,40.75,-73.99,Cody King,NY,1495222879000,15297782
236364184,Nashville,,1505274672000,36.11,-86.86,Colin Pigott,TN,1505793011000,15297782
223819795,Nashville,,1489601484000,36.14,-86.74,Colleen,TN,1490727046000,15297782
236946343,Nashville,,1505848198000,36.14,-86.74,Connie Harper,TN,1505848198000,15297782
159373942,Nashville,,1406899462000,36.18,-86.81,Cook Wylly,TN,1406899462000,15297782
14948701,Nashville,Nashville,1427938289000,36.16,-86.79,Cooper McGoodwin,TN,1500943160000,15297782
132968302,Nashville,,1406037408000,36.13,-86.8,Corey,TN,1453328060000,15297782
33196332,Nashville,,1491967741000,36.08,-86.72,Corey Davis,TN,1508367071000,15297782
54154772,Nashville,,1424969600000,36.13,-86.8,Corey Griggs,TN,1447855946000,15297782
16866601,Nashville,Phoenix,1415198251000,36.18,-86.74,Cory powers,TN,1418842554000,15297782
28875162,Spring Hill,Nashville,1477937892000,35.76,-86.88,Craig Murray,TN,1492271127000,15297782
101601132,Nashville,,1428676531000,36.06,-86.96,Cuong Dinh,TN,1494355074000,15297782
183723334,Nashville,Nashville,1421697538000,36.16,-86.79,Currey Muse May,TN,1421853916000,15297782
230134472,Nashville,,1507731977000,36.07,-86.73,Cyann Danielle Davis,TN,1508265303000,15297782
12539073,Nashville,,1405959042000,36.13,-86.8,Dale Clay,TN,1421779315000,15297782
57169392,Nashville,Nashville,1446938279000,36.13,-86.8,Dalton Banks,TN,1484768368000,15297782
185135400,Nashville,,1426039074000,36.17,-86.72,Damian Serong ,TN,1431383376000,15297782
198420955,Brentwood,,1499879225000,36.0,-86.79,Daniel,TN,1503585910000,15297782
206264205,Nashville,,1483731629000,36.13,-86.8,Daniel Bateman,TN,1508248301000,15297782
27644372,Nashville,,1415243642000,36.17,-86.78,Daniel Heacock,TN,1428668436000,15297782
225999808,Nashville,,1492635390000,36.14,-86.74,daniel smith,TN,1508365764000,15297782
11313416,Nashville,Nashville,1412266731000,36.08,-86.72,Danny,TN,1472169997000,15297782
206240756,Murfreesboro,,1496178554000,35.87,-86.44,Dara,TN,1505672663000,15297782
182530370,Nashville,Nashville,1416272826000,36.17,-86.78,Darrin,TN,1448130416000,15297782
493901,Nashville,"Sussex, WI",1479309713000,36.18,-86.81,Dave,TN,1508170225000,15297782
3517021,Nashville,"Tampa, FL",1420253916000,36.11,-86.86,Dave D,TN,1426520311000,15297782
201446209,Nashville,,1478534541000,36.09,-86.82,Dave Harms,TN,1480696334000,15297782
185771141,Nashville,,1436957761000,36.17,-86.78,Dave Seeman,TN,1506183712000,15297782
12720241,Nashville,Nashville,1493047741000,36.13,-86.8,Dave Terry,TN,1493047741000,15297782
121502762,Nashville,,1505943644000,36.17,-86.78,David Bryan,TN,1505943644000,15297782
166884982,Nashville,,1468927848000,36.14,-86.74,David Head,TN,1468927848000,15297782
185689933,Nashville,,1428949802000,36.15,-86.78,David Hollerith,TN,1432235187000,15297782
144256692,Nashville,,1499896077000,36.15,-86.86,David VanWie,TN,1499896077000,15297782
89973812,Nashville,,1438054203000,36.11,-86.86,David Wright,TN,1477927948000,15297782
228533008,West Palm Beach,West Palm Beach,1500612676000,26.66,-80.26,Davy Yue,FL,1500612676000,15297782
4686468,Brentwood,,1426001828000,36.0,-86.79,Deanna Vickers,TN,1498081948000,15297782
184170710,Nashville,,1493173422000,36.17,-86.72,Debra,TN,1494449881000,15297782
176494922,Columbia,Columbia,1418308377000,37.11,-85.28,Dennis L. Robinson,KY,1431359141000,15297782
234179814,Nashville,,1505855814000,36.17,-86.78,Didi Hill,TN,1508163990000,15297782
231087163,Franklin,,1499201454000,35.92,-86.89,Doreathea Haraguchi,TN,1499727813000,15297782
184889029,Nashville,,1425327986000,36.18,-86.81,Dorothy Thornton,TN,1425327986000,15297782
201081470,Nashville,,1481571845000,36.17,-86.78,Doug Pflueger,TN,1498101339000,15297782
63921092,Nashville,,1431106706000,36.17,-86.78,Doug Powers,TN,1431106706000,15297782
22331221,Nashville,New York,1417724989000,36.22,-86.77,Drew D'Agostino,TN,1417724989000,15297782
14584394,Nashville,Nashville,1484274833000,36.18,-86.74,Drew Straton,TN,1499229058000,15297782
184778124,Franklin,,1440005149000,35.92,-86.89,Eamon Baghernejad,TN,1498134410000,15297782
196971071,Murfreesboro,,1450387654000,35.87,-86.44,Ed Jaramillo,TN,1452826885000,15297782
185941640,Nashville,,1449765426000,36.17,-86.78,Edwin Acevedo,TN,1450367123000,15297782
227457311,Nashville,,1494612377000,36.14,-86.74,Elizabeth Worley,TN,1497991781000,15297782
94498242,Nashville,"Kailua Kona, HI",1498072698000,36.16,-86.79,Emily ,TN,1508355583000,15297782
74482742,Denver,Denver,1426711353000,39.7,-105.0,Emily Applegate,CO,1426711353000,15297782
195329871,Nashville,,1454721489000,36.17,-86.78,Emma Beaton,TN,1457195164000,15297782
226880520,Nashville,,1493824556000,36.14,-86.74,Emma Everett,TN,1493824556000,15297782
17769001,Nashville,,1464297522000,36.21,-86.72,Emma Everett,TN,1500482373000,15297782
214934204,Nashville,,1476889068000,36.08,-86.72,Enis Cirak,TN,1491430596000,15297782
87894842,Nashville,,1416369685000,36.11,-86.86,Eric Brodzinski,TN,1416378885000,15297782
14750331,Nashville,,1403728819000,36.08,-86.72,Eric Carroll,TN,1508350687000,15297782
199665292,Nashville,,1476657450000,36.21,-86.72,Eric Denton,TN,1508468257000,15297782
8255935,Nashville,,1435027576000,36.17,-86.78,Eric DiChiara,TN,1474578172000,15297782
157036142,Brooklyn,,1405697349000,40.7,-73.99,Eric Guroff,NY,1489499567000,15297782
11054542,Murfreesboro,"Murfreesboro, TN",1461268359000,35.87,-86.34,Eric Hogan,TN,1461268359000,15297782
137108182,Clarksville,,1406831247000,36.56,-87.41,Eric Johnson,TN,1407341145000,15297782
190664107,Nashville,"Los Angeles, CA",1442254264000,36.18,-86.74,Eric Mirowitz,TN,1507070019000,15297782
140062632,Nashville,,1420671742000,36.08,-86.72,Eric OReilly,TN,1442459551000,15297782
156873382,Nashville,Nashville,1433792716000,36.17,-86.79,Eric Rambow,TN,1434641667000,15297782
10085652,Nashville,,1495583970000,36.07,-86.78,Eric Wagner,TN,1505927707000,15297782
174405992,Nashville,,1412037251000,36.18,-86.81,Erik Carlson,TN,1413475990000,15297782
77148762,Nashville,Fort Lauderdale,1453081444000,36.17,-86.78,Erin Oxborrow,TN,1500989361000,15297782
116300222,Kingston Springs,,1491985301000,36.09,-87.12,Eva Angell,TN,1491985301000,15297782
183786937,Nashville,Nashville,1421866800000,36.18,-86.81,Evan Reese,TN,1476393995000,15297782
11995995,New York,,1414693762000,40.72,-74.0,Florent de Gantes,NY,1496270647000,15297782
218288195,Nashville,,1481918554000,36.14,-86.74,Frederick Vaughn,TN,1502381243000,15297782
41505052,Farmington,Las Vegas,1409691764000,42.51,-83.41,Ganapathy,MI,1462555328000,15297782
190941610,Nashville,,1505101018000,36.17,-86.78,Garrett,TN,1505163708000,15297782
137425392,Franklin,,1492454366000,35.92,-86.89,Gaurav,TN,1492639727000,15297782
191540536,Franklin,,1440010698000,35.92,-86.89,Geoff Alday,TN,1499814612000,15297782
155383302,Nashville,,1411054088000,36.17,-86.78,GIRIJA SAHU,TN,1413562197000,15297782
184162999,Nashville,,1447709744000,36.13,-86.8,Goutham,TN,1492136365000,15297782
6919141,Nashville,,1421888239000,36.06,-86.96,Gray,TN,1500085362000,15297782
52088722,Nashville,,1505420768000,36.18,-86.74,Grayson Carroll,TN,1508200528000,15297782
220723714,Nashville,,1492508315000,36.17,-86.78,Greg,TN,1492690296000,15297782
194337430,Smyrna,,1482251515000,35.97,-86.51,Greg Vogel,TN,1482251515000,15297782
64730712,Franklin,Franklin,1416841621000,35.93,-86.81,Greg Wiley,TN,1505926872000,15297782
91377822,Nashville,,1405707160000,36.16,-86.79,Hana Crume ,TN,1406147028000,15297782
100454522,Chicago,,1496761343000,41.88,-87.62,Harshil,IL,1496761343000,15297782
30687102,Nashville,"London, England",1458002754000,36.17,-86.78,Hassan,TN,1492403297000,15297782
207946368,Charleston,,1493843548000,39.6,-88.1,Hazel,IL,1493843548000,15297782
218816696,Nashville,,1505571124000,36.13,-86.8,Heather,TN,1505571124000,15297782
219321561,Nashville,,1496350270000,36.17,-86.78,Heather Scheiderer,TN,1496350270000,15297782
186901717,Nashville,,1443753992000,36.13,-86.8,Helen,TN,1468871907000,15297782
222717780,Lebanon,,1496244643000,36.21,-86.31,Hunter Eastland,TN,1496244643000,15297782
211978245,Nashville,,1472585794000,36.14,-86.74,Hunter Reed,TN,1476896554000,15297782
199321351,Nashville,,1456928492000,36.22,-86.77,Ike,TN,1498053902000,15297782
182824729,Nashville,,1417619640000,36.18,-86.81,Irene Phelps,TN,1425996990000,15297782
225470780,Nashville,,1491923998000,36.14,-86.74,Isaac Wuest,TN,1491923998000,15297782
64683812,San Francisco,,1435947859000,37.78,-122.42,Jack Mardack,CA,1435947859000,15297782
186175531,Brentwood,,1429040686000,36.0,-86.79,Jacob G,TN,1441143458000,15297782
8455037,Brooklyn,Boston,1422817918000,40.68,-73.98,Jacob Gordon,NY,1478877407000,15297782
11007702,Los Angeles,,1491365135000,33.99,-118.43,Jacob Nguyen,CA,1491365135000,15297782
207265048,Nashville,,1490302922000,36.17,-86.78,Jake Novick,TN,1502925200000,15297782
15548971,Franklin,"McLean, VA",1485990158000,35.92,-86.89,James Kanka,TN,1485990158000,15297782
2606806,Nashville,,1483656981000,36.19,-86.8,James Porter,TN,1506096995000,15297782
217853628,Nashville,,1502209266000,36.13,-86.8,James Walker,TN,1502209266000,15297782
120856972,Nashville,,1405677656000,36.17,-86.78,Jamin Guy,TN,1406333089000,15297782
157030712,Nashville,,1405695029000,36.18,-86.81,JANET RIVES,TN,1411079366000,15297782
188100470,Nashville,,1452747862000,36.17,-86.78,Jared Fishman,TN,1479005065000,15297782
123245352,Nashville,,1429537404000,36.15,-86.86,Jared Usrey,TN,1457805318000,15297782
195172185,Nashville,,1446833965000,36.17,-86.72,Jarvis Sheffield,TN,1446951040000,15297782
9698215,Murfreesboro,"Murfreesboro, TN",1452877765000,35.82,-86.45,Jason Stiltner,TN,1478209818000,15297782
2164619,Brentwood,,1488849600000,36.0,-86.79,Jay Caplan,TN,1489106312000,15297782
151015692,Nashville,,1498222297000,36.17,-86.78,Jaz Cole,TN,1507086117000,15297782
192080691,Nashville,,1456330163000,36.14,-86.74,Jean L,TN,1456330163000,15297782
186738637,Nashville,,1430337528000,36.18,-86.81,Jeannette W,TN,1445452446000,15297782
6775003,Nashville,Nashville,1506301596000,36.11,-86.78,Jeff,TN,1506301596000,15297782
8731661,Nashville,"Durham, NC",1439564848000,36.17,-86.79,Jeff Bowen,TN,1506360387000,15297782
145180932,Murfreesboro,,1405309189000,35.87,-86.44,Jeff Condit,TN,1479330610000,15297782
102643512,Nashville,,1404176401000,36.17,-86.78,Jeff Crump,TN,1475104783000,15297782
12202811,Goodlettsville,Goodlettsville,1493849135000,36.33,-86.74,Jeff Lee,TN,1507148775000,15297782
24885672,Nashville,,1438101468000,36.09,-86.82,Jeff McKeand,TN,1452014175000,15297782
5048026,Franklin,Nashville,1422642845000,35.93,-86.81,jeff mikres,TN,1492471587000,15297782
7562515,Nashville,Nashville,1406052261000,36.21,-86.72,Jeff Stansberry,TN,1406052261000,15297782
188166591,Nashville,,1485976351000,36.08,-86.72,Jeff W,TN,1503679035000,15297782
182798450,Nashville,,1417555872000,36.13,-86.8,Jeff Whitlock,TN,1418842165000,15297782
184700679,Nashville,,1424744855000,36.18,-86.81,Jen P.,TN,1424744855000,15297782
75730372,New York,,1476827615000,40.75,-73.97,Jena Acuff,NY,1476827615000,15297782
193454276,Goodlettsville,Nashville,1497889044000,36.33,-86.74,Jennifer Bennett,TN,1499806601000,15297782
189862909,Nashville,,1438714566000,36.17,-86.78,Jeremiah Pyron,TN,1440084441000,15297782
114902252,Nashville,,1450367393000,36.17,-86.78,Jess Nelson,TN,1452528370000,15297782
208776218,Nashville,,1468200322000,36.17,-86.78,Jesse B Wallace,TN,1468200322000,15297782
185804907,San Juan,,1508293069000,18.42,-66.06,Jesse Dedman,PR,1508293069000,15297782
231240193,Nashville,,1499371893000,36.14,-86.74,Jessica C. Osaki,TN,1507914759000,15297782
190043499,Nashville,"New York, NY",1499997463000,36.18,-86.74,Jessica Emily D'Eugenio,TN,1500395523000,15297782
105031832,Nashville,,1421873297000,36.17,-86.78,Jim Cipriani,TN,1475114000000,15297782
14472883,Nashville,,1404768589000,36.17,-86.78,Jim Hitch,TN,1464564213000,15297782
158793082,Madison,,1429235172000,36.26,-86.71,JoAnn Brooks,TN,1481840001000,15297782
182863296,Nashville,,1423606674000,36.11,-86.86,Joe Bennett,TN,1506099514000,15297782
45107182,Nashville,,1403922605000,36.17,-86.78,Joe Cooper Wallace III,TN,1453330059000,15297782
185941772,Nashville,,1469026550000,36.11,-86.86,Joe Hajek,TN,1500403212000,15297782
181457472,Nashville,"Erie, PA",1467593288000,36.17,-86.78,Joe Mifsud,TN,1467593288000,15297782
238650277,Nashville,,1507732480000,36.14,-86.74,Joe Spath,TN,1508513222000,15297782
23090611,Smyrna,Nashville,1403966124000,35.97,-86.51,Joel Lindsey,TN,1481249602000,15297782
222858951,Columbia,,1488243746000,35.61,-87.05,Joel Shetler,TN,1488243746000,15297782
100101282,Nashville,,1438686696000,36.13,-86.8,Joelle,TN,1468580537000,15297782
193463912,Nashville,,1487173997000,36.15,-86.86,Joey Convertino,TN,1487784777000,15297782
114279782,Nashville,Doylestown,1478618000000,36.16,-86.79,John,TN,1478618000000,15297782
231657306,Franklin,,1500500868000,35.92,-86.89,John Besser,TN,1501019949000,15297782
188475565,Nashville,,1452014641000,36.11,-86.86,John Fleming,TN,1452014641000,15297782
180722412,Gallatin,Gallatin,1438283672000,36.39,-86.45,John Henderson,TN,1439425721000,15297782
4983053,Murfreesboro,"Murfreesboro, TN",1403925690000,35.87,-86.44,John Ingram,TN,1437607694000,15297782
202629605,Nashville,,1494786686000,36.17,-86.72,John Mendez,TN,1495054889000,15297782
7682037,Franklin,Franklin,1407077659000,35.93,-86.81,John Pisciotta,TN,1438271585000,15297782
175154172,Santa Fe,Santa Fe,1438805341000,35.7,-105.97,John Warmath,NM,1438805341000,15297782
187417554,Franklin,,1437319426000,35.92,-86.89,Jon Allen,TN,1497794915000,15297782
51823542,Nashville,,1403786441000,36.13,-86.8,Jon Arnold,TN,1502139633000,15297782
179814582,Mount Juliet,"Sacramento, CA",1427197618000,36.22,-86.52,Jon Cutright,TN,1505946211000,15297782
126095692,Nashville,,1413395475000,36.14,-86.74,Jon Gautsch,TN,1431359120000,15297782
10771797,Franklin,,1408132906000,35.99,-86.9,Jon Henshaw,TN,1484286948000,15297782
13490762,Franklin,"Columbus, OH",1499781134000,35.92,-86.89,Jon Robinson,TN,1502121535000,15297782
1909887,Brentwood,Nashville,1442526373000,36.0,-86.79,Jon Sharp,TN,1447947860000,15297782
161711722,Franklin,,1438804152000,35.92,-86.89,Jon Shearer,TN,1505760415000,15297782
26657712,Franklin,Franklin,1457240106000,35.93,-86.81,Jonathan Field,TN,1468552456000,15297782
218236284,Nashville,,1484630468000,36.11,-86.86,Jonathan King Hobson,TN,1484783771000,15297782
219594351,Nashville,,1484841689000,36.17,-86.78,Jonathan M,TN,1484841689000,15297782
8900940,Nashville,Nashville,1496067338000,36.08,-86.72,Jonathan Smith,TN,1502664662000,15297782
13008681,Nashville,Nashville,1489615501000,36.18,-86.74,Jonathan Taufer,TN,1489615501000,15297782
181246862,Franklin,Franklin,1458156146000,35.92,-86.89,Jonathan Zajas,TN,1458156146000,15297782
185807624,Nashville,Nashville,1505571970000,36.11,-86.86,Jonelly Sharp,TN,1507081059000,15297782
221531396,Franklin,,1486420216000,35.92,-86.89,Jono Krawczyk,TN,1505786225000,15297782
9090284,Nashville,Red Bluff,1496676338000,36.22,-86.77,Joseph Graves,TN,1502718903000,15297782
202540096,Marietta,,1459514457000,33.94,-84.61,Joseph King,GA,1476729924000,15297782
31960322,Nashville,,1481772227000,36.1,-86.66,Joseph Levy,TN,1505580036000,15297782
238649859,Nashville,,1507732172000,36.14,-86.74,Josh Bumgardner,TN,1508346084000,15297782
15013961,Nashville,,1406218002000,36.18,-86.74,Josh Oakes,TN,1423698808000,15297782
18345641,Nashville,Nashville,1403924996000,36.15,-86.86,Josh Palmer,TN,1426192952000,15297782
64144442,Nashville,,1403956810000,36.17,-86.78,Josh Reeder,TN,1479920455000,15297782
194385055,Nashville,,1445364456000,36.14,-86.74,Josh S.,TN,1502835190000,15297782
8736052,Brentwood,"Nashville, TN",1449874324000,36.0,-86.79,Joshua,TN,1463633176000,15297782
5351550,Nashville,,1410720744000,36.17,-86.79,Joshua Pruitt,TN,1436328208000,15297782
178129362,Nashville,,1413486029000,36.18,-86.81,Joshua Smith,TN,1502544054000,15297782
19928261,Franklin,Wolcottville,1405027562000,35.92,-86.89,Joshua Wingstrom,TN,1422548865000,15297782
7606161,Chattanooga,Bellingham,1452135511000,35.04,-85.31,Josiah Goff,TN,1506474592000,15297782
227186615,Nashville,,1500472106000,36.17,-86.78,Judy Cooper,TN,1508297964000,15297782
225111831,Nashville,,1492528771000,36.08,-86.72,Justin Matanane,TN,1492640918000,15297782
128149612,Nashville,,1405957958000,36.13,-86.8,Justin Tannenbaum,TN,1426621922000,15297782
14368154,Nashville,,1445367604000,36.16,-86.79,Justin Threlkeld,TN,1508355902000,15297782
177423542,Nashville,,1413216550000,36.18,-86.81,Jyothi Jayakrishna,TN,1440012523000,15297782
9306391,Nashville,"Nashville, TN",1456762066000,36.16,-86.79,KacyB,TN,1456936309000,15297782
210578213,Petersburg,,1470611871000,35.38,-86.59,Karl Thornhill,TN,1481825209000,15297782
60195472,Nashville,Nashville,1486906273000,36.08,-86.72,Karthik Kornalies,TN,1505946899000,15297782
224978753,Nashville,,1505818949000,36.17,-86.78,Kassandra Pinori,TN,1507861996000,15297782
236998384,Baltimore,,1505911542000,39.29,-76.62,Kassy Pinori,MD,1506000544000,15297782
157056792,Nashville,,1405706445000,36.18,-86.81,Kat Amano,TN,1438091536000,15297782
134794692,Nashville,Nashville,1407157450000,36.06,-86.96,Katherine M Coons,TN,1487200373000,15297782
176357922,Nashville,,1423768256000,36.21,-86.72,Katherine McEldoon,TN,1463436596000,15297782
183794995,Nashville,,1444615600000,36.16,-86.79,Katie,TN,1444615600000,15297782
44758662,Smyrna,Smyrna,1423023371000,35.97,-86.51,Katie Davidson,TN,1431366048000,15297782
47387742,New York,,1447691339000,40.73,-74.01,Katie Maclachlan,NY,1456421187000,15297782
39964492,Nashville,,1503497083000,36.13,-86.8,Katie Merth,TN,1508434462000,15297782
206264190,Nashville,,1482359802000,36.11,-86.86,Katie Pflueger,TN,1508264560000,15297782
220564993,Nashville,,1492538963000,36.17,-86.78,katie prevost,TN,1498580323000,15297782
191131548,Hendersonville,,1468357828000,36.32,-86.61,Katie St Francis,TN,1468357828000,15297782
192709908,Hendersonville,,1445896027000,36.32,-86.61,Katie St. Francis,TN,1479300048000,15297782
153142372,Nashville,,1405707896000,36.18,-86.74,Katrina,TN,1453263126000,15297782
155195012,Nashville,"Vicksburg, MS",1438714474000,36.17,-86.72,Kayla Lyn Jones,TN,1507139740000,15297782
189774212,Draper,Draper,1436626914000,40.51,-111.87,KC Agrelius,UT,1490845589000,15297782
56997982,Nashville,"Springfield, IL",1478841163000,36.08,-86.72,Keegan Singh,TN,1478841163000,15297782
204156921,Nashville,,1489108710000,36.17,-86.72,Kei Gowda,TN,1494068921000,15297782
8537322,Nashville,Nashville,1488247789000,36.17,-86.72,Kei Gowda,TN,1492167563000,15297782
140270072,Nashville,,1494612158000,36.14,-86.74,Kelly Dennen,TN,1503672606000,15297782
3591386,Madison,Madison,1452360884000,36.26,-86.71,Ken White,TN,1463608105000,15297782
224557218,Nashville,,1494970976000,36.16,-86.79,Kendall Johnston-Legg,TN,1496201128000,15297782
29442202,Columbus,Columbus,1505844973000,39.95,-83.13,Kent,OH,1508252896000,15297782
16598561,Nashville,,1498071846000,36.15,-86.81,Kent Weber,TN,1505594155000,15297782
170209812,Nashville,Nashville,1480693854000,36.1,-86.66,Kevin Godsey,TN,1506987758000,15297782
185358570,Nashville,,1453927194000,36.17,-86.78,Kevin Holland,TN,1484779522000,15297782
184365656,Nashville,,1492132004000,36.11,-86.78,Kevin Huber,TN,1498003785000,15297782
182718557,Lyon,Lyon,1434558534000,45.76,4.83,Kevin Murphy,,1457564728000,15297782
153867182,Nashville,,1478529732000,36.18,-86.81,Kevon Saber,TN,1478529732000,15297782
49816142,Nashville,,1476553489000,36.13,-86.8,Kim Higdon,TN,1506218739000,15297782
3016909,Nashville,Nashville,1443728058000,36.15,-86.86,Kim L.,TN,1471377261000,15297782
205092337,Nashville,,1464894915000,36.08,-86.72,Kim M.,TN,1501126099000,15297782
204599868,Denver,Denver,1467305835000,39.77,-105.01,Kim Oakes,CO,1492538996000,15297782
212086352,Nashville,,1481583377000,36.17,-86.78,Krista Phillips,TN,1507903193000,15297782
184143110,Franklin,,1425939474000,35.93,-86.81,Kristiana Burk,TN,1445251210000,15297782
11028407,Nashville,,1446680560000,36.18,-86.74,Kristin McKinney,TN,1473358342000,15297782
199867045,Nashville,,1455660247000,36.16,-86.79,Kristina Dolan,TN,1462476489000,15297782
124371832,Brentwood,,1464364112000,36.0,-86.79,Kurt Mueller,TN,1476276951000,15297782
209356758,Nashville,,1468951875000,36.17,-86.78,Kyle Ludvik,TN,1493906208000,15297782
225118888,Nashville,,1505572708000,36.17,-86.78,Lana,TN,1507075910000,15297782
7979701,Brentwood,"Riverside, CA",1473168607000,36.0,-86.79,Landon Hale,TN,1507910280000,15297782
12328265,Nashville,,1434641969000,36.18,-86.74,Laura Creekmore,TN,1444998231000,15297782
58001882,Nashville,Nashville,1406063666000,36.18,-86.74,Lauren Leonard,TN,1438710702000,15297782
13484394,Nashville,,1403922858000,36.18,-86.74,laurie kalmanson,TN,1469631907000,15297782
227718747,Nashville,,1494964154000,36.17,-86.78,Leah,TN,1495120547000,15297782
212943556,Nashville,,1473903508000,36.14,-86.74,Leah Gwin,TN,1479224916000,15297782
203706697,Nashville,,1477242280000,36.18,-86.74,Lee Bridges,TN,1487105558000,15297782
4767207,Nashville,,1406150349000,36.06,-86.96,Levi Kennedy,TN,1506362131000,15297782
13843243,Nashville,,1438413041000,36.17,-86.78,Lily Scholz,TN,1492193852000,15297782
223690505,Nashville,,1505831299000,36.13,-86.8,Lindsay Conlin,TN,1505831299000,15297782
183783884,Nashville,,1421861572000,36.17,-86.78,Liza D,TN,1424240136000,15297782
13038904,Nashville,"Huntington Beach, CA",1403930214000,36.08,-86.72,Luke Stokes,TN,1406147358000,15297782
217856665,Nashville,,1491451466000,36.21,-86.72,Luke Woodward,TN,1495980177000,15297782
127594002,Old Hickory,,1496852035000,36.17,-86.6,Lydia K,TN,1503678124000,15297782
155257782,Brentwood,,1407429880000,36.0,-86.79,Madhu Yadali,TN,1496263207000,15297782
180798072,Nashville,,1433978883000,36.17,-86.79,maggie gilchrist,TN,1434669552000,15297782
198075659,Nashville,,1452743235000,36.16,-86.79,MaiLinh,TN,1508804792000,15297782
184028171,Nashville,,1423000382000,36.11,-86.86,Mallory Blake,TN,1499889979000,15297782
213430547,Nashville,,1474495462000,36.14,-86.74,Mandy Arola,TN,1505944950000,15297782
9683438,Nashville,Nashville,1462376738000,36.21,-86.72,Marc,TN,1462376738000,15297782
236163083,Nashville,,1505173815000,36.07,-86.73,Marcus Jones,TN,1508419354000,15297782
194097586,Nashville,,1484666110000,36.18,-86.74,Margaret Forshee,TN,1485190508000,15297782
182626228,Brentwood,,1460135679000,36.0,-86.79,Mark,TN,1479330328000,15297782
239120744,Nashville,,1508270935000,36.14,-86.74,Mark Confroy,TN,1508270935000,15297782
195800217,Nashville,,1447965610000,36.11,-86.86,Mark Ott,TN,1447965610000,15297782
44942272,Nashville,Nashville,1405734302000,36.17,-86.79,Mark Tune,TN,1505565937000,15297782
194776657,Franklin,,1446058930000,35.93,-86.81,Marnie Kelly,TN,1447965801000,15297782
198524767,Nashville,,1453580044000,36.06,-86.96,Martha Garrett,TN,1453580044000,15297782
207538596,Nashville,Chicago,1488950147000,36.16,-86.79,Martin Vioski,TN,1493919474000,15297782
7969680,Nashville,,1429045427000,36.18,-86.74,Mary Breen,TN,1468442071000,15297782
9524129,Nashville,Atlanta,1447859551000,36.17,-86.72,Mary Ellen Klein,TN,1505867277000,15297782
103197852,Nashville,,1452971686000,36.16,-86.79,Mary Fox,TN,1460577924000,15297782
11489834,Nashville,"Eden, NC",1465481553000,36.1,-86.66,Matt,TN,1504061027000,15297782
182824592,Nashville,,1417618714000,36.18,-86.81,Matt Clark,TN,1463691163000,15297782
9228136,Nashville,,1403797467000,36.17,-86.78,Matt DeVandry,TN,1502453405000,15297782
187002184,Nashville,,1431461093000,36.17,-86.72,Matt Fili,TN,1463158870000,15297782
208430481,Nashville,,1469032286000,36.17,-86.78,Matt Hamil,TN,1469032286000,15297782
5900662,Nashville,"Nashville, TN",1430725168000,36.07,-86.78,Matt Kenigson,TN,1507069401000,15297782
224983845,Nashville,,1491231839000,36.14,-86.74,Matt Slosky,TN,1491231839000,15297782
200870762,Nashville,,1457068246000,36.14,-86.74,Matt Thackston,TN,1458231426000,15297782
238684613,Nashville,,1507765236000,36.17,-86.78,Matt Walker,TN,1507765236000,15297782
139451372,Nashville,,1408623865000,36.14,-86.74,Matt Zechini,TN,1427912376000,15297782
183023248,Brentwood,,1428553835000,36.0,-86.79,Matthew A. Overlund,TN,1431010403000,15297782
223685800,Nashville,,1489416922000,36.14,-86.74,Matthew Sheppard,TN,1492540627000,15297782
139332052,Nashville,,1463588799000,36.13,-86.8,Matthew William Lummus,TN,1463588799000,15297782
51066262,Nashville,,1445357977000,36.13,-86.8,Maureen Higgins,TN,1484793911000,15297782
185930717,Nashville,"Murfreesboro, TN",1441005292000,36.17,-86.78,Max Trenkle,TN,1442365084000,15297782
238660910,Nashville,,1507742252000,36.14,-86.74,meera mehta,TN,1507742252000,15297782
115743592,Nashville,,1414424762000,36.18,-86.74,Megan Feltes,TN,1461100155000,15297782
210413965,Portland,,1470409619000,36.57,-86.49,Megan Paquin,TN,1471385640000,15297782
91490642,Nashville,Nashville,1457547203000,36.21,-86.72,Megan Wohlford,TN,1490731630000,15297782
62106992,Nashville,,1492744246000,36.14,-86.74,Melissa Harris,TN,1508358094000,15297782
33325392,Chicago,,1493916986000,41.9,-87.67,Melissa Karlin,IL,1508295511000,15297782
156899362,Antioch,,1405621235000,36.04,-86.64,Michael Ashby,TN,1423698704000,15297782
231627139,Nashville,,1499821721000,36.14,-86.74,Michael Cavopol,TN,1501717988000,15297782
221553263,Nashville,,1487190892000,36.09,-86.82,Michael Kennedy,TN,1489608773000,15297782
156930222,Franklin,,1405634382000,35.92,-86.89,Michael Lummus,TN,1458167429000,15297782
183585853,Nashville,,1421274297000,36.18,-86.81,Michael McKerley,TN,1442411296000,15297782
196908458,Nashville,,1452015810000,36.13,-86.8,Michael McKerley,TN,1474492278000,15297782
212948310,Nashville,,1473881910000,36.14,-86.74,MIchael O'Connor,TN,1474494154000,15297782
8944058,London,"Jackson, MS",1404084334000,51.52,-0.1,Michael O'Keefe,17,1508362818000,15297782
217249698,Spring Hill,,1482254803000,35.76,-86.88,Michael Taylor,TN,1505531612000,15297782
112781002,Nashville,,1403712260000,36.17,-86.78,Michael Thurmon,TN,1489151612000,15297782
161870162,Westmoreland,Westmoreland,1413938420000,36.57,-86.22,Michael Vertrees,TN,1414016977000,15297782
12831425,Nashville,,1459960555000,36.17,-86.78,Michelle Arceneaux,TN,1504969491000,15297782
46486792,Nashville,,1463604244000,36.17,-86.78,Michelle McManus,TN,1500933542000,15297782
136641582,Nashville,Colorado,1505072186000,36.13,-86.8,Mike Bryant,TN,1505072186000,15297782
134202392,Nashville,,1485231892000,36.08,-86.72,Mike Heitzke,TN,1486668657000,15297782
186237420,Nashville,,1431979226000,36.11,-86.86,Mike Presley,TN,1439432434000,15297782
109839262,Austin,,1446678471000,30.46,-97.77,Minhaj Shaik,TX,1471444532000,15297782
226212530,Nashville,,1498006379000,36.09,-86.82,miriam rozenbaum,TN,1498006379000,15297782
213408276,Nashville,,1474471376000,36.14,-86.74,Mitch Meiss,TN,1507855869000,15297782
21539461,Nashville,,1441125942000,36.06,-86.96,Mitchell Day,TN,1441125942000,15297782
210865243,Vienna,"Vienna, Virginia",1471031309000,38.93,-77.26,Mohaimin,VA,1471400236000,15297782
188989465,Franklin,Franklin,1474484282000,35.93,-86.81,Moiz,TN,1508304295000,15297782
162147582,Nashville,,1483544321000,36.06,-86.96,Monica,TN,1483544321000,15297782
149783732,Brentwood,,1427227666000,36.0,-86.79,Monica Miller,TN,1427227666000,15297782
187082827,Nashville,"Decatur, IL",1431107067000,36.18,-86.74,Nate Ragan,TN,1431523375000,15297782
233148287,Nashville,,1501702562000,36.14,-86.74,Nathan Dryden,TN,1501702562000,15297782
152011532,Smyrna,"Smyrna, TN",1505172396000,35.97,-86.51,Nathan Martinez,TN,1505484449000,15297782
120567802,Nashville,,1426003957000,36.11,-86.86,Nathaniel Holzmann,TN,1508265949000,15297782
187904554,Nashville,Nashville,1445192347000,36.08,-86.72,Nick Glover,TN,1453070167000,15297782
189187078,Thompsons Station,,1487358466000,35.8,-86.9,Nick McMenamin,TN,1505743777000,15297782
183376599,Nashville,Nashville,1438814027000,36.16,-86.79,Nick Smrdel,TN,1440079704000,15297782
105420172,Philadelphia,,1446062265000,40.12,-75.01,Nicole,PA,1447863715000,15297782
206660603,Nashville,Kingston Springs,1465323888000,36.14,-86.74,Nicolette V Beard,TN,1482805472000,15297782
171188212,Nashville,Nashville,1498081634000,36.16,-86.79,Nikhil,TN,1498081634000,15297782
123168762,Franklin,,1426689668000,35.92,-86.89,Nitin,TN,1426790049000,15297782
12993181,Virginia Beach,,1428797981000,36.8,-76.19,Nitin Tekchandani,VA,1428797981000,15297782
12120205,Santa Monica,,1498076484000,34.03,-118.47,Olivier Forget,CA,1505935062000,15297782
186972090,Raleigh,,1500491776000,35.77,-78.64,P LaPaglia,NC,1506279576000,15297782
12184310,Nashville,,1406082994000,36.1,-86.66,Pamela A. Coyle,TN,1452656429000,15297782
126998022,Nashville,,1502234116000,36.17,-86.78,Pankaj Soni,TN,1505768436000,15297782
183880971,Atlanta,,1422205625000,33.86,-84.4,Patrice,GA,1422205625000,15297782
8400359,Nashville,,1404765230000,36.08,-86.72,Patrick Sun,TN,1498149586000,15297782
65154822,Nashville,,1429710962000,36.13,-86.8,Paul Stanley,TN,1493317056000,15297782
12365446,Nashville,"Asheville, NC",1431302986000,36.16,-86.78,Peter,TN,1431302986000,15297782
43463402,Franklin,"San Jose, CA",1477231192000,35.92,-86.89,Peter Bickford,TN,1483542631000,15297782
53121132,Nashville,"Knights Landing, CA",1436756239000,36.17,-86.78,Peter Leiser,TN,1500506928000,15297782
20735651,Nashville,"Flint, MI",1404142686000,36.17,-86.78,Peter Peltier,TN,1495752977000,15297782
10625600,Nashville,.,1459569596000,36.17,-86.72,phil,TN,1499901306000,15297782
191539418,Nashville,,1440008343000,36.14,-86.74,Phil Wilson,TN,1491967720000,15297782
69653682,Nashville,Nashville,1425009225000,36.11,-86.86,Philip Brown,TN,1457710885000,15297782
184028419,Franklin,Hendersonville,1493138941000,35.93,-86.81,Phillip and Ritzy Pitts,TN,1508419562000,15297782
9822767,Nashville,,1403963133000,36.17,-86.78,Phillip Maddox,TN,1495736548000,15297782
3312543,Nashville,,1413494675000,36.17,-86.78,Piper,TN,1413494675000,15297782
209414848,Nashville,,1479314199000,36.07,-86.73,Piyush Patel,TN,1479327634000,15297782
182556379,Clarksville,,1426115682000,36.53,-87.35,Pk3,TN,1459288828000,15297782
22624461,Nashville,Nashville,1494301456000,36.16,-86.79,prashant,TN,1498098224000,15297782
64117742,Mechanicsburg,Mechanicsburg,1474417021000,40.22,-77.0,Pravin Kancherla,PA,1500000783000,15297782
221475059,Nashville,,1486344385000,36.14,-86.74,Pritish Pratap,TN,1492527965000,15297782
225999130,Nashville,,1492634573000,36.14,-86.74,Raghavendra Kommareddy,TN,1492789845000,15297782
90670622,San Francisco,,1403718772000,37.79,-122.4,Raj Ramachandran,CA,1440165269000,15297782
48088022,Nashville,,1421883247000,36.17,-86.78,Rajeev Polepalli,TN,1426094028000,15297782
115729602,Nashville,,1452204182000,36.17,-86.79,Rami,TN,1452204182000,15297782
175300482,Nashville,,1461890290000,36.16,-86.79,Rav,TN,1508366058000,15297782
226715160,Nashville,,1493601843000,36.14,-86.74,Reanna F.,TN,1495813476000,15297782
186479731,Waltham,,1505412381000,42.38,-71.24,Rebecca Groner,MA,1508365661000,15297782
188816818,Los Angeles,,1501240932000,33.97,-118.24,Reginald Grant,CA,1501240932000,15297782
215535325,Nashville,,1477349606000,36.14,-86.74,Rich Siebert,TN,1477349606000,15297782
185490506,Nashville,,1427127729000,36.18,-86.81,Richard B,TN,1495731563000,15297782
17177591,Nashville,Atlanta,1486511213000,36.18,-86.81,Richard Rissanen,TN,1506351302000,15297782
182701040,Brentwood,,1416858337000,36.0,-86.79,Rick,TN,1445898036000,15297782
191655607,Nashville,"Knoxville, TN",1484086230000,36.09,-86.82,Rick Kuhlman,TN,1500985086000,15297782
186142110,Nashville,,1428956877000,36.18,-86.81,Rob Brigance,TN,1481182056000,15297782
182621850,Nashville,New York,1445352613000,36.08,-86.72,Rob Scruggs,TN,1455898234000,15297782
184066993,Nashville,Evansville,1499433715000,36.17,-86.78,Rob Wilson,TN,1508679640000,15297782
225663816,Nashville,,1492176658000,36.14,-86.74,Robert,TN,1507069195000,15297782
232182396,Nashville,,1500495922000,36.14,-86.74,Robert Carroll,TN,1508336626000,15297782
120822802,Nashville,,1490226916000,36.17,-86.78,Robert Roy Miles II,TN,1490226916000,15297782
155278822,Murfreesboro,Memphis,1456204315000,35.82,-86.45,Romney Dickinson,TN,1497727843000,15297782
206204226,De Forest,,1478204429000,43.24,-89.33,Ron Greisch,WI,1481733584000,15297782
81632702,Austin,,1406124099000,30.29,-97.73,Roshan Gowda,TX,1435000808000,15297782
10119159,Hermitage,,1421697653000,36.19,-86.6,Ross Jones,TN,1508329558000,15297782
223738717,Brentwood,,1496017045000,36.0,-86.79,Ruby MBA Professional,TN,1502599585000,15297782
238773325,Nashville,,1507869433000,36.14,-86.74,Ryan Doppelheuer,TN,1507869433000,15297782
186805996,Nashville,,1472573716000,36.07,-86.72,Ryan O'Connor,TN,1472573716000,15297782
138008892,Columbus,Columbus,1489697426000,39.97,-83.0,Ryan Stryker,OH,1490028822000,15297782
26926402,Nashville,,1441706573000,36.13,-86.8,Ryan Waggoner,TN,1441706573000,15297782
192098303,Walnut Creek,,1447301650000,37.87,-122.07,Ryan Walker,CA,1450215337000,15297782
188734438,Hermitage,Hermitage,1438199451000,36.19,-86.6,Ryan Yamada,TN,1441986400000,15297782
184505703,Miami Beach,,1432042886000,25.81,-80.21,Ryann,FL,1432241912000,15297782
113070952,Kirkland,kirkland,1503685650000,47.69,-122.19,Sabrina Bina,WA,1507658464000,15297782
195519439,Bowling Green,,1447437212000,37.02,-86.46,Sameer,KY,1447437212000,15297782
15446041,Nashville,Nashville,1454626985000,36.08,-86.72,Samuel Palaparthy,TN,1505058921000,15297782
102344122,Antioch,,1470760470000,36.04,-86.64,Sandy Brewer Jones,TN,1484711826000,15297782
13701977,Nashville,,1409177221000,36.13,-86.8,Sandy DeWald,TN,1502456896000,15297782
192077432,Nashville,,1463597347000,36.09,-86.82,Sanju,TN,1463597347000,15297782
201084811,Nashville,,1468611654000,36.08,-86.72,Sarah M.,TN,1468611654000,15297782
229694377,Nashville,,1497448315000,36.17,-86.78,Sarajane McMahon,TN,1507661682000,15297782
104620242,Atlanta,,1487876554000,33.79,-84.39,Scott Arenz,GA,1505413510000,15297782
156721042,Nashville,,1405531758000,36.18,-86.81,Scott Massey,TN,1462481672000,15297782
14591100,Nashville,Nashville,1405961298000,36.16,-86.79,Scott Tsuchiyama,TN,1507080403000,15297782
22537571,Nashville,,1461133494000,36.14,-86.84,Scott Womer,TN,1463541109000,15297782
14344641,Nashville,Houston,1445880634000,36.15,-86.86,Sean Hill,TN,1445880634000,15297782
50605192,Nashville,,1474347121000,36.16,-86.79,Sean Shaw,TN,1478813899000,15297782
189358886,Nashville,,1435788900000,36.16,-86.79,Sean- Michael Smith,TN,1435788900000,15297782
200407318,Nashville,"Lima, PE",1487183520000,36.17,-86.78,Sebastián Alegre,TN,1487183520000,15297782
190978121,Lebanon,,1438923105000,36.21,-86.31,Senn Nathan,TN,1438923105000,15297782
8539046,Nashville,,1453324635000,36.13,-86.8,Shalini,TN,1508365508000,15297782
213543662,Nashville,,1476989971000,36.17,-86.78,Shanthi Narra,TN,1481826636000,15297782
161789342,Gallatin,,1408150944000,36.39,-86.45,Sharan Miles,TN,1408568328000,15297782
233085524,Nashville,,1501624226000,36.07,-86.78,Shatoya Polk,TN,1501624226000,15297782
45869432,Nashville,,1403788886000,36.15,-86.86,Shaun Buchhalter,TN,1445005898000,15297782
196390199,Nashville,,1462985247000,36.16,-86.79,Shawn Cothran,TN,1463611616000,15297782
76676072,Nashville,Nashville,1506048873000,36.08,-86.72,Sheena,TN,1506048873000,15297782
10878002,Mount Juliet,"Louisville, KY",1450206177000,36.22,-86.52,"Sherry L. Hall, CSP, CSPO, CSM",TN,1505055936000,15297782
230193273,Nashville,,1498083399000,36.14,-86.74,Shiv M,TN,1498344786000,15297782
213142231,Spring Hill,,1474141675000,35.76,-86.88,Simon Weller,TN,1474323752000,15297782
212994210,Nashville,,1473947601000,36.14,-86.74,Simone Welter,TN,1502135545000,15297782
153233172,Cincinnati,,1412022517000,39.16,-84.55,Sophie Turcotte,OH,1416519207000,15297782
7251068,Nashville,,1480273410000,36.11,-86.86,Stan Herring,TN,1507166472000,15297782
219329077,Franklin,,1500382327000,35.92,-86.89,STEPHEN KOVACH,TN,1500382327000,15297782
213166134,Nashville,,1474212779000,36.14,-86.74,Stephen Webb,TN,1476146783000,15297782
3430705,Franklin,Franklin,1409343061000,35.99,-86.9,Steve Winton,TN,1485989825000,15297782
51936922,Nashville,,1404045155000,36.13,-86.8,Steven Charles Boone,TN,1437482869000,15297782
82629722,Nashville,,1416688163000,36.09,-86.82,Susan Culkin,TN,1502671172000,15297782
185461290,Nashville,,1487203830000,36.08,-86.72,Susan W,TN,1487203830000,15297782
208142603,Nashville,,1494892801000,36.08,-86.72,Sushanth Kothapally,TN,1495058665000,15297782
161534122,Nashville,,1408023894000,36.09,-86.82,Tamara Baxt Clemmons,TN,1423674742000,15297782
222065087,Nashville,,1487346101000,36.14,-86.74,Tarekegn Sisay,TN,1487346101000,15297782
211551769,Nashville,Nashville,1471995589000,36.18,-86.74,taylor,TN,1471995589000,15297782
215167111,Nashville,,1503949484000,36.18,-86.81,Taylor Hale,TN,1507123566000,15297782
126066112,Nashville,Nashville,1465873760000,36.17,-86.78,Taylor Michael Matson,TN,1486934281000,15297782
185969595,Franklin,,1428512137000,35.93,-86.81,Terry Guilyard,TN,1453234472000,15297782
190363122,Franklin,New York,1437952371000,35.92,-86.89,Thad Parker,TN,1447869242000,15297782
233728656,Nashville,,1508366134000,36.17,-86.78,Tierra Langley,TN,1508366134000,15297782
76842942,Nashville,,1446782851000,36.17,-86.78,Tim Catchim,TN,1476454020000,15297782
191856239,Nashville,,1440615034000,36.15,-86.86,Tim Dickinson,TN,1445891690000,15297782
13766608,Spring Hill,Gogona,1490456264000,35.76,-86.88,Tim Duncklee,TN,1490456264000,15297782
227400254,Nashville,,1494722302000,36.17,-86.78,timoteo hernandez,TN,1507933307000,15297782
189077805,Franklin,Glendale,1501765713000,35.92,-86.89,Tobi Jo Schermuly,TN,1505941515000,15297782
5014248,Nashville,,1469015529000,36.13,-86.8,Todd,TN,1505777282000,15297782
178719162,Nashville,,1413805804000,36.18,-86.81,Todd Holden,TN,1443009222000,15297782
3955905,Murfreesboro,"Hawthorne, NJ",1481507084000,35.87,-86.44,Todd O'Neill,TN,1481507084000,15297782
62268012,Murfreesboro,Murfreesboro,1450821900000,35.82,-86.45,Tom,TN,1452023250000,15297782
191544301,Nashville,,1440016489000,36.13,-86.8,Tom Noser,TN,1505760410000,15297782
21627131,Nashville,"McMinnville, OR",1407878726000,36.18,-86.74,Tomiko Peirano,TN,1508245624000,15297782
126249582,Hermitage,Hermitage,1438282081000,36.19,-86.6,Tommy Norman,TN,1499806655000,15297782
186132586,Nashville,,1428939069000,36.11,-86.86,Tony Camarata,TN,1500991527000,15297782
124271602,Nashville,,1486843653000,36.11,-86.86,Tony Threatt,TN,1506074214000,15297782
1889955,Murfreesboro,Hong Kong,1420607333000,35.82,-86.44,Tony Wan,TN,1420607333000,15297782
63831662,Portland,"Boise, ID",1459202192000,36.57,-86.49,Travis Nisbett,TN,1508248547000,15297782
45685352,Nashville,,1457995443000,36.17,-86.78,Travis Petelle,TN,1496162333000,15297782
184332334,Nashville,,1471542007000,36.17,-86.78,Tremaine James,TN,1471542007000,15297782
12471680,San Francisco,"San Francisco, CA",1412732581000,37.77,-122.44,Tyler Kiley,CA,1412732581000,15297782
193428241,Nashville,,1443566653000,36.14,-86.74,Vanessa Belanger,TN,1480700623000,15297782
213340261,Franklin,,1474385448000,35.92,-86.89,Varun Vedantham,TN,1479127616000,15297782
192958359,Nashville,,1482986069000,36.19,-86.8,Vinay Suneja,TN,1482986069000,15297782
234721668,Nashville,,1503505591000,36.14,-86.74,Vincent Casha,TN,1503505591000,15297782
53991012,Nashville,Nashville,1476669596000,36.06,-86.96,Wes Nelson,TN,1492488286000,15297782
176581692,Nashville,,1418680126000,36.11,-86.86,Wesley Belden,TN,1492539664000,15297782
202978621,Nashville,,1469819474000,36.1,-86.66,Whitney Mitchell,TN,1477565626000,15297782
171733322,Murfreesboro,,1410978281000,35.82,-86.45,Will Harvie,TN,1426346230000,15297782
236329481,Nashville,,1507238727000,36.17,-86.78,Zacarey Adkerson,TN,1508163185000,15297782
109679602,Nashville,,1435346562000,36.16,-86.79,Zach,TN,1435346562000,15297782
11690053,Franklin,Nashville,1426621846000,35.99,-86.9,Zach Gemignani,TN,1490301002000,15297782
186801638,Nashville,,1430488393000,36.17,-86.78,Zander,TN,1483542915000,15297782
89650582,Nashville,Sydney Australia,1487191314000,36.21,-86.72,Zelda Sheldon,TN,1508272548000,15297782
23897412,Charlottesville,Charlottesvile,1484251755000,38.04,-78.52,Zoe ,VA,1485783399000,15297782
