id,city,hometown,joined,lat,lon,name,state,visited,group_id
191012351,Primm Springs,,1451543394000.0,35.84,-87.24,A S,TN,1451543394000.0,18266348
141485652,Nashville,Nashville,1419701894000.0,36.06,-86.96,A. Giovanniello,TN,1426103246000.0,18266348
223343566,Antioch,Nashville,1488928969000.0,36.04,-86.64,Aaron Banks,TN,1488928969000.0,18266348
199116612,Fort Campbell,,1454535008000.0,36.65,-87.46,Abbi,KY,1454535008000.0,18266348
192168835,Eagleville,,1463367306000.0,35.75,-86.64,Abbie,TN,1463367306000.0,18266348
209929200,Nashville,,1469707617000.0,36.17,-86.78,Abby,TN,1469707617000.0,18266348
213165133,Murfreesboro,,1474167252000.0,35.87,-86.44,Abby Smith,TN,1474167252000.0,18266348
227752299,Nashville,,1495004245000.0,36.06,-86.96,Abdul A,TN,1503895087000.0,18266348
230758494,Nashville,,1498773162000.0,36.08,-86.72,Ada Acevedo,TN,1499387101000.0,18266348
238204023,Nashville,,1507245458000.0,36.06,-86.96,Adam Strifler,TN,1507245458000.0,18266348
190919387,Nashville,,1438791600000.0,36.06,-86.96,Adena,TN,1438791600000.0,18266348
194399533,Pegram,,1445386817000.0,36.12,-87.03,Adrienne Szinger,TN,1445386817000.0,18266348
204173902,Nashville,,1473700580000.0,36.08,-86.72,Afton Crumitie,TN,1473700580000.0,18266348
214359255,Nashville,,1475632033000.0,36.14,-86.81,Ailie Green,TN,1475632033000.0,18266348
188472204,Nashville,Nashville,1473651533000.0,36.16,-86.79,Aishwarya,TN,1473651533000.0,18266348
186361739,Joelton,"Joelton, TN",1463202038000.0,36.37,-86.83,AK,TN,1466288426000.0,18266348
188902354,Fort Campbell,,1434835772000.0,36.65,-87.46,Alan Wheat,KY,1434835772000.0,18266348
201853103,Murfreesboro,,1458484876000.0,35.82,-86.45,Alea Whitfield,TN,1459409928000.0,18266348
204447629,Nashville,,1462249084000.0,36.09,-86.82,Alejandra Colorado,TN,1462249084000.0,18266348
208144494,Nashville,,1467346931000.0,36.17,-86.78,Alejandra Shah,TN,1488252662000.0,18266348
214583107,Franklin,,1475970394000.0,35.92,-86.89,Alex,TN,1475970394000.0,18266348
202628742,Clarksville,,1459641334000.0,36.49,-87.23,Alex Graber,TN,1459641334000.0,18266348
198404276,Thompsons Station,,1453347896000.0,35.8,-86.9,Alex Strang,TN,1453347896000.0,18266348
197864753,Nashville,,1452372883000.0,36.18,-86.74,Alexa Denner,TN,1452372883000.0,18266348
186436784,Joelton,,1429674107000.0,36.33,-86.91,alexander cavopol,TN,1429674107000.0,18266348
205980801,Nashville,,1464389844000.0,36.16,-86.79,Alexander Patterson,TN,1464389844000.0,18266348
214068078,Nashville,,1475275680000.0,36.17,-86.78,Alexis,TN,1475275680000.0,18266348
205045269,Nashville,,1463111309000.0,36.09,-86.82,Alexis Ferrell,TN,1463111309000.0,18266348
98369112,Nashville,,1472955472000.0,36.17,-86.78,Alexis Preston,TN,1472955472000.0,18266348
219051525,Nashville,,1483324092000.0,36.11,-86.86,Alexuis Weems,TN,1483324092000.0,18266348
189050132,Eagleville,,1435136731000.0,35.75,-86.64,Alharbi Ali,TN,1435136731000.0,18266348
142693012,Nashville,,1462755098000.0,36.17,-86.78,Ali Leick,TN,1465393200000.0,18266348
198205750,Hermitage,,1452993285000.0,36.19,-86.6,Alianna M. Hamer,TN,1452993285000.0,18266348
207583772,Lebanon,,1466574499000.0,36.21,-86.31,alice anderson,TN,1466585554000.0,18266348
189313275,Nashville,,1435684447000.0,36.17,-86.72,Alison ,TN,1435684447000.0,18266348
209866014,Nashville,,1469623069000.0,36.09,-86.82,Allison,TN,1469623069000.0,18266348
186187492,Nashville,,1429066211000.0,36.16,-86.79,Allison Ciccarelli,TN,1429066211000.0,18266348
190313602,Bell Buckle,,1437680292000.0,35.6,-86.41,Allison Jones Scribner,TN,1437680292000.0,18266348
210115475,Murfreesboro,,1469974640000.0,35.78,-86.33,Amanda,TN,1469974640000.0,18266348
13213211,Fremont,,1431116169000.0,41.72,-84.92,Amanda,IN,1461007109000.0,18266348
182111312,Lebanon,,1468952180000.0,36.21,-86.31,Amanda,TN,1468952180000.0,18266348
215059447,Nashville,,1476648910000.0,36.06,-86.96,Amanda Gottschalk,TN,1483059304000.0,18266348
85390722,Nashville,Nashville,1451344481000.0,36.15,-86.86,Amanda Jay,TN,1483486131000.0,18266348
188398258,Nashville,,1466997519000.0,36.17,-86.78,Amanda Kay,TN,1467524669000.0,18266348
217955705,Gilbert,,1481305773000.0,33.26,-111.72,amanda perez,AZ,1481305773000.0,18266348
206850273,Nashville,,1465573114000.0,36.21,-86.75,Amanda Vanderford,TN,1469278241000.0,18266348
198241972,Spring Hill,,1453063726000.0,35.68,-86.91,Amber Lauer,TN,1458067779000.0,18266348
189436347,Hendersonville,,1435947345000.0,36.32,-86.61,Amelia,TN,1435947345000.0,18266348
205426546,Goodlettsville,,1463611984000.0,36.33,-86.74,Amine,TN,1463611984000.0,18266348
197455700,Nashville,,1451580692000.0,36.17,-86.78,Amy Edwards,TN,1451580692000.0,18266348
205446360,Houston,Houston,1463637284000.0,29.86,-95.38,Amy Huynh,TX,1463637284000.0,18266348
207507915,Nashville,,1466474533000.0,36.06,-86.96,Amy Kwapil,TN,1466474533000.0,18266348
187080077,Franklin,,1451794061000.0,35.92,-86.89,Amy Markovich,TN,1451794061000.0,18266348
204871578,Clarksville,,1462873957000.0,36.49,-87.23,AnaKatarina Lalonde,TN,1462873957000.0,18266348
58369512,Clarksville,Indiana,1472162380000.0,36.53,-87.35,Andi,TN,1473885284000.0,18266348
206129650,Nashville,,1464613301000.0,36.13,-86.8,Andrea,TN,1464613301000.0,18266348
120624702,Nashville,,1456013089000.0,36.17,-86.78,Andrea Witte,TN,1459045929000.0,18266348
222065896,Nashville,,1487135343000.0,36.15,-86.79,Andrew Gooding,TN,1487135343000.0,18266348
207729386,Tullahoma,,1480190938000.0,35.37,-86.21,Andrew Milam,TN,1480190938000.0,18266348
210017294,Nashville,,1469827581000.0,36.08,-86.72,Andrew Tkaczyk,TN,1469827581000.0,18266348
180878792,Brentwood,,1463075093000.0,36.0,-86.79,Angela Mink,TN,1466731443000.0,18266348
189013698,Nashville,,1435068124000.0,36.17,-86.78,Angela Sue Cheslock,TN,1435068124000.0,18266348
222504287,Nashville,,1487742802000.0,36.09,-86.82,Angelica Garzon,TN,1487742802000.0,18266348
189957383,Pleasant View,,1436977992000.0,36.38,-87.04,Angie,TN,1436977992000.0,18266348
222837566,Mansfield,,1488221001000.0,32.58,-97.14,Angie,TX,1488221001000.0,18266348
200215452,Nashville,,1456143910000.0,36.17,-86.78,Angie Taylor,TN,1496128752000.0,18266348
207373353,Nashville,,1466292958000.0,36.17,-86.78,AnglinImage,TN,1466292958000.0,18266348
207667253,Clarksville,,1466694895000.0,36.53,-87.35,Anil Patel MD MBA,TN,1466694895000.0,18266348
207576708,Nashville,,1466564403000.0,36.11,-86.78,Anna,TN,1466564403000.0,18266348
202906416,Nashville,,1460035901000.0,36.15,-86.86,Anna Flautt,TN,1460035901000.0,18266348
223648309,Milwaukee,,1489512945000.0,42.94,-87.91,Anne Curro,WI,1489512945000.0,18266348
194173536,Duck River,,1444966513000.0,35.7,-87.34,Annie Brown,TN,1444966513000.0,18266348
211197342,Centerville,,1497493548000.0,35.67,-87.7,Anthony Pharris,TN,1497493548000.0,18266348
220287969,Clarksville,,1484849133000.0,36.56,-87.35,Anthony Young,TN,1485202056000.0,18266348
227025781,Nashville,,1494019078000.0,36.17,-86.79,Anya Dvirnak,TN,1499010578000.0,18266348
13902647,La Vergne,,1454813678000.0,36.01,-86.57,April,TN,1454988503000.0,18266348
225895863,Clarksville,,1492512084000.0,36.53,-87.34,April Lewis,TN,1492512084000.0,18266348
208453489,Nashville,,1467770475000.0,36.17,-86.78,April Meador,TN,1467770475000.0,18266348
217429206,Lebanon,,1480395301000.0,36.21,-86.31,Aprilia Hestya Alam,TN,1480395301000.0,18266348
227496236,Nashville,,1494668689000.0,36.08,-86.72,ARi Lyon,TN,1494668689000.0,18266348
3109765,Nashville,,1423421303000.0,36.06,-86.96,Arlene Wilson,TN,1431528103000.0,18266348
205361764,Madison,,1463527177000.0,36.26,-86.71,Ashleigh,TN,1463527177000.0,18266348
185870702,Nashville,,1428260366000.0,36.17,-86.78,Ashleigh Krudys,TN,1428260366000.0,18266348
200686557,Nashville,,1456798899000.0,36.09,-86.82,Ashley,TN,1456798899000.0,18266348
205348866,Nashville,,1463512264000.0,36.17,-86.78,Ashley,TN,1463512264000.0,18266348
207281330,Nashville,,1466166385000.0,36.17,-86.78,Ashley D,TN,1483018493000.0,18266348
189433168,Franklin,,1435940980000.0,35.92,-86.89,Ashley Jo,TN,1435940980000.0,18266348
222557379,Nashville,,1487813288000.0,36.06,-86.96,Ashley King,TN,1487813288000.0,18266348
191993529,Nashville,,1440886932000.0,36.17,-86.78,Ashley Lynn Hopper,TN,1450572589000.0,18266348
206858217,Spring Hill,,1465584049000.0,35.76,-86.88,Ashley Pierre,TN,1465584049000.0,18266348
24817142,Murfreesboro,,1459093907000.0,35.78,-86.33,Ashley Pyne,TN,1459423325000.0,18266348
198253243,Nashville,,1453081215000.0,36.08,-86.72,Ashley Taylor,TN,1453081215000.0,18266348
205235974,Nashville,,1463365885000.0,36.08,-86.72,Ashlie Jeter,TN,1463365885000.0,18266348
198679817,Nashville,,1453855157000.0,36.08,-86.72,Ashlie W.,TN,1453855157000.0,18266348
214006850,Nashville,,1475208981000.0,36.17,-86.78,Ashlynn Mcneal,TN,1475208981000.0,18266348
183328187,New York,,1420434481000.0,40.75,-73.99,Asia Hamilton,NY,1420434481000.0,18266348
226664494,Thompsons Station,,1493533419000.0,35.8,-86.9,Austin Smalling,TN,1493533419000.0,18266348
194804106,Nashville,,1446109853000.0,36.06,-86.96,Azi,TN,1446109853000.0,18266348
219938632,Franklin,,1484424480000.0,35.92,-86.89,Barb Izzo,TN,1485086879000.0,18266348
190888359,Antioch,,1438727511000.0,36.04,-86.64,Barb Laifer,TN,1438727511000.0,18266348
162713562,Nashville,"Chicago, IL",1475894935000.0,36.17,-86.78,Barbara,TN,1489861460000.0,18266348
208980546,Smyrna,,1468459222000.0,35.97,-86.51,Barbara,TN,1469937812000.0,18266348
224776084,Nashville,,1490922304000.0,36.07,-86.78,Barbara Barnett,TN,1490922304000.0,18266348
228924191,Fairview,,1496497118000.0,35.97,-87.13,Barbara Hutchison,TN,1496497118000.0,18266348
189655873,Brentwood,,1436389957000.0,36.0,-86.79,BB,TN,1436389957000.0,18266348
201881943,Nashville,,1458518821000.0,36.17,-86.78,Bekah,TN,1466698947000.0,18266348
221953683,Nashville,,1486991979000.0,36.17,-86.78,Belinda Nydahl,TN,1486991979000.0,18266348
184837978,Goodlettsville,,1425165763000.0,36.33,-86.74,Belle,TN,1425165763000.0,18266348
189039549,Henderson,,1435111377000.0,35.42,-88.65,Ben C Estes,TN,1435111377000.0,18266348
198664238,Brentwood,,1453833818000.0,36.0,-86.79,Ben Elizer,TN,1454774417000.0,18266348
215483491,Nashville,,1477272932000.0,36.13,-86.8,Ben Ingerick,TN,1477272932000.0,18266348
184872379,Nashville,,1425263731000.0,36.18,-86.74,Ben Mattox,TN,1425263731000.0,18266348
192054746,Nashville,,1441003783000.0,36.06,-86.96,bennie malley,TN,1441003783000.0,18266348
190968090,Nashville,,1438886342000.0,36.09,-86.82,Berkley Aiken,TN,1438886342000.0,18266348
219378411,Springfield,,1483714992000.0,36.52,-86.87,Bernie Sands,TN,1483714992000.0,18266348
203642797,Hendersonville,,1461079735000.0,36.32,-86.61,Beth,TN,1461079735000.0,18266348
197441319,Hermitage,,1451538090000.0,36.19,-86.6,Beth Cyrus,TN,1451538090000.0,18266348
193658049,Nashville,,1444015341000.0,36.17,-86.78,Betsy Everett,TN,1444015341000.0,18266348
229821403,Brentwood,,1497618697000.0,36.0,-86.79,Bettie Hines,TN,1497618697000.0,18266348
7421748,Pegram,,1443393124000.0,36.12,-87.03,Betty,TN,1443393124000.0,18266348
187487414,Nashville,,1431979306000.0,36.18,-86.81,Betty Krogman,TN,1434631856000.0,18266348
189519663,Nashville,,1436385695000.0,36.17,-86.72,Bev Arias,TN,1467066569000.0,18266348
64733702,Brentwood,,1419828445000.0,36.0,-86.79,Bill,TN,1426827454000.0,18266348
23469141,Nashville,,1433519937000.0,36.09,-86.82,Bill Nunley,TN,1433519937000.0,18266348
222289339,Nashville,,1487455873000.0,36.17,-86.72,Birtha Street,TN,1487455873000.0,18266348
186894367,Nashville,,1431443653000.0,36.17,-86.78,Blair Thompson,TN,1434075855000.0,18266348
193276470,Fort Campbell,,1443293280000.0,36.65,-87.46,Bob ,KY,1443293280000.0,18266348
154836782,Hendersonville,,1444151676000.0,36.32,-86.61,Bobbie Jackson,TN,1444151676000.0,18266348
217685400,Clarksville,,1480844838000.0,36.53,-87.35,Brad Mckay,TN,1480844838000.0,18266348
182825842,Nashville,,1452297329000.0,36.17,-86.78,Brady Bolf,TN,1452297329000.0,18266348
224551178,Nashville,,1490624821000.0,36.06,-86.96,Brandi A,TN,1490624821000.0,18266348
199773365,La Vergne,,1455542900000.0,36.01,-86.57,Brandi Rodgers,TN,1455542900000.0,18266348
207174139,Clarksville,,1466011950000.0,36.53,-87.35,Brandon Ferguson,TN,1466011950000.0,18266348
215768305,Nashville,,1477708372000.0,36.15,-86.79,Brandon Koehler,TN,1477708372000.0,18266348
228025718,Nashville,,1495373163000.0,36.08,-86.72,Brandon Tucker,TN,1495373163000.0,18266348
197654825,Pegram,,1451968598000.0,36.12,-87.03,Brandon Wookie Johnson,TN,1451968598000.0,18266348
187908901,Central City,,1432825920000.0,37.29,-87.13,Brandy,KY,1433343967000.0,18266348
223839735,Nashville,,1489625856000.0,36.15,-86.86,Brandy Jones,TN,1489625856000.0,18266348
67706102,Nashville,,1442928369000.0,36.17,-86.78,Brenda,TN,1470350532000.0,18266348
93765722,Thompsons Station,,1427842038000.0,35.8,-86.9,Brenda Bliss,TN,1438982030000.0,18266348
18761341,Nolensville,,1419725093000.0,35.94,-86.67,Brenda H,TN,1460432868000.0,18266348
198143455,Nashville,,1452877628000.0,36.06,-86.96,Brenda Wilson-Lowery,TN,1452877628000.0,18266348
212990008,Nashville,,1473977851000.0,36.08,-86.72,Brett Hudson,TN,1473977851000.0,18266348
218264469,Nashville,,1481866373000.0,36.15,-86.86,Brian Brett,TN,1481866373000.0,18266348
203124467,Christiana,,1460342305000.0,35.71,-86.36,Brian Kemski,TN,1460342305000.0,18266348
111036032,Mount Juliet,,1441214659000.0,36.21,-86.52,Bribripollock,TN,1506883561000.0,18266348
120837612,Austin,Houston,1497464483000.0,30.23,-97.72,Bridget,TX,1497637747000.0,18266348
230220310,Nashville,,1508392322000.0,36.08,-86.72,Britt Todd,TN,1508392322000.0,18266348
210148614,San Diego,,1470005982000.0,32.72,-117.17,Brittany,CA,1470005982000.0,18266348
188860596,Nashville,,1434746541000.0,36.17,-86.78,Brittany,TN,1434746541000.0,18266348
189883761,Murfreesboro,,1436831347000.0,35.82,-86.45,Brittany G,TN,1436831347000.0,18266348
145482972,Fort Lauderdale,,1486649006000.0,26.16,-80.12,Brittany Hobart,FL,1486649006000.0,18266348
185030330,Lawrenceburg,,1433798723000.0,35.25,-87.33,Brittany Michele,TN,1433798723000.0,18266348
197878483,Nashville,,1452385407000.0,36.17,-86.78,Brittany S.,TN,1452451469000.0,18266348
183438980,Nashville,"Clarksville, TN",1420781088000.0,36.17,-86.78,Brittney,TN,1487812092000.0,18266348
201478494,Nashville,,1457942463000.0,36.16,-86.79,Brittney Johns,TN,1457942463000.0,18266348
62051382,Murfreesboro,Murfreesboro,1442009068000.0,35.82,-86.45,Brooke W,TN,1507482326000.0,18266348
145990442,Nashville,,1437972158000.0,36.11,-86.86,Bryan Downing,TN,1437972158000.0,18266348
11107841,Nashville,,1479332700000.0,36.17,-86.72,Buddy Strickland,TN,1479332700000.0,18266348
903256,Nashville,,1419703618000.0,36.17,-86.78,Burt1129,TN,1419703618000.0,18266348
206679922,Old Hickory,,1466392595000.0,36.25,-86.63,C. Turner,TN,1466392595000.0,18266348
121130692,Franklin,,1488858175000.0,35.92,-86.89,Cackie Roberts,TN,1488858175000.0,18266348
212699913,Nashville,,1473562072000.0,36.09,-86.82,Cacky Breland,TN,1473562072000.0,18266348
204026914,Nashville,,1467766401000.0,36.13,-86.8,Caitlin,TN,1467766401000.0,18266348
226776973,Nashville,,1493689042000.0,36.22,-86.77,Caitlin Darnaby,TN,1493689042000.0,18266348
150834472,Clarksville,,1436846857000.0,36.53,-87.35,Caitlin Foster,TN,1436846857000.0,18266348
174245272,Columbia,,1465403639000.0,35.61,-87.05,Caleb,TN,1465403639000.0,18266348
200665978,Nashville,,1456772444000.0,36.17,-86.78,Callie,TN,1461360291000.0,18266348
227698836,Arrington,,1494944095000.0,35.86,-86.66,Cameron McGraw,TN,1494944095000.0,18266348
194130025,Nashville,,1444887014000.0,36.15,-86.86,Camille Greer,TN,1450888564000.0,18266348
212839274,Nashville,,1473737647000.0,36.08,-86.72,Canaan Cox,TN,1473737647000.0,18266348
24207352,Mount Juliet,,1496842899000.0,36.21,-86.52,Candace,TN,1504137876000.0,18266348
181497472,Huntsville,,1439564421000.0,34.73,-86.57,Candi Lindberg,AL,1439564421000.0,18266348
229595517,Murfreesboro,,1497316926000.0,35.82,-86.45,Candi LopezJayo,TN,1497316926000.0,18266348
188746599,Antioch,,1434586566000.0,36.04,-86.64,Candice,TN,1436657409000.0,18266348
198318005,Goodlettsville,,1454230195000.0,36.33,-86.74,Candice Ralph,TN,1479619838000.0,18266348
229296141,Nashville,,1496946900000.0,36.17,-86.78,Candra K,TN,1496946900000.0,18266348
209970904,Nashville,,1469759740000.0,36.15,-86.86,Cara,TN,1469759740000.0,18266348
195306537,Hermitage,,1447043240000.0,36.19,-86.6,Carah,TN,1447043240000.0,18266348
196483581,Madison,,1464919079000.0,34.68,-86.79,Carine,AL,1483192392000.0,18266348
189224625,Antioch,,1435509218000.0,36.04,-86.64,Carla Reid,TN,1435509218000.0,18266348
3751193,Nashville,,1419727253000.0,36.13,-86.8,Carleen,TN,1475540143000.0,18266348
190919077,Nashville,,1438791303000.0,36.17,-86.78,Carly Tremain,TN,1438791303000.0,18266348
215163523,Nashville,,1476798072000.0,36.13,-86.8,Carmen Mekhail,TN,1476798072000.0,18266348
188873190,Brentwood,,1434770241000.0,36.0,-86.79,Carol,TN,1443064171000.0,18266348
190738003,Hermitage,,1438454753000.0,36.19,-86.6,Carol,TN,1438454753000.0,18266348
202516876,Antioch,,1459474685000.0,36.04,-86.64,Carolina,TN,1459474685000.0,18266348
209914391,Nashville,,1469679733000.0,36.17,-86.78,Caroline,TN,1472419387000.0,18266348
214888981,Franklin,,1476396012000.0,35.99,-86.9,Caroline Short,TN,1477672301000.0,18266348
223111033,Nashville,,1488597375000.0,36.08,-86.72,Carolyn ,TN,1488597375000.0,18266348
205960360,Brentwood,,1464361865000.0,36.0,-86.79,Carolyn ,TN,1464361865000.0,18266348
200912275,Mount Juliet,,1457133439000.0,36.21,-86.52,Carolyn Smith,TN,1466534051000.0,18266348
115272222,Nolensville,,1435902170000.0,35.94,-86.67,Carrie Lindsey,TN,1435902170000.0,18266348
184702309,Murray,,1424749304000.0,36.62,-88.25,Casey Farley,KY,1424749304000.0,18266348
183594931,Nashville,,1421302621000.0,36.17,-86.78,Cassandra,TN,1421312218000.0,18266348
207193029,Hendersonville,,1466034663000.0,36.32,-86.61,Cassie,TN,1466034663000.0,18266348
199929801,Hendersonville,,1455745587000.0,36.32,-86.61,Cassie Chandler,TN,1466635168000.0,18266348
185078646,Murfreesboro,,1425862208000.0,35.87,-86.34,Cassie Judkins,TN,1425862208000.0,18266348
190917085,Hermitage,,1438787985000.0,36.19,-86.6,Cathy,TN,1439662072000.0,18266348
197311280,Nashville,,1451268715000.0,36.21,-86.72,Cathy Miller,TN,1451268715000.0,18266348
194948771,Shelbyville,,1446393985000.0,35.48,-86.47,Cavid,TN,1446393985000.0,18266348
210274687,Tupelo,,1470177210000.0,34.23,-88.74,Cec,MS,1470177210000.0,18266348
230966901,Nashville,,1499037893000.0,36.06,-86.96,Ceci Figueroa,TN,1499037893000.0,18266348
197364291,Nashville,,1451375416000.0,36.06,-86.96,Cesar Rojano,TN,1451375416000.0,18266348
224452988,Murfreesboro,,1490482481000.0,35.82,-86.45,Chad Holt,TN,1490482481000.0,18266348
225317791,Franklin,,1491708245000.0,35.93,-86.84,Chadd Bridwell,TN,1492218104000.0,18266348
184259650,Nashville,,1423406670000.0,36.06,-86.96,Charity,TN,1423406670000.0,18266348
208270091,Nashville,,1467529063000.0,36.08,-86.72,Charray Kennedy,TN,1467529063000.0,18266348
213096676,Nashville,,1474081054000.0,36.18,-86.81,Chase,TN,1502315104000.0,18266348
198892323,Nashville,,1454193686000.0,36.17,-86.78,Chaz Hassler,TN,1454193686000.0,18266348
215818556,Rockvale,,1477789469000.0,35.76,-86.55,Chelsea Telebrico,TN,1477789469000.0,18266348
222000686,Nashville,,1487043493000.0,36.17,-86.78,Chelsie Walker,TN,1493575693000.0,18266348
82211272,Nashville,,1438577250000.0,36.11,-86.86,Cheri Brasser,TN,1438577250000.0,18266348
202701381,Nashville,,1459743576000.0,36.17,-86.78,Cheryl,TN,1459743576000.0,18266348
206201980,Old Hickory,,1464706969000.0,36.25,-86.63,Cheryl Pryor,TN,1464706969000.0,18266348
9635822,Nashville,clarksville,1503370782000.0,36.17,-86.78,Chessie,TN,1503370782000.0,18266348
199952752,Nashville,,1455773420000.0,36.22,-86.86,Chiara Hurt,TN,1455773420000.0,18266348
201433462,Nashville,,1457886440000.0,36.17,-86.78,Chris Carr,TN,1457886440000.0,18266348
149979832,Nashville,,1477696419000.0,36.1,-86.8,Chris Dooney,TN,1491230860000.0,18266348
186379477,Nashville,,1429718585000.0,36.17,-86.78,Chris Greene,TN,1442442680000.0,18266348
224212207,Nashville,,1490141603000.0,36.16,-86.79,Chris Hailey,TN,1490141603000.0,18266348
149171112,Memphis,Memphis,1433974015000.0,35.22,-89.93,Chris Harkins,TN,1458730941000.0,18266348
198148080,Nashville,,1452885527000.0,36.08,-86.72,Chris Kurtz,TN,1452885527000.0,18266348
232191396,Nashville,,1500508936000.0,36.22,-86.86,Chris Michaels,TN,1500508936000.0,18266348
212702006,Nashville,,1473564681000.0,36.17,-86.79,Chris O,TN,1473911263000.0,18266348
208757225,Denver,,1468178929000.0,39.7,-105.08,Chrishna Cool,CO,1468178929000.0,18266348
216145628,Goodlettsville,,1478298622000.0,36.32,-86.72,Christian ,TN,1478298622000.0,18266348
183906648,Huntsville,,1422242670000.0,34.73,-86.57,Christian Brandt,AL,1422242670000.0,18266348
207031840,Nashville,,1465823731000.0,36.04,-86.72,Christian Wells,TN,1465823731000.0,18266348
209847376,Clarksville,,1475290997000.0,36.53,-87.35,Christina DeLapp,TN,1475290997000.0,18266348
230969998,Nashville,,1499042606000.0,36.06,-86.96,Christina Rose Tumbleson,TN,1499042606000.0,18266348
183355440,Portland,,1420518468000.0,36.57,-86.49,Christina Salvati,TN,1420518468000.0,18266348
213636551,Franklin,,1474770490000.0,35.92,-86.89,Christine S,TN,1474837562000.0,18266348
232278484,Clarksville,,1500614530000.0,36.53,-87.35,Christopher L Stetzel,TN,1500614530000.0,18266348
188266837,Nashville,,1433545378000.0,36.06,-86.96,Christy,TN,1433545378000.0,18266348
214145537,Nashville,,1475372987000.0,36.17,-86.78,Christy Johnson,TN,1475372987000.0,18266348
188616502,Antioch,,1434255484000.0,36.17,-86.88,Christy M,TN,1434418598000.0,18266348
207319123,Hendersonville,,1466215490000.0,36.32,-86.61,Christy Williams,TN,1466215490000.0,18266348
182930938,Springfield,"Eastview, KY",1449931275000.0,36.48,-86.86,Christy Wills,TN,1461378680000.0,18266348
211027544,Nashville,,1471264363000.0,36.08,-86.72,Cindi Hipp Thomas,TN,1471264363000.0,18266348
199318038,Mount Juliet,,1454866020000.0,36.22,-86.52,Cindi Nusbaum Gilchrist,TN,1466260211000.0,18266348
4579315,Nashville,"Nashville, Tennessee",1504671817000.0,36.21,-86.72,Cindy,TN,1506925158000.0,18266348
187430067,Chapel Hill,,1431868016000.0,35.62,-86.62,Cindy,TN,1466177851000.0,18266348
202540082,Nashville,,1459514550000.0,36.18,-86.81,Cindy,TN,1461011720000.0,18266348
226789173,Nashville,,1493697552000.0,36.17,-86.78,Cindy Boyd,TN,1493697552000.0,18266348
84085762,Nashville,,1486845412000.0,36.13,-86.8,Clara Molina,TN,1486845412000.0,18266348
209423268,Nashville,,1469038130000.0,36.17,-86.78,Clay Hodges,TN,1469038130000.0,18266348
35632552,Nashville,"Dallas, Texas",1449941772000.0,36.16,-86.79,Cliff Bates,TN,1502750920000.0,18266348
198238600,Franklin,,1453057888000.0,35.92,-86.89,Cody Dean Inman,TN,1453057888000.0,18266348
206514498,Hermitage,,1465137120000.0,36.19,-86.6,Cody Mitchell,TN,1466181902000.0,18266348
210570887,Nashville,,1470607488000.0,36.15,-86.81,Cole McKenna,TN,1470607488000.0,18266348
199551744,Murfreesboro,,1455216739000.0,35.87,-86.34,Colin Carner,TN,1455216739000.0,18266348
166188912,Antioch,Antioch,1419697133000.0,36.04,-86.64,Connie,TN,1419697133000.0,18266348
12484571,Franklin,,1421036491000.0,35.93,-86.81,Connie V. Spivey,TN,1503073189000.0,18266348
207500996,Nashville,,1466469936000.0,36.17,-86.78,Corrie Studyvin,TN,1466469936000.0,18266348
189937535,Clarksville,,1436930269000.0,36.56,-87.41,Courtney,TN,1436930269000.0,18266348
208772535,Goodlettsville,,1468196588000.0,36.32,-86.72,Courtney ,TN,1468196588000.0,18266348
230045695,Nashville,,1500606906000.0,36.08,-86.72,Courtney,TN,1500606906000.0,18266348
193843626,Mount Juliet,,1444357468000.0,36.16,-86.5,Courtney,TN,1444533889000.0,18266348
183987072,Hermitage,,1470335352000.0,36.19,-86.6,Courtney Blalock,TN,1470335352000.0,18266348
196948259,Nashville,,1450327696000.0,36.13,-86.8,Courtney Henderson,TN,1502052220000.0,18266348
6166489,Spring Hill,,1456708527000.0,35.76,-86.88,Courtney Schultz,TN,1456777278000.0,18266348
206145591,Nashville,,1464631704000.0,36.08,-86.72,Courtney White,TN,1464631704000.0,18266348
184807512,Manchester,,1425075961000.0,35.47,-86.11,Craig Jarrell,TN,1425075961000.0,18266348
232877964,Antioch,,1501365554000.0,36.04,-86.64,creshia Hunt,TN,1501365554000.0,18266348
234419823,Nashville,,1503164835000.0,36.17,-86.78,Cristina Landry,TN,1503164835000.0,18266348
226938907,Nashville,,1493904749000.0,36.17,-86.78,Cristina Martínez de Carrasco,TN,1493904749000.0,18266348
183406484,Chicago,,1420676416000.0,41.87,-87.65,Crystal Churchwell,IL,1420676416000.0,18266348
228194872,Franklin,,1495553546000.0,35.93,-86.81,Crystal Howe,TN,1495553546000.0,18266348
208694417,Fort Campbell,,1468095899000.0,36.65,-87.46,Cz,KY,1468095899000.0,18266348
119344682,Paducah,,1432479745000.0,37.04,-88.71,D merritt,KY,1432479745000.0,18266348
183825231,Culleoka,,1421973391000.0,35.46,-86.99,D Thrasher,TN,1421973391000.0,18266348
219036474,La Vergne,,1483306871000.0,36.01,-86.57,Dada ,TN,1483306871000.0,18266348
209958819,Nashville,,1469743872000.0,36.17,-86.78,Dakota Carroll,TN,1469743872000.0,18266348
183616267,Antioch,,1421371538000.0,36.17,-86.88,Dale Robbins,TN,1421371538000.0,18266348
194588748,Nashville,,1449761285000.0,36.17,-86.78,Damon,TN,1457107188000.0,18266348
194813613,Nashville,,1446129985000.0,36.16,-86.79,Dan deYul,TN,1446129985000.0,18266348
206196868,Clarksville,,1464700353000.0,36.53,-87.35,Daniel Allen,TN,1478895253000.0,18266348
207083568,Odenton,,1465884990000.0,39.05,-76.71,Daniel Bauer,MD,1465884990000.0,18266348
220859706,Adams,,1485576576000.0,36.57,-87.1,Daniel Bunger,TN,1485576576000.0,18266348
224316572,Murfreesboro,,1490291179000.0,35.85,-86.36,Daniel Douglas,TN,1490291179000.0,18266348
212969358,Franklin,,1473906185000.0,35.92,-86.89,Daniel Hofmeister,TN,1473906185000.0,18266348
219659867,Nashville,,1484063634000.0,36.18,-86.81,Daniel Judy,TN,1484063634000.0,18266348
199298359,Nashville,,1504666747000.0,36.17,-86.72,Daniel L.,TN,1504666747000.0,18266348
75002182,Nashville,,1421015709000.0,36.17,-86.78,Danielle,TN,1425920738000.0,18266348
184722200,Nashville,,1424811479000.0,36.13,-86.8,Danielle,TN,1424811479000.0,18266348
139124672,Brentwood,,1457799218000.0,36.0,-86.79,Danielle Gillian,TN,1457799218000.0,18266348
25624342,Hendersonville,"Linwood, MI",1445464773000.0,36.32,-86.61,Danielle Pharis,TN,1459225020000.0,18266348
199878441,Los Angeles,Los Angeles,1455676840000.0,34.04,-118.42,Danijah Cassadi,CA,1455676840000.0,18266348
192179852,Nashville,,1441236292000.0,36.13,-86.8,Danna,TN,1452558171000.0,18266348
207974099,Nashville,,1467120246000.0,36.04,-86.82,Danni Lynne Shoemake,TN,1467120246000.0,18266348
183688296,Nashville,,1421675953000.0,36.06,-86.96,Dany'all Gay,TN,1422290109000.0,18266348
190299587,Clarksville,,1437654572000.0,36.53,-87.35,Darlene,TN,1437654572000.0,18266348
182530370,Nashville,Nashville,1423024120000.0,36.17,-86.78,Darrin,TN,1433194468000.0,18266348
207362256,Nashville,,1476761490000.0,36.07,-86.78,david,TN,1476761490000.0,18266348
3065667,Hendersonville,,1423764930000.0,36.32,-86.61,David Aguiare,TN,1423764930000.0,18266348
222124298,Huntsville,Hartselle,1494296405000.0,34.73,-86.57,David Allen,AL,1495340414000.0,18266348
209338328,Franklin,,1468931700000.0,35.92,-86.89,David Allen,TN,1468931700000.0,18266348
188223983,Clarksville,,1433452977000.0,36.56,-87.41,David Martinez,TN,1433452977000.0,18266348
202205771,Nashville,,1459016622000.0,36.17,-86.78,David Mead,TN,1459016622000.0,18266348
207000954,La Vergne,,1465776527000.0,36.01,-86.57,David Neu,TN,1465776527000.0,18266348
183748811,Los Angeles,Nashville,1421767411000.0,34.07,-118.35,David Zadick,CA,1421767411000.0,18266348
192373501,Hendersonville,,1446868005000.0,36.32,-86.61,Davis Jackson,TN,1446868005000.0,18266348
220467764,Nashville,,1485093107000.0,36.17,-86.78,Deana Clardy,TN,1503065177000.0,18266348
186472421,Nashville,,1437189318000.0,36.17,-86.78,Deana Teaster,TN,1474039927000.0,18266348
14383981,Brentwood,Brentwood,1498793156000.0,36.0,-86.79,Deb,TN,1498793156000.0,18266348
221508547,Nashville,,1486395122000.0,36.17,-86.78,Deb Adao,TN,1486395122000.0,18266348
185457121,Clarksville,,1436142650000.0,36.53,-87.35,Debbie,TN,1489954138000.0,18266348
196031753,Thompsons Station,,1448415378000.0,35.8,-86.9,Debi Conway ,TN,1448415378000.0,18266348
187770349,Pleasant View,,1445699110000.0,36.38,-87.04,Debi Griggs,TN,1445699110000.0,18266348
197764053,Franklin,,1452180388000.0,35.92,-86.89,DebM,TN,1452180388000.0,18266348
190760196,Nashville,,1445896660000.0,36.22,-86.86,Deborah A Culp,TN,1445896660000.0,18266348
187808208,Nashville,,1432621802000.0,36.16,-86.79,Dee,TN,1472993116000.0,18266348
185535083,Franklin,,1464477879000.0,35.92,-86.89,Dee Ann ,TN,1464477879000.0,18266348
204791771,Nashville,,1462760146000.0,36.17,-86.78,Deidre Lilly,TN,1466190483000.0,18266348
193541265,Clarksville,,1443794355000.0,36.53,-87.35,Delaney,TN,1443794355000.0,18266348
12814414,Hermitage,Hermitage,1472855773000.0,36.19,-86.6,Denise L.,TN,1473885608000.0,18266348
198718480,La Vergne,,1453918371000.0,36.01,-86.57,Denisha Vazquez,TN,1453918371000.0,18266348
212337400,Goodlettsville,,1473086894000.0,36.32,-86.72,dennis,TN,1473086894000.0,18266348
157600492,Franklin,"Hillsborough, NJ",1419786156000.0,35.99,-86.9,Derek Douglas,TN,1419824769000.0,18266348
202053242,Columbia,,1458772081000.0,35.61,-87.05,Dese,TN,1458778863000.0,18266348
201108512,Columbia,,1457408980000.0,35.61,-87.05,Dese Stosberg,TN,1457408980000.0,18266348
6433775,Hermitage,,1433365274000.0,36.19,-86.6,Diana Morningstar,TN,1433365274000.0,18266348
162591182,Nashville,,1438591859000.0,36.17,-86.78,Diana Sinziana Neculcea,TN,1438591859000.0,18266348
45298022,Murfreesboro,,1442179646000.0,35.87,-86.44,Diane G.,TN,1442179646000.0,18266348
198038191,Old Hickory,,1452673903000.0,36.25,-86.63,Diane Rankin,TN,1472369584000.0,18266348
199548760,Waverly,,1455213511000.0,36.09,-87.79,Dianne Dodson Macconi,TN,1455856616000.0,18266348
209628861,Nashville,,1469314835000.0,36.17,-86.78,DiSwan,TN,1469314835000.0,18266348
222588272,Franklin,,1487863969000.0,35.92,-86.89,Don Norsworthy,TN,1487863969000.0,18266348
223723648,Nashville,,1489462382000.0,36.06,-86.96,Donald Kemp,TN,1489462382000.0,18266348
227488510,Nashville,,1494655203000.0,36.16,-86.79,donita oliver,TN,1494655203000.0,18266348
167026672,APO,Madison,1500034865000.0,0.0,0.0,Donna,AE,1503016839000.0,18266348
191444842,Brentwood,,1439831566000.0,36.0,-86.79,Donna Marie Hall,TN,1439831566000.0,18266348
199521948,Brentwood,,1455168191000.0,36.0,-86.79,Donna Ruffin,TN,1455168191000.0,18266348
188263602,Nashville,,1480278855000.0,36.16,-86.79,donnie,TN,1480303333000.0,18266348
232763204,Franklin,,1501214432000.0,35.92,-86.89,Dorie,TN,1501214432000.0,18266348
219480410,Hollywood,,1499756234000.0,25.99,-80.21,Dreamer 305,FL,1499756234000.0,18266348
200761663,Nashville,,1456907201000.0,36.15,-86.86,drnashtenn,TN,1456989140000.0,18266348
205496163,Nashville,,1465241700000.0,36.09,-86.82,Dylan Chase,TN,1465241700000.0,18266348
208309222,Madison,,1467581585000.0,36.26,-86.71,E,TN,1467581585000.0,18266348
218717485,Springfield,,1482795765000.0,36.52,-86.87,Eduardo Moran,TN,1482795765000.0,18266348
229256953,Hendersonville,,1496892495000.0,36.32,-86.61,Edward Boone,TN,1501858570000.0,18266348
184456948,Nashville,,1424011232000.0,36.06,-86.96,Ekanem Isong,TN,1424011232000.0,18266348
195714942,Huntsville,,1447804847000.0,34.73,-86.57,Eko,AL,1447804847000.0,18266348
211363204,Nashville,,1472506310000.0,36.05,-86.7,Elana,TN,1472506310000.0,18266348
200524698,Spring Hill,,1456580153000.0,35.76,-86.88,Elijah Thomas,TN,1460318346000.0,18266348
211835233,Nashville,,1472399455000.0,36.16,-86.79,Elizabeth Browne,TN,1472399455000.0,18266348
205796911,Smyrna,,1464123602000.0,35.97,-86.51,elizabeth corcoran,TN,1464123602000.0,18266348
184033082,Nashville,,1422653907000.0,36.06,-86.96,Elizabeth George,TN,1501084082000.0,18266348
190189842,Nashville,,1437440681000.0,36.17,-86.78,Elizabeth Yarbrough,TN,1437440681000.0,18266348
195935993,Nashville,,1448236525000.0,36.13,-86.8,Ella Cox,TN,1448236525000.0,18266348
210322023,Nashville,,1470244433000.0,36.09,-86.82,Ellen Weber,TN,1472391218000.0,18266348
199320437,Hermitage,,1487909680000.0,36.19,-86.6,EllenJ,TN,1501376382000.0,18266348
191757339,Nashville,,1440445930000.0,36.11,-86.86,ellenpn,TN,1440445930000.0,18266348
214363137,Nashville,,1476207222000.0,36.17,-86.78,Elliot Dawes,TN,1476207222000.0,18266348
213632516,Nashville,,1474765132000.0,36.14,-86.74,Emilee Thomas,TN,1474855219000.0,18266348
188528917,Nashville,,1434073612000.0,36.13,-86.8,Emily,TN,1434073612000.0,18266348
194037827,Mc Ewen,,1444717592000.0,36.14,-87.66,Emily Fleenor,TN,1452616635000.0,18266348
188029470,Spring Hill,,1433076847000.0,35.76,-86.88,Emily Long,TN,1434926105000.0,18266348
194727727,Brentwood,,1445971685000.0,36.0,-86.79,Emily Parker Shook,TN,1445971685000.0,18266348
212306666,Nashville,,1473040299000.0,36.13,-86.8,Emily Rose,TN,1473040299000.0,18266348
214973487,Nashville,,1476558682000.0,36.17,-86.78,Emmanuel Ogunkoya,TN,1476558682000.0,18266348
188481272,Antioch,,1433976332000.0,36.04,-86.64,Enzo Enias Jonga,TN,1452991503000.0,18266348
10127791,Nashville,,1433875356000.0,36.16,-86.79,Eric,TN,1483729333000.0,18266348
154445832,Nashville,"Nashville, tn",1444930891000.0,36.08,-86.72,Eric Johnson,TN,1444940448000.0,18266348
100530262,Brentwood,Nashville,1420781885000.0,36.0,-86.79,Erica S.,TN,1465888228000.0,18266348
230955215,Hendersonville,,1499043740000.0,36.3,-86.62,Erick Desjardins,TN,1499043740000.0,18266348
208108581,Mount Juliet,,1467300752000.0,36.21,-86.52,Erik Bock,TN,1489737793000.0,18266348
210098836,Brentwood,,1469937873000.0,36.0,-86.79,Erik J. Olson,TN,1469937873000.0,18266348
188347016,Franklin,,1478827065000.0,35.92,-86.89,Erika,TN,1478827065000.0,18266348
211684278,Nashville,,1472180153000.0,36.21,-86.72,Erika Urbanic,TN,1472180153000.0,18266348
213440339,Brentwood,,1474509129000.0,36.0,-86.79,erin ,TN,1474509129000.0,18266348
206347726,Estill Springs,,1464904262000.0,35.27,-86.13,Erin,TN,1469834761000.0,18266348
212801507,Nashville,,1473698276000.0,36.08,-86.72,Erin Bean,TN,1473698276000.0,18266348
198375995,Nashville,,1453303575000.0,36.13,-86.8,Erin steinwedel,TN,1453303575000.0,18266348
183438109,Nashville,,1420778180000.0,36.17,-86.78,Esther,TN,1464490403000.0,18266348
6144840,Spring Hill,,1423097271000.0,35.76,-86.88,Evelyn,TN,1454719133000.0,18266348
225094084,Nashville,,1491384285000.0,36.17,-86.78,Evelyn Adams,TN,1491384285000.0,18266348
90867382,Nashville,,1456828983000.0,36.22,-86.86,faith,TN,1456828983000.0,18266348
210015978,Nashville,,1469826897000.0,36.17,-86.78,Fawaz ,TN,1491608858000.0,18266348
234044980,Murfreesboro,,1503669958000.0,35.87,-86.34,Fei Pai,TN,1503669958000.0,18266348
217357747,Nashville,,1480282038000.0,36.17,-86.78,FiFi,TN,1480282038000.0,18266348
198478842,Nashville,,1453492596000.0,36.08,-86.72,Fran Muscatello,TN,1461884223000.0,18266348
190770955,Murfreesboro,,1438516467000.0,35.78,-86.33,Frantina ,TN,1438516467000.0,18266348
220916721,Nashville,,1485650857000.0,36.17,-86.78,Fraser Thompson,TN,1487093950000.0,18266348
145263572,Hendersonville,Hendersonville,1435005364000.0,36.32,-86.61,fred b,TN,1463946223000.0,18266348
194361892,Nashville,,1445319476000.0,36.15,-86.79,Frederick Williams,TN,1445319476000.0,18266348
186632389,Nashville,,1430107093000.0,36.13,-86.8,Gabby Falco,TN,1443032387000.0,18266348
189431560,Nashville,,1453691521000.0,36.09,-86.82,Gail Greil,TN,1483129172000.0,18266348
205795282,Franklin,,1464122687000.0,35.93,-86.81,Garrett,TN,1464122687000.0,18266348
213104966,Nashville,,1474092337000.0,36.18,-86.74,Garrett Carr,TN,1474092337000.0,18266348
200811651,Hendersonville,,1456977893000.0,36.32,-86.61,Garrett Thomas Fowler,TN,1456977893000.0,18266348
4335303,Nashville,Nashville,1421435374000.0,36.15,-86.86,Gary,TN,1492271136000.0,18266348
215917387,Bowling Green,,1478222135000.0,37.02,-86.46,Gary Spear,KY,1478222135000.0,18266348
202144803,Murfreesboro,,1458920255000.0,35.87,-86.44,Gavyn Roderick,TN,1458920255000.0,18266348
188049594,Murray,,1433110037000.0,36.62,-88.25,Gayle King,KY,1433110037000.0,18266348
200191561,Nashville,,1456107565000.0,36.15,-86.86,Genaro,TN,1462662698000.0,18266348
196921508,Franklin,,1450269942000.0,35.93,-86.81,giselle newman,TN,1450269942000.0,18266348
232313099,Nashville,,1500662864000.0,36.11,-86.78,Grace Cummings,TN,1500662864000.0,18266348
188105393,Wartrace,,1433211973000.0,35.5,-86.34,Grant Foster Raybourne,TN,1433211973000.0,18266348
213868661,Nashville,"Nashville, TN",1484204024000.0,36.11,-86.78,Greg,TN,1484204024000.0,18266348
229881748,Spring Hill,,1497699890000.0,35.76,-86.88,Greg Bearden,TN,1497699890000.0,18266348
186722149,Clarksville,,1430304251000.0,36.53,-87.35,Greg Owens,TN,1430304251000.0,18266348
203251732,Franklin,,1460513872000.0,35.99,-86.9,Greg Poston,TN,1460513872000.0,18266348
106814302,Nashville,,1468720491000.0,36.17,-86.78,Guy,TN,1468720491000.0,18266348
185251509,Spring Hill,,1426383280000.0,35.76,-86.88,Haley,TN,1426383280000.0,18266348
216065289,Nashville,,1479178556000.0,36.16,-86.79,Haley Jones,TN,1479178556000.0,18266348
214283308,Nashville,,1475547676000.0,36.08,-86.72,Haluk Alk??,TN,1475547676000.0,18266348
185277446,Nashville,,1426465444000.0,36.08,-86.72,Hannah Kelly,TN,1426465444000.0,18266348
207560032,Nashville,,1466544470000.0,36.11,-86.78,Hannah Passamonte,TN,1466544470000.0,18266348
199189639,La Vergne,,1454649987000.0,36.01,-86.57,Hannah Rose,TN,1454737751000.0,18266348
205679523,Nashville,,1463964651000.0,36.17,-86.78,Harper Ganick,TN,1463964651000.0,18266348
219857518,Mount Juliet,,1484319054000.0,36.21,-86.52,Hayley Hamilton,TN,1484319054000.0,18266348
81060782,Nashville,^ Chicago&Nashville,1440549765000.0,36.17,-86.78,Heather,TN,1440549765000.0,18266348
183630169,Lebanon,"Anchorage, AK",1421423333000.0,36.21,-86.31,Heather,TN,1421423333000.0,18266348
202465481,Lebanon,,1459394307000.0,36.21,-86.29,Heather,TN,1459430052000.0,18266348
198889841,Murfreesboro,,1454189622000.0,35.82,-86.45,Heather,TN,1454189622000.0,18266348
113664992,Nashville,Nashville,1419718200000.0,36.11,-86.86,heather,TN,1419718200000.0,18266348
198566227,Nashville,,1453660392000.0,36.17,-86.78,Heather Alannah,TN,1454715817000.0,18266348
211856249,Franklin,,1476231502000.0,35.92,-86.89,Heather Mccormick,TN,1476231502000.0,18266348
200187499,Nashville,,1456102036000.0,36.17,-86.78,Heather Rayko,TN,1456287129000.0,18266348
187675099,Brentwood,,1432349554000.0,36.0,-86.79,Heather Rolapp,TN,1433475921000.0,18266348
203452801,Antioch,"Clinton, MS",1460820498000.0,36.04,-86.64,Heather S,TN,1460820498000.0,18266348
213219141,Joelton,,1474235278000.0,36.33,-86.91,Heather Satterfield,TN,1474235278000.0,18266348
221286307,Nashville,,1486102124000.0,36.17,-86.78,Heather White,TN,1486102124000.0,18266348
191033986,Brentwood,"New Bedford, MA",1453655294000.0,36.0,-86.79,Heidi Gracia,TN,1507666786000.0,18266348
122420062,Hermitage,,1444101409000.0,36.19,-86.6,Heidi Nanto,TN,1461942871000.0,18266348
192679468,Franklin,,1442174074000.0,35.99,-86.9,Heidi Sutton,TN,1442174074000.0,18266348
207952729,Nashville,,1467132751000.0,36.11,-86.78,Hellen Willett,TN,1502542702000.0,18266348
218821463,Nashville,,1482969680000.0,36.07,-86.73,Henry Thomas Interiors,TN,1482969680000.0,18266348
192214170,Nashville,,1441306145000.0,36.17,-86.72,Hilary Hommes,TN,1441306145000.0,18266348
208005592,Brentwood,,1467156300000.0,36.0,-86.79,Hillary,TN,1467156300000.0,18266348
201569953,Columbus,,1458067889000.0,40.1,-83.02,Holly,OH,1458067889000.0,18266348
12462178,Nashville,,1419787529000.0,36.13,-86.8,Holly Hendley Feris,TN,1419828990000.0,18266348
197396136,Brentwood,,1451442989000.0,36.0,-86.79,Holly Lyons,TN,1451442989000.0,18266348
12665790,Nashville,,1491157703000.0,36.17,-86.79,Holly Miles,TN,1492258340000.0,18266348
226311216,Nashville,,1493057927000.0,36.22,-86.77,Honey Simmons,TN,1493057927000.0,18266348
235088735,Nashville,Y.S.,1504391921000.0,36.16,-86.78,hopesdreams,TN,1508653813000.0,18266348
210820979,Nashville,,1470955093000.0,36.09,-86.82,Hunter Raineri,TN,1470955093000.0,18266348
187151908,Brentwood,,1431269877000.0,36.0,-86.79,Ida aka,TN,1431269877000.0,18266348
225930875,Nashville,,1492547343000.0,36.17,-86.78,ingrid Esser,TN,1492547343000.0,18266348
198639244,Clarksville,,1453785566000.0,36.53,-87.35,Intheair,TN,1453785566000.0,18266348
59543352,Nashville,,1469391182000.0,36.13,-86.8,Irene Popa,TN,1474940863000.0,18266348
200987665,Nashville,"Nashville, TN",1457239604000.0,36.17,-86.78,Irene Underwood,TN,1457239604000.0,18266348
234510088,Nashville,,1503263632000.0,36.06,-86.96,Isabella,TN,1503263632000.0,18266348
191321479,Nashville,,1439583517000.0,36.17,-86.78,Isabelle ,TN,1439583517000.0,18266348
208986692,Nashville,,1468465787000.0,36.08,-86.72,Issac Eberhart,TN,1468465787000.0,18266348
159441602,Murfreesboro,,1464105082000.0,35.78,-86.33,Ivy Blackmon,TN,1464105082000.0,18266348
230007540,Franklin,,1497876187000.0,35.92,-86.89,J Lyle,TN,1497876187000.0,18266348
183882792,New York,,1424072874000.0,40.75,-73.99,J Tam Shanise,NY,1424072874000.0,18266348
228792315,Nashville,,1496332427000.0,36.11,-86.78,Jackie Pang,TN,1496332427000.0,18266348
217028045,Nashville,,1479693056000.0,36.17,-86.78,Jacky Akbari,TN,1479693056000.0,18266348
197405466,Nashville,,1477109271000.0,36.17,-86.72,Jacob,TN,1480534408000.0,18266348
225296834,Nashville,,1491680222000.0,36.08,-86.72,Jacob Burris,TN,1491680222000.0,18266348
231104759,Nashville,,1499204940000.0,36.17,-86.78,Jacqueline,TN,1499204940000.0,18266348
13912713,Nashville,Nashville,1429159936000.0,36.17,-86.78,Jacqueline Scully,TN,1429159936000.0,18266348
129125212,Nashville,,1445390441000.0,36.22,-86.86,Jacquelyn Marie,TN,1445390441000.0,18266348
202044452,Nashville,,1458759552000.0,36.22,-86.77,Jade Chaunellé,TN,1458759552000.0,18266348
162605352,Madison,,1451874074000.0,36.26,-86.71,Jafar,TN,1451874074000.0,18266348
191547646,Nashville,,1440022086000.0,36.15,-86.86,Jake,TN,1488995272000.0,18266348
208013167,Madison,,1467163652000.0,36.26,-86.71,Jake Casey,TN,1467163652000.0,18266348
208081360,Mount Juliet,,1467265214000.0,36.22,-86.52,James Moore,TN,1467265214000.0,18266348
693913,Brentwood,,1419788515000.0,36.0,-86.79,James Selleh,TN,1433520095000.0,18266348
190146855,La Vergne,,1437359841000.0,36.01,-86.57,James Word,TN,1437359841000.0,18266348
208736126,Nashville,,1468155760000.0,36.17,-86.78,Jami Hargrove,TN,1468155760000.0,18266348
45617332,Nashville,,1462405594000.0,36.17,-86.78,jamie neumann,TN,1462623829000.0,18266348
203610976,Nashville,,1461031526000.0,36.13,-86.8,Jamie Scheer,TN,1461031526000.0,18266348
191751139,Dunmor,,1440424202000.0,37.08,-86.98,Jane Foard Silvey,KY,1440424202000.0,18266348
206136632,Calhoun,,1464621599000.0,35.38,-84.77,Jane McPhail,TN,1464621599000.0,18266348
148734452,Nashville,,1426468135000.0,36.08,-86.72,Janet A,TN,1431662317000.0,18266348
195795470,Nashville,,1447958590000.0,36.17,-86.78,Janeta,TN,1447958590000.0,18266348
200859870,Gallatin,,1457053323000.0,36.39,-86.45,Janice B,TN,1457053323000.0,18266348
209830097,Franklin,,1469584247000.0,35.92,-86.89,Janice Howell,TN,1492230309000.0,18266348
210706984,Franklin,,1470788599000.0,35.92,-86.89,Janine,TN,1474508031000.0,18266348
208446630,Nashville,,1467762500000.0,36.17,-86.78,Jarreau,TN,1467762500000.0,18266348
208700564,Nashville,,1468103451000.0,36.07,-86.73,Jasmine,TN,1468366747000.0,18266348
222395078,Nashville,,1487605028000.0,36.16,-86.79,Jasmine M,TN,1487605028000.0,18266348
191515561,Franklin,,1439956891000.0,35.92,-86.89,Jason Collins,TN,1439956891000.0,18266348
9924267,Hermitage,Nashville,1471696606000.0,36.14,-86.63,Jason Damaschun,TN,1471696606000.0,18266348
11219213,Nashville,,1432381228000.0,36.17,-86.72,Jason Drake,TN,1434105701000.0,18266348
195279894,Nashville,,1447001599000.0,36.18,-86.81,Jason Tharpe ,TN,1447648626000.0,18266348
195890141,Nashville,,1448150220000.0,36.06,-86.96,Jay,TN,1448150220000.0,18266348
195195068,Smithville,,1446838717000.0,35.96,-85.82,Jayma Holcomb,TN,1446838717000.0,18266348
184612717,Franklin,,1424482925000.0,35.92,-86.89,Jayme,TN,1424482925000.0,18266348
204017297,Mexico,,1461617957000.0,19.43,-99.14,Jayme Bennett Yates,09,1464290955000.0,18266348
213579548,Nashville,,1474696403000.0,36.17,-86.78,Jazmine Orozco,TN,1474696403000.0,18266348
202133228,Nashville,,1458901718000.0,36.11,-86.86,JB,TN,1490128043000.0,18266348
183890081,Franklin,,1422196451000.0,35.93,-86.81,JC Morrissey,TN,1481245700000.0,18266348
224028980,Smyrna,,1493114907000.0,35.97,-86.51,Jeanne Hinrichs Nichols,TN,1493114907000.0,18266348
191288820,Nashville,,1439512991000.0,36.09,-86.82,Jeanne Sanders,TN,1466167809000.0,18266348
194496181,Tempe,,1445627641000.0,33.39,-111.98,Jed Uker,AZ,1446475278000.0,18266348
221919857,Nashville,,1486939844000.0,36.22,-86.86,Jeff Childress,TN,1486939844000.0,18266348
210503737,Nashville,,1470512954000.0,36.06,-86.96,Jeff DeGraauw,TN,1470512954000.0,18266348
230106733,Gladeville,,1497986826000.0,36.19,-86.28,Jeff Hurley,TN,1497986826000.0,18266348
210057201,Nashville,,1469887875000.0,36.08,-86.72,Jeffrey Bryan,TN,1469887875000.0,18266348
185628475,Franklin,,1427558929000.0,35.93,-86.81,Jen Jay,TN,1427734091000.0,18266348
211937078,Spring Hill,,1472528926000.0,35.76,-86.88,Jena,TN,1472528926000.0,18266348
210132498,Nashville,,1469988265000.0,36.16,-86.79,Jenney Petrikin,TN,1469988265000.0,18266348
199025560,Smyrna,,1454391847000.0,35.97,-86.51,Jenni,TN,1454391847000.0,18266348
198012338,Clarksville,,1452627831000.0,36.53,-87.35,Jennie,TN,1452627831000.0,18266348
189429085,Arrington,,1435933501000.0,35.86,-86.66,Jennie DeSerio,TN,1435933501000.0,18266348
190477116,Brentwood,"Chicago, IL",1437967487000.0,36.0,-86.79,Jennie Wu,TN,1437967487000.0,18266348
4646514,Hendersonville,"Hendersonville, TN",1435339594000.0,36.29,-86.62,jennifer,TN,1475603134000.0,18266348
184105288,Nashville,,1422898924000.0,36.07,-86.73,Jennifer,TN,1422898924000.0,18266348
192967150,Thompsons Station,,1442710438000.0,35.8,-86.9,Jennifer Bass,TN,1442710438000.0,18266348
125442872,Franklin,,1500861809000.0,35.92,-86.89,Jennifer Channell Bickerstaff,TN,1501373643000.0,18266348
29567242,Nashville,,1427586088000.0,36.09,-86.82,Jennifer Daniel,TN,1427586088000.0,18266348
198260141,Hermitage,,1453092566000.0,36.19,-86.6,Jennifer Higdon,TN,1453092566000.0,18266348
200072261,Nashville,,1455945152000.0,36.06,-86.96,Jennifer Pettigrew,TN,1455945152000.0,18266348
205815556,Buford,,1464146675000.0,34.12,-84.03,Jennifer Robinson,GA,1473878419000.0,18266348
232205840,Nashville,,1500521701000.0,36.21,-86.72,Jennifer Rowan,TN,1500521701000.0,18266348
222307866,Hendersonville,Nashville,1487478031000.0,36.32,-86.61,Jennifer Starkey,TN,1487478031000.0,18266348
205447135,Nashville,,1463638503000.0,36.06,-86.96,Jenny,TN,1463638503000.0,18266348
54499122,Pleasant View,Pleasant View,1486429599000.0,36.38,-87.04,Jenny,TN,1486429599000.0,18266348
95599772,Nashville,,1471957912000.0,36.1,-86.66,Jenny,TN,1483198379000.0,18266348
198446934,Hendersonville,,1453511903000.0,36.32,-86.61,jere l,TN,1453511903000.0,18266348
184235833,Springfield,"Springfield, TN",1425534080000.0,36.52,-86.87,Jeremy Piper,TN,1425534080000.0,18266348
227544387,Nashville,,1494731703000.0,36.08,-86.72,JeriDawn Orr,TN,1494731703000.0,18266348
191709519,Nashville,,1505866504000.0,36.15,-86.86,Jerry,TN,1506201475000.0,18266348
210579101,Murfreesboro,,1470613874000.0,35.78,-86.33,Jerry Edens,TN,1473817412000.0,18266348
204698817,Pegram,,1462625803000.0,36.12,-87.03,Jerry Ivery Jr.,TN,1462625803000.0,18266348
189519875,Madison,,1436128963000.0,36.26,-86.71,Jess T,TN,1436128963000.0,18266348
216840880,Nashville,,1479398472000.0,36.14,-86.81,Jessamyn Davis,TN,1479398472000.0,18266348
38030082,Franklin,,1431721098000.0,35.92,-86.89,Jesse,TN,1431721098000.0,18266348
201695590,Hendersonville,,1458247404000.0,36.32,-86.61,Jesse Williams,TN,1458247404000.0,18266348
213204090,Nashville,,1474219987000.0,36.18,-86.74,Jessi Rae Braswell,TN,1474219987000.0,18266348
201026031,Nashville,,1457299059000.0,36.13,-86.8,Jessica,TN,1458583618000.0,18266348
13203057,Stamford,Stamford,1427818889000.0,41.05,-73.54,Jessica,CT,1427818889000.0,18266348
207895223,Nashville,,1467011222000.0,36.17,-86.72,Jessica,TN,1467011222000.0,18266348
38690452,Nashville,Cypress,1442899135000.0,36.11,-86.8,Jessica,TN,1442899135000.0,18266348
206376091,Nashville,,1464946764000.0,36.17,-86.78,Jessica,TN,1484101640000.0,18266348
6789998,Nashville,Pittsburgh,1492657501000.0,36.17,-86.78,Jessica,TN,1492657501000.0,18266348
230565307,Nashville,,1498536515000.0,36.15,-86.81,Jessica Alexander,TN,1498536515000.0,18266348
199703318,Nashville,,1455438781000.0,36.18,-86.81,Jessica Ayoub,TN,1477405247000.0,18266348
62098922,Nashville,,1426258140000.0,36.17,-86.79,Jessica Dean,TN,1426258140000.0,18266348
210072704,Nashville,,1470271904000.0,36.17,-86.78,Jessica Elyse,TN,1470271904000.0,18266348
208451942,Brentwood,,1467768273000.0,36.0,-86.79,Jessica Levy,TN,1467768273000.0,18266348
216856742,Nashville,,1479418580000.0,36.08,-86.72,Jessica Marable,TN,1479418580000.0,18266348
194733200,Mount Juliet,,1445980188000.0,36.21,-86.52,Jessica Rogers,TN,1445980188000.0,18266348
212893195,Nashville,,1473808398000.0,36.17,-86.78,Jessica Taylor,TN,1473808398000.0,18266348
183825436,Nashville,,1421973813000.0,36.17,-86.78,Jessie Yang,TN,1421973813000.0,18266348
224223546,Nashville,,1494689581000.0,36.17,-86.78,Jewel Delon,TN,1494689581000.0,18266348
184188627,Antioch,Nashville,1423151085000.0,36.04,-86.64,Jil,TN,1431025312000.0,18266348
208714731,Nashville,,1468119293000.0,36.07,-86.73,Jillian Cowley,TN,1468119293000.0,18266348
206962040,Brentwood,,1465729071000.0,36.0,-86.79,Jim Bernie,TN,1465729071000.0,18266348
198321573,Nashville,,1453205143000.0,36.16,-86.79,Jim Gavanus,TN,1453205143000.0,18266348
3759669,Nashville,,1426539329000.0,36.16,-86.79,Jo,TN,1426539329000.0,18266348
197627919,Nashville,,1451930091000.0,36.17,-86.78,Jo Thorogood,TN,1451930091000.0,18266348
109453822,Murfreesboro,Murfreesboro,1443338687000.0,35.78,-86.33,Joan Bentley,TN,1446504903000.0,18266348
218054797,Nashville,,1481485499000.0,36.16,-86.79,Joann Young,TN,1481485499000.0,18266348
194404681,Nashville,,1445395426000.0,36.13,-86.8,Joanna Wagner,TN,1445395426000.0,18266348
91081362,Nashville,,1431143504000.0,36.17,-86.78,Jodi Hatfield,TN,1459569433000.0,18266348
187781527,Franklin,,1432578370000.0,35.99,-86.9,Jodie Spelman,TN,1432578370000.0,18266348
225531247,Franklin,,1492052207000.0,35.92,-86.89,Jody Elston,TN,1492052207000.0,18266348
207030903,Nashville,,1465822833000.0,36.17,-86.78,Joe Engstrom,TN,1465822833000.0,18266348
224560164,Clarksville,,1490634544000.0,36.56,-87.35,Joe Lewis,TN,1490634544000.0,18266348
200429639,Nashville,,1456434170000.0,36.15,-86.79,Joe R.,TN,1456434170000.0,18266348
209407174,Franklin,,1469020736000.0,35.92,-86.89,Joel Coady,TN,1469020736000.0,18266348
205857199,Nashville,,1464209614000.0,36.06,-86.96,Joel Morley,TN,1464209614000.0,18266348
226794904,Nashville,,1493707323000.0,36.14,-86.74,John Croswell,TN,1493707323000.0,18266348
41749562,Nashville,,1503090916000.0,36.09,-86.92,John Hooton,TN,1503090916000.0,18266348
182843892,Franklin,,1421706416000.0,35.92,-86.89,John Smith,TN,1421706416000.0,18266348
193236652,Hermitage,,1443216802000.0,36.19,-86.6,Johnna Denny,TN,1474065665000.0,18266348
207635397,Clarksville,,1466644208000.0,36.53,-87.35,Jojo,TN,1466648485000.0,18266348
227639189,Spring Hill,,1494868976000.0,35.76,-86.88,Jon Perry,TN,1494868976000.0,18266348
197042031,Nashville,,1450564896000.0,36.17,-86.78,Jonathan,TN,1461030027000.0,18266348
105008462,Nashville,,1445795025000.0,36.17,-86.78,Jonathan Finney,TN,1485045779000.0,18266348
211874270,Nashville,,1472446899000.0,36.08,-86.72,Jonathan Luther Fuqua,TN,1472446899000.0,18266348
178142792,Nashville,,1432822008000.0,36.06,-86.96,Jonathan Overbay,TN,1432822008000.0,18266348
206814952,Nashville,,1465518218000.0,36.07,-86.73,Jonnie Vail,TN,1465518218000.0,18266348
209298807,Nashville,,1468876906000.0,36.17,-86.72,Jordan Gilliland,TN,1468876906000.0,18266348
184389083,Nashville,,1423774208000.0,36.14,-86.74,Jose Carrillo,TN,1424122557000.0,18266348
187243531,Nashville,"Rose Hill, VA",1431459714000.0,36.15,-86.86,Josh Collins,TN,1492994060000.0,18266348
192729225,Brentwood,,1442264618000.0,36.0,-86.79,Josh Loewen,TN,1442264618000.0,18266348
197964186,Murfreesboro,,1452541706000.0,35.82,-86.45,Josh Scalf,TN,1452541706000.0,18266348
200256647,Nashville,,1456195545000.0,36.06,-86.96,Joshua Klith,TN,1456195545000.0,18266348
222747802,Clarksville,,1488087691000.0,36.53,-87.35,Josiah Caspersen,TN,1488087691000.0,18266348
191726334,Fort Campbell,,1440372478000.0,36.65,-87.46,Jourdyn Parks-wideman,KY,1440372478000.0,18266348
149419532,Franklin,"Chicago, IL",1443475172000.0,35.92,-86.89,Joyce,TN,1443475172000.0,18266348
193174702,Brentwood,,1443097444000.0,36.0,-86.79,Joyce Lyles,TN,1461022229000.0,18266348
198898900,Nashville,,1454201885000.0,36.17,-86.78,Judy,TN,1454201885000.0,18266348
211933176,Hendersonville,,1472524382000.0,36.32,-86.61,Judy Manalastas,TN,1472524382000.0,18266348
197439605,Nashville,,1451534322000.0,36.06,-86.96,Judy Peterson,TN,1495406933000.0,18266348
206542417,Chattanooga,,1465168332000.0,35.04,-85.31,Julia,TN,1466430662000.0,18266348
203315584,Merced,,1460606372000.0,37.3,-120.47,Julia,CA,1460606372000.0,18266348
183439833,Nashville,,1420785116000.0,36.06,-86.96,Julia Baker,TN,1420785116000.0,18266348
217127827,Nashville,,1479849963000.0,36.14,-86.74,Julia Christina Rowe,TN,1479849963000.0,18266348
197814104,Nashville,,1452269752000.0,36.06,-86.96,Julianna,TN,1452523100000.0,18266348
203313430,Brentwood,,1460601630000.0,36.0,-86.79,Julie,TN,1460601630000.0,18266348
199748015,Nashville,,1455558456000.0,36.13,-86.8,Julie,TN,1455558456000.0,18266348
186397441,Nashville,,1484257334000.0,36.15,-86.86,Julie K,TN,1484257334000.0,18266348
203067166,Nashville,,1460261809000.0,36.13,-86.8,Julie Powers,TN,1460261809000.0,18266348
212495047,Hollywood,,1473283313000.0,26.02,-80.2,Julie Rose,FL,1473283313000.0,18266348
208064791,Nashville,,1467235925000.0,36.16,-86.79,Julie Sites,TN,1467235925000.0,18266348
205158399,Nashville,,1463267140000.0,36.16,-86.66,Julio Colon,TN,1463267140000.0,18266348
113519702,Nashville,,1419699727000.0,36.17,-86.78,Justin,TN,1433136194000.0,18266348
206171727,Clarksville,,1464659722000.0,36.53,-87.35,Justin Jorstad,TN,1464659722000.0,18266348
232192397,Franklin,,1500506368000.0,35.92,-86.89,Justin Shepherd,TN,1500506368000.0,18266348
211909499,Nashville,,1472497796000.0,36.17,-86.78,Justin Stevens,TN,1473967411000.0,18266348
193795745,Murfreesboro,,1444265551000.0,35.87,-86.34,Justin Wright,TN,1444265551000.0,18266348
177423542,Nashville,,1440012453000.0,36.18,-86.81,Jyothi Jayakrishna,TN,1440012453000.0,18266348
184236794,Madison,,1423303870000.0,36.26,-86.7,Kadeisha Sims,TN,1423303870000.0,18266348
188230190,Nashville,,1433464651000.0,36.16,-86.79,Kaitlin Clark,TN,1433464651000.0,18266348
199008828,Nashville,,1454367405000.0,36.07,-86.73,Kaitlyn,TN,1454367405000.0,18266348
224694083,Franklin,,1490811324000.0,35.92,-86.89,Kaitlyn Crouch,TN,1490811324000.0,18266348
193841158,Nashville,,1444353416000.0,36.15,-86.86,Kaleigh,TN,1444353416000.0,18266348
191419873,Murray,,1439778202000.0,36.62,-88.25,Kaleigh,KY,1439778202000.0,18266348
200498013,Nashville,,1456533335000.0,36.17,-86.72,Kaley ,TN,1456533335000.0,18266348
64190532,Nashville,,1467381544000.0,36.17,-86.78,Kalyn Kristoff,TN,1467381544000.0,18266348
184702427,Nashville,,1424749921000.0,36.17,-86.78,Kami,TN,1424749921000.0,18266348
210372458,Nashville,,1470321181000.0,36.17,-86.78,Kara,TN,1487270659000.0,18266348
220583756,Nashville,,1485232760000.0,36.17,-86.78,Karen,TN,1485232760000.0,18266348
211102820,Murfreesboro,,1471369810000.0,35.78,-86.33,Karen,TN,1473025818000.0,18266348
117052642,Nashville,,1422295919000.0,36.16,-86.79,Karen,TN,1460402104000.0,18266348
191810511,Nashville,,1440528388000.0,36.11,-86.86,Karen Ashley,TN,1440528388000.0,18266348
11868115,Brentwood,,1420294942000.0,36.0,-86.79,karen bailey,TN,1424115415000.0,18266348
214054857,Nashville,,1475262536000.0,36.13,-86.67,Karen Burke,TN,1475262536000.0,18266348
201156737,Lebanon,,1471907170000.0,36.21,-86.31,Karen Sangster,TN,1471907170000.0,18266348
106885952,Nashville,,1461248559000.0,36.06,-86.96,Karen Sliwowski,TN,1461248559000.0,18266348
224327614,Nashville,,1490304262000.0,36.17,-86.79,Kari West,TN,1490304262000.0,18266348
2661540,Brooklyn,Brooklyn,1464866496000.0,40.68,-73.96,Karmen,NY,1464866496000.0,18266348
206747330,Nashville,,1465426585000.0,36.06,-86.96,Karmendi Martin,TN,1465426585000.0,18266348
193721283,Metropolis,,1444134404000.0,37.15,-88.72,karmenleean leean,IL,1444134404000.0,18266348
216583189,Franklin,,1479000472000.0,35.92,-86.89,Karrie McFadden,TN,1479000472000.0,18266348
11452764,Nashville,,1478808892000.0,36.13,-86.8,Karyn,TN,1478808892000.0,18266348
190325907,Nashville,,1437697555000.0,36.16,-86.79,Karyn,TN,1443313615000.0,18266348
210664229,Franklin,,1470733046000.0,35.92,-86.89,Kas,TN,1470733046000.0,18266348
35015202,Erin,Erin,1443573513000.0,36.29,-87.75,Kasey pulley,TN,1443573513000.0,18266348
128304172,Murfreesboro,,1451146133000.0,35.87,-86.44,Kassandra,TN,1451146133000.0,18266348
188395335,Franklin,,1433865647000.0,35.99,-86.9,Kate,TN,1433865647000.0,18266348
200178131,Brentwood,,1460224718000.0,36.0,-86.79,Kate,TN,1460224718000.0,18266348
222801896,Murfreesboro,,1488163575000.0,35.78,-86.33,Kate O'Hara,TN,1488163575000.0,18266348
220149625,Nashville,,1484751874000.0,36.09,-86.82,Katelyn McKeen,TN,1484751874000.0,18266348
185292179,Nashville,,1428017818000.0,36.17,-86.78,Katherine ,TN,1431027539000.0,18266348
206351586,Nashville,,1464908628000.0,36.11,-86.78,Katherine Marena Munoz,TN,1464908628000.0,18266348
214998978,Nashville,,1476562257000.0,36.17,-86.78,Kathleen,TN,1476562257000.0,18266348
185527106,Nashville,,1427228539000.0,36.11,-86.86,Kathleen Varallo,TN,1427228539000.0,18266348
15362501,Franklin,,1455494349000.0,35.92,-86.89,Kathryn M,TN,1466200120000.0,18266348
186104702,Nashville,,1428868274000.0,36.17,-86.78,Kathryn Piotti,TN,1428868274000.0,18266348
223013880,Brentwood,,1488468226000.0,36.0,-86.79,Kathy,TN,1488468226000.0,18266348
2792457,Charlotte,,1419792223000.0,35.2,-80.66,Kathy C,NC,1495972262000.0,18266348
185850140,Franklin,,1428193644000.0,35.93,-86.81,Kathy king,TN,1457062486000.0,18266348
195359005,Madison,,1447137415000.0,34.68,-86.79,Kathy Tran,AL,1447137415000.0,18266348
214132434,Clarksville,,1475358618000.0,36.56,-87.41,Kathy Wheeler,TN,1475358618000.0,18266348
205622663,Franklin,,1463888368000.0,35.93,-86.81,Katie,TN,1483326263000.0,18266348
43441182,Nashville,,1446400446000.0,36.17,-86.78,Katie,TN,1446400446000.0,18266348
185292791,Nashville,,1426515464000.0,36.15,-86.86,Katie,TN,1426689953000.0,18266348
200188927,Nashville,,1456104851000.0,36.18,-86.74,Katie,TN,1456104851000.0,18266348
58175802,Nashville,,1467161160000.0,36.17,-86.72,Katie,TN,1467161160000.0,18266348
209945213,Nashville,,1469729026000.0,36.06,-86.96,Katie,TN,1469729026000.0,18266348
198638151,Nashville,,1453783564000.0,36.17,-86.78,Katie Alyssa,TN,1453783564000.0,18266348
199524638,Brentwood,,1455172038000.0,36.0,-86.79,Katie Beth ,TN,1455172038000.0,18266348
189283772,Nashville,,1435621483000.0,36.06,-86.96,Katie Connelly,TN,1435621483000.0,18266348
184473726,Nashville,,1424056118000.0,36.09,-86.82,Katie Dillon,TN,1424056118000.0,18266348
195962599,Nashville,,1448289345000.0,36.17,-86.78,Katie Ernst,TN,1448289345000.0,18266348
187951532,Franklin,,1432913523000.0,35.92,-86.89,Katie Hamilton,TN,1432913523000.0,18266348
186602743,Eagleville,,1430053780000.0,35.75,-86.64,Katie Howard,TN,1430053780000.0,18266348
227939684,Nashville,,1495245887000.0,36.1,-86.66,Katie Lane,TN,1495245887000.0,18266348
197724133,Waverly,,1452104624000.0,36.09,-87.79,Katie Wilson,TN,1452104624000.0,18266348
79116722,Nashville,,1439740421000.0,36.11,-86.78,Katisha,TN,1500733590000.0,18266348
196523168,Nashville,,1449436104000.0,36.09,-86.82,Katy M. Ayers,TN,1449436104000.0,18266348
198679988,Nashville,,1453854946000.0,36.17,-86.78,Katy Wonder,TN,1453854946000.0,18266348
189039355,Nashville,"Nashville, TN",1435111899000.0,36.11,-86.86,Kay,TN,1439731879000.0,18266348
204406512,Madison,,1462199781000.0,36.26,-86.71,Kay,TN,1466191715000.0,18266348
201377260,La Vergne,La Vergne,1457807361000.0,36.01,-86.57,Kayla,TN,1467066870000.0,18266348
206442873,Nashville,,1465042264000.0,36.17,-86.78,Kayla Colson,TN,1483449688000.0,18266348
108915282,Nashville,,1469912292000.0,36.17,-86.78,Kayla Thomas,TN,1469912292000.0,18266348
211926234,Hermitage,,1472517139000.0,36.19,-86.6,Kayley,TN,1472517139000.0,18266348
231619106,Nashville,,1499813643000.0,36.06,-86.96,Kayli Ann Miller,TN,1499813643000.0,18266348
199956442,Nashville,,1455780706000.0,36.22,-86.86,Kelley Doss,TN,1455780706000.0,18266348
118331702,Murfreesboro,,1467673435000.0,35.78,-86.33,Kelli Dees,TN,1475379623000.0,18266348
11151756,Brentwood,Brentwood,1419784950000.0,36.0,-86.79,Kelli Gabriel,TN,1419784950000.0,18266348
197653245,Nashville,,1451966539000.0,36.17,-86.78,Kelly,TN,1457019888000.0,18266348
229873547,Nashville,,1497705377000.0,36.17,-86.78,Kelly Chaffin,TN,1497705377000.0,18266348
187386312,Nashville,,1431769809000.0,36.17,-86.78,Kelly Dorsey,TN,1432089507000.0,18266348
194105567,Nashville,,1444844983000.0,36.16,-86.79,Kelsey,TN,1445019273000.0,18266348
202389001,Nashville,,1459284964000.0,36.16,-86.79,Kelsey Canfield,TN,1459284964000.0,18266348
211298852,Nashville,,1471649522000.0,36.17,-86.78,Kelsey Lamb,TN,1471649522000.0,18266348
213021364,Franklin,,1473978857000.0,35.92,-86.89,Kelvin Edward,TN,1473978857000.0,18266348
225993713,Tullahoma,,1492629129000.0,35.37,-86.21,Kendra Johnson,TN,1492644638000.0,18266348
210561881,Nashville,,1470594432000.0,36.17,-86.78,Kenneth,TN,1470594432000.0,18266348
226166306,Nashville,,1492868932000.0,36.16,-86.79,Kenzie Winter,TN,1492868932000.0,18266348
182977693,Nashville,,1423607647000.0,36.17,-86.72,Keri,TN,1475573303000.0,18266348
11932717,Nashville,,1434904656000.0,36.17,-86.78,Kerry,TN,1434904656000.0,18266348
50488822,Gallatin,,1493998241000.0,36.39,-86.45,Kevin Cook,TN,1493998241000.0,18266348
196517884,Quebeck,,1449428026000.0,35.83,-85.55,Kevin Purgiel,TN,1470000836000.0,18266348
224620995,Nashville,,1490720557000.0,36.17,-86.78,Kiesha,TN,1490814331000.0,18266348
206100679,Nashville,,1464566831000.0,36.18,-86.74,Kim,TN,1466222659000.0,18266348
188312199,Franklin,,1433641010000.0,35.93,-86.81,Kim B.,TN,1433641010000.0,18266348
13834080,Whites Creek,Whites Creek,1436327971000.0,36.27,-86.83,Kim D.,TN,1461368099000.0,18266348
208746955,Dickson,,1496419571000.0,36.01,-87.48,Kim Stokes,TN,1498682490000.0,18266348
222028223,Murfreesboro,,1487270834000.0,35.78,-86.33,Kim Truong,TN,1491160171000.0,18266348
223678084,Santa Rosa Beach,,1489427074000.0,30.36,-86.24,Kimberly,FL,1494354718000.0,18266348
163021932,Nashville,,1454948242000.0,36.17,-86.78,Kimberly Golladay,TN,1454948242000.0,18266348
188970039,Hermitage,,1434984109000.0,36.19,-86.6,Kimberly Mann West,TN,1468212823000.0,18266348
122938732,Nashville,Nashville,1452466980000.0,36.18,-86.81,Kindra Schaefer,TN,1452466980000.0,18266348
136932882,Brentwood,,1434671578000.0,36.0,-86.79,Kisha,TN,1434671578000.0,18266348
131177742,Nashville,,1464715753000.0,36.18,-86.81,Korlin Thomas Harrison ,TN,1464715753000.0,18266348
197670238,Nashville,,1452006035000.0,36.17,-86.78,Krista Lyn,TN,1452006035000.0,18266348
217470740,Nashville,,1480462085000.0,36.16,-86.66,Kristen Sisco,TN,1480462085000.0,18266348
226135246,Nashville,,1492821738000.0,36.17,-86.78,Kristian,TN,1492821738000.0,18266348
186462888,Nashville,,1429734070000.0,36.14,-86.86,Kristin Hernandez,TN,1429734070000.0,18266348
225498014,Nashville,,1491955889000.0,36.08,-86.72,Kristin Viscione,TN,1491955889000.0,18266348
185142869,Nashville,,1426040812000.0,36.18,-86.74,Kristina,TN,1426040812000.0,18266348
197531394,Nashville,,1451753633000.0,36.18,-86.74,Kristina thomsen,TN,1451753633000.0,18266348
182739832,Nashville,,1456601618000.0,36.17,-86.78,Kristy,TN,1456601618000.0,18266348
183458661,Franklin,,1420851940000.0,35.92,-86.89,Kristy Mondelli,TN,1420851940000.0,18266348
183349444,Nashville,,1420501260000.0,36.17,-86.78,Kyle Campbell,TN,1420501260000.0,18266348
172012072,Nashville,,1455733461000.0,36.17,-86.78,Kyle Williams,TN,1456768029000.0,18266348
209062292,Antioch,,1468570167000.0,36.04,-86.64,kyng George,TN,1468570167000.0,18266348
230045485,Nashville,,1497916474000.0,36.17,-86.78,L,TN,1497916474000.0,18266348
237594722,Nashville,,1506566850000.0,36.06,-86.96,Laken Mangrum,TN,1506566850000.0,18266348
203247062,Franklin,,1460508118000.0,35.92,-86.89,Lana Zivanovic,TN,1460508118000.0,18266348
208165817,Nashville,Nashville,1499546169000.0,36.22,-86.77,Landon Drake Bell,TN,1499546169000.0,18266348
190239152,Nashville,Thousand Oaks,1459616064000.0,36.08,-86.72,Lara,TN,1459616064000.0,18266348
182500304,Mount Juliet,,1420307365000.0,36.21,-86.52,Larissa Farley,TN,1475941338000.0,18266348
203357112,Clarksville,,1462076961000.0,36.56,-87.41,Lashaunda Dubose,TN,1485067628000.0,18266348
230440580,Franklin,,1498390052000.0,35.93,-86.81,Latha Huttanna,TN,1498390052000.0,18266348
218422159,Nashville,,1482180178000.0,36.14,-86.74,Laton Key,TN,1482180178000.0,18266348
223104498,Murfreesboro,,1488589916000.0,35.78,-86.33,LaTonya Reed,TN,1488589916000.0,18266348
145083322,Nashville,Nashville,1476991280000.0,36.1,-86.66,latrese,TN,1476991280000.0,18266348
190953808,Nashville,,1438859815000.0,36.17,-86.78,Laura,TN,1438859815000.0,18266348
185377750,Paducah,,1426771645000.0,37.04,-88.71,Laura,KY,1456495057000.0,18266348
197157112,Franklin,,1450847070000.0,35.92,-86.89,Laura B,TN,1464403494000.0,18266348
230729805,Nashville,,1498791839000.0,36.08,-86.72,Laura Beth Snipes,TN,1498868178000.0,18266348
119889432,Nashville,Hermitage,1419804789000.0,36.15,-86.86,Laura Gimpelson,TN,1419804789000.0,18266348
187869037,Nashville,,1432744836000.0,36.13,-86.8,Laura Twigs Johnson,TN,1432919021000.0,18266348
218470947,Hendersonville,,1482274253000.0,36.32,-86.61,laura.rambles.on,TN,1482274253000.0,18266348
194645596,Nashville,,1445829599000.0,36.16,-86.79,Lauren,TN,1449693095000.0,18266348
210708012,Nashville,,1470789521000.0,36.13,-86.8,Lauren Blachowiak,TN,1470789521000.0,18266348
190348761,Nashville,,1437744951000.0,36.16,-86.79,Lauren Eliza,TN,1473486932000.0,18266348
215018677,Nashville,,1476588101000.0,36.08,-86.72,Lauren Fairand,TN,1476588101000.0,18266348
206169596,Murfreesboro,,1464658215000.0,35.78,-86.33,Lauren Goley,TN,1464658215000.0,18266348
197606180,Nashville,,1451884243000.0,36.17,-86.78,Lauren Joseph,TN,1451884243000.0,18266348
226331718,Nashville,,1493080205000.0,36.09,-86.82,Lauren O'Shaughnessy,TN,1493080205000.0,18266348
186671136,Franklin,,1431903136000.0,35.92,-86.89,Lauren Preininger,TN,1431903136000.0,18266348
218802736,Nashville,,1482942877000.0,36.17,-86.78,Lauren Sharpe,TN,1483783759000.0,18266348
220660160,Nashville,,1485318258000.0,36.08,-86.72,Lauren Van Daff,TN,1485318258000.0,18266348
13389422,Franklin,,1436663378000.0,35.92,-86.89,Lauren Whitworth,TN,1436663378000.0,18266348
188406027,Clarksville,,1433827051000.0,36.49,-87.23,Lavelle J,TN,1433827051000.0,18266348
189791399,Nashville,,1436658768000.0,36.22,-86.86,Layonnaw White,TN,1436658768000.0,18266348
214204915,Nashville,,1475449091000.0,36.17,-86.78,Leah Bluestone,TN,1475449091000.0,18266348
199677819,Nashville,"Nashville, TN",1455401364000.0,36.06,-86.96,Leah H,TN,1455401364000.0,18266348
222589383,Nashville,,1487864556000.0,36.17,-86.78,Lee Ann ,TN,1487864556000.0,18266348
8006774,Brentwood,Brentwood,1488298911000.0,36.0,-86.79,Lee Ann,TN,1488298911000.0,18266348
225766273,Burns,,1492322320000.0,36.04,-87.26,Leighann Jack,TN,1495847791000.0,18266348
198608937,Nashville,,1453738521000.0,36.09,-86.82,lela,TN,1466692037000.0,18266348
98195542,Nashville,Nashville,1439986855000.0,36.17,-86.78,Les,TN,1439986855000.0,18266348
2434993,Nashville,"Murray, KY",1419892948000.0,36.16,-86.79,Leslee Rose,TN,1435474861000.0,18266348
184443720,New York,,1423966846000.0,40.75,-73.99,Lesley Mortimer-Wallace,NY,1423966846000.0,18266348
2838791,Nashville,,1467292701000.0,36.17,-86.78,Leslie,TN,1467292701000.0,18266348
227321931,Nashville,,1494430614000.0,36.17,-86.72,Leslie Tadlock,TN,1494430614000.0,18266348
234209063,Nashville,,1503665042000.0,36.17,-86.78,Leslie Waddell Smith,TN,1506793664000.0,18266348
198189651,Nashville,,1452968749000.0,36.17,-86.78,Lil,TN,1454872028000.0,18266348
203719306,Brentwood,,1461184241000.0,36.0,-86.79,Liming Wang,TN,1461184241000.0,18266348
199881582,Springfield,,1455677575000.0,36.52,-86.87,Linda,TN,1455677575000.0,18266348
30852882,Nashville,,1432040246000.0,36.16,-86.79,Linda Jameson,TN,1483999879000.0,18266348
199981516,Nashville,,1455819846000.0,36.1,-86.66,Linda L.A.,TN,1455819846000.0,18266348
208554125,Lebanon,,1467907000000.0,36.21,-86.29,Lindsay,TN,1483248329000.0,18266348
230214484,Franklin,,1498097143000.0,35.92,-86.89,Lindsay Elliott,TN,1498097143000.0,18266348
193969739,Brentwood,,1465786569000.0,36.0,-86.79,Lindsay Taylor Gaskins,TN,1465786569000.0,18266348
183448270,Fairview,,1420821748000.0,35.97,-87.13,Lindsey,TN,1420821748000.0,18266348
185762528,Brentwood,"Madison, AL",1427941882000.0,36.0,-86.79,"Lindsey ""AuPairCare"" Monger",TN,1427941882000.0,18266348
218812356,Nashville,,1482957415000.0,36.17,-86.78,Lindsey Johnson Gray,TN,1482957415000.0,18266348
197513735,Columbia,,1451711732000.0,35.61,-87.05,Lindsey Michelle Copeland,TN,1451711732000.0,18266348
211131914,Nashville,,1471401364000.0,36.22,-86.77,Lindsey Thornton,TN,1483673544000.0,18266348
189248930,Nashville,,1435550828000.0,36.17,-86.78,Lisa LaFaye Anderson,TN,1435550828000.0,18266348
190308455,Franklin,,1437670680000.0,35.93,-86.81,Lisa Pressnell,TN,1437670680000.0,18266348
109625682,Brentwood,,1432993454000.0,36.0,-86.79,Lisa R ,TN,1432993454000.0,18266348
11440415,Franklin,"Franklin, TN",1422743666000.0,35.92,-86.89,Lisa R.,TN,1422743666000.0,18266348
187254772,Columbia,,1431479945000.0,35.61,-87.05,Lisa Rice Hargrove,TN,1431479945000.0,18266348
189465168,Nashville,,1436013038000.0,36.09,-86.82,Liz Arnold,TN,1436013038000.0,18266348
197398441,Nashville,,1478060709000.0,36.17,-86.78,Loan,TN,1478060709000.0,18266348
216624431,Antioch,,1479068671000.0,36.04,-86.64,Logan Blank,TN,1504039124000.0,18266348
212900581,Nashville,,1473816540000.0,36.08,-86.72,Lola Becton,TN,1473816540000.0,18266348
191372658,Nashville,,1439765161000.0,36.09,-86.82,Loni Wood,TN,1439765161000.0,18266348
103436192,Mount Juliet,,1422569209000.0,36.21,-86.52,Loretta,TN,1483156854000.0,18266348
199621746,Franklin,,1455321833000.0,35.92,-86.89,Lori Hardin Payne,TN,1455321833000.0,18266348
190975879,Nashville,,1438901697000.0,36.17,-86.72,Lori S,TN,1444016043000.0,18266348
203511983,Kingston Springs,,1460903619000.0,36.09,-87.12,Lori Tobin,TN,1460903619000.0,18266348
112351302,Pulaski,,1426468177000.0,35.19,-87.03,Lori2013,TN,1431779811000.0,18266348
186629929,Nashville,,1430102247000.0,36.11,-86.86,Lucas Sobchack,TN,1432910232000.0,18266348
195215113,Nashville,"Chattanooga, TN",1446906027000.0,36.06,-86.96,Lyn,TN,1452742934000.0,18266348
230250513,Franklin,,1498152412000.0,35.93,-86.81,Lynde,TN,1503281420000.0,18266348
187630866,Nashville,,1432256223000.0,36.07,-86.73,Lyndsay Smith,TN,1432256223000.0,18266348
184197786,Brentwood,,1423173912000.0,36.0,-86.79,Lynette Milliken,TN,1423173912000.0,18266348
192119143,Antioch,,1441126562000.0,36.04,-86.64,Lynn Burns,TN,1441307247000.0,18266348
189058697,Kingston Springs,,1435157442000.0,36.09,-87.12,Lynn Dortch,TN,1435157442000.0,18266348
186185973,Brentwood,,1429213872000.0,36.0,-86.79,Lynne Killeen,TN,1429213872000.0,18266348
192734222,Nashville,,1442270640000.0,36.16,-86.79,Lynne Koester,TN,1442270640000.0,18266348
196427068,Lewisburg,,1449313027000.0,35.45,-86.8,Lynnette Cole ,TN,1449313027000.0,18266348
192095632,Charlotte,,1441077501000.0,35.19,-80.83,M H,NC,1442554490000.0,18266348
219095369,Nashville,,,36.15,-86.78,,TN,,18266348
206609264,Nashville,,1465254876000.0,36.13,-86.8,Maddie Kewin,TN,1465254876000.0,18266348
198902400,Franklin,,1454206857000.0,35.92,-86.89,Madeline Moore,TN,1454206857000.0,18266348
194700251,Franklin,,1445920983000.0,35.92,-86.89,Madison,TN,1447124672000.0,18266348
183984810,Nashville,,1422485003000.0,36.06,-86.96,Maegen,TN,1422826323000.0,18266348
192024535,Nashville,,1440950389000.0,36.17,-86.78,Makenzie,TN,1440950389000.0,18266348
199274025,Nashville,,1454791844000.0,36.18,-86.74,Malek Damiri,TN,1454791844000.0,18266348
198991683,Antioch,,1454345468000.0,36.04,-86.64,Malia,TN,1454522695000.0,18266348
191007791,Nashville,,1438969851000.0,36.08,-86.72,Mallory Charpentier,TN,1438969851000.0,18266348
197154740,Nashville,"Killen, AL",1485749556000.0,36.17,-86.72,Mandy Weigart,TN,1485749556000.0,18266348
197683757,Nashville,,1452027229000.0,36.11,-86.86,Manon Stephenson,TN,1452027229000.0,18266348
183548671,Nashville,,1421156333000.0,36.09,-86.82,Marc Sullivan,TN,1421156333000.0,18266348
192819105,Nashville,,1442428837000.0,36.15,-86.86,Marea Chatman,TN,1442428837000.0,18266348
200857861,Nashville,,1457050070000.0,36.17,-86.78,Margaret Eckert Dunlap,TN,1457050070000.0,18266348
124095532,Spring Hill,,1488761791000.0,35.76,-86.88,Maria,TN,1488761791000.0,18266348
215509819,Nashville,,1477318977000.0,36.06,-86.96,Maria Carmen Jackson,TN,1480377506000.0,18266348
197617794,Clarksville,,1451913440000.0,36.53,-87.35,Maria Shircel,TN,1451913440000.0,18266348
211785155,Thompsons Station,,1472326785000.0,35.8,-86.9,Mariah,TN,1472425999000.0,18266348
234982183,Tennessee Ridge,,1503808000000.0,36.31,-87.76,Mariam Moran,TN,1503808000000.0,18266348
188552289,Mount Juliet,,1434268393000.0,36.21,-86.52,Marie,TN,1434268393000.0,18266348
188083894,Nashville,,1433179065000.0,36.06,-86.96,Marika McCoy,TN,1433179065000.0,18266348
194038924,Nashville,,1444772923000.0,36.17,-86.78,Marilyn Faye Castleman,TN,1496136060000.0,18266348
227442993,Nashville,,1494595307000.0,36.17,-86.78,Mario  Mann,TN,1494595307000.0,18266348
68680272,Brentwood,,1420495179000.0,36.0,-86.79,Marion,TN,1422908532000.0,18266348
208763415,Nashville,,1468185536000.0,36.16,-86.79,Marissa Hryck,TN,1468185536000.0,18266348
197353404,Columbia,,1467397770000.0,35.61,-87.05,Marissa King,TN,1467397770000.0,18266348
184653085,Nashville,,1424616623000.0,36.17,-86.78,Marita Buckles,TN,1424616623000.0,18266348
229296770,Hermitage,,1496948193000.0,36.19,-86.6,marjorie burnette,TN,1496948193000.0,18266348
192318017,Nashville,,1441505867000.0,36.11,-86.86,Mark,TN,1441688585000.0,18266348
216474792,Franklin,,1478827547000.0,35.92,-86.89,mark ,TN,1478827547000.0,18266348
205338225,Nashville,,1463500582000.0,36.18,-86.74,Mark Andersson,TN,1463500582000.0,18266348
125315532,Murfreesboro,Los Angeles,1507598928000.0,35.78,-86.33,Mark wing,TN,1507598928000.0,18266348
227089335,Nashville,,1494110405000.0,36.17,-86.78,Markus Lich,TN,1494110405000.0,18266348
207606292,Nashville,,1466609365000.0,36.17,-86.78,Marla Daye Vinsant,TN,1466609365000.0,18266348
212467622,Franklin,,1473253316000.0,35.92,-86.89,Marla Richardson,TN,1473253316000.0,18266348
191720758,Nashville,,1440365011000.0,36.17,-86.78,Marlo,TN,1440365011000.0,18266348
200559221,Nashville,,1456623006000.0,36.08,-86.72,Marsha,TN,1456641454000.0,18266348
197068063,White House,,1450669252000.0,36.48,-86.69,Marshall Bull,TN,1450669252000.0,18266348
190713969,Brentwood,,1438399161000.0,36.0,-86.79,Marta,TN,1475568101000.0,18266348
210296670,Franklin,,1470203261000.0,35.92,-86.89,Marti Webster,TN,1473899594000.0,18266348
196177820,Fairview,,1458061530000.0,35.97,-87.13,marvin bateman,TN,1458061530000.0,18266348
65571302,Franklin,"Fort Walton Beach, Florida ",1454536901000.0,35.99,-86.9,Mary Alice Armstrong,TN,1454536901000.0,18266348
8346884,Nashville,,1419724597000.0,36.17,-86.78,Mary Buckner,TN,1419724597000.0,18266348
153813452,Nashville,"Fontana, CA",1419176859000.0,36.04,-86.97,Mary Elizabeth,TN,1475363247000.0,18266348
185527937,Nashville,,1427230648000.0,36.22,-86.86,Mary K. Harlow,TN,1427230648000.0,18266348
69568352,Nashville,Oakmont,1446157550000.0,36.1,-86.87,Mary Lou Moewe,TN,1446157550000.0,18266348
222367515,Clarksville,,1487562520000.0,36.53,-87.35,mary schillo,TN,1487562520000.0,18266348
10543389,Brentwood,,1437337385000.0,36.0,-86.79,Mary-Beth Army,TN,1437337385000.0,18266348
215540369,Nashville,,1477355021000.0,36.06,-86.96,Maryam Lopez,TN,1477355021000.0,18266348
206639176,Clarksville,,1465299721000.0,36.56,-87.41,Mason Delatour,TN,1465299721000.0,18266348
203093210,Nashville,,1460304453000.0,36.15,-86.79,Matt,TN,1460304453000.0,18266348
226846778,Nashville,,1493774259000.0,36.13,-86.8,Matt,TN,1493774259000.0,18266348
193317824,Fort Campbell,,1443374421000.0,36.65,-87.46,Matt Anderson,KY,1443374421000.0,18266348
191918501,Tsuchiura,,1440729794000.0,36.09,140.19,Matt Jones,,1440729794000.0,18266348
184273767,Nashville,,1423424738000.0,36.11,-86.86,Matt Vecchio,TN,1423603680000.0,18266348
203315648,Nashville,,1460604265000.0,36.16,-86.79,matthew,TN,1460604265000.0,18266348
185121064,Franklin,,1425982450000.0,35.9,-86.96,Max Fort,TN,1425982450000.0,18266348
13500847,Nashville,,1468507137000.0,36.17,-86.72,Maxi,TN,1468507137000.0,18266348
107223432,Miami,,1422247355000.0,25.78,-80.2,Maya Elizabeth Jones,FL,1422339616000.0,18266348
184412311,Clarksville,,1423852088000.0,36.49,-87.23,Meesch,TN,1423852088000.0,18266348
192516701,Nashville,,1441862463000.0,36.06,-86.96,Meg,TN,1441862463000.0,18266348
127219982,Nashville,,1474471431000.0,36.18,-86.74,Meg Anderson,TN,1475776155000.0,18266348
211451981,Fort Myers Beach,,1471870633000.0,26.45,-81.93,Meg. Cyr,FL,1471880267000.0,18266348
212447371,Nashville,,1473219507000.0,36.14,-86.74,Megan,TN,1473387030000.0,18266348
222310509,Franklin,,1487482228000.0,35.92,-86.89,Megan Furnish,TN,1487482228000.0,18266348
227484799,Nashville,,1494730360000.0,36.17,-86.78,Megan Reenock,TN,1494730360000.0,18266348
208654146,Clarksville,,1468041241000.0,36.53,-87.35,Megan Smith,TN,1468041241000.0,18266348
198518474,Nashville,,1453570530000.0,36.09,-86.82,Meggan Bess Sullivan,TN,1473213829000.0,18266348
205270580,Nashville,,1463415838000.0,36.07,-86.73,Mel,TN,1466878915000.0,18266348
200742958,Nashville,,1460935804000.0,36.08,-86.72,Melanie,TN,1460935804000.0,18266348
195031215,Nashville,"Antioch, TN",1446531865000.0,36.18,-86.81,Melanie L.,TN,1446531865000.0,18266348
219937583,Nashville,,1484423599000.0,36.17,-86.77,Melanie Traster,TN,1484423599000.0,18266348
198447796,Hendersonville,,1453429167000.0,36.32,-86.61,Melinda DuPree,TN,1473884500000.0,18266348
204676986,Murfreesboro,,1462587818000.0,35.82,-86.45,Melissa C,TN,1462587818000.0,18266348
149318742,Nashville,,1483163771000.0,36.1,-86.66,Melissa Holt,TN,1483163771000.0,18266348
206593938,Hermitage,,1465238691000.0,36.19,-86.6,Melissa Moghadam,TN,1465238691000.0,18266348
191374899,Hendersonville,,1439688912000.0,36.32,-86.61,Meredith,TN,1439688912000.0,18266348
204707576,Nashville,,1462637143000.0,36.07,-86.73,Merk,TN,1462637143000.0,18266348
202312639,Wingate,,1459181451000.0,34.99,-80.45,Meta Lake,NC,1459181451000.0,18266348
193488416,Little Rock,,1443683447000.0,34.75,-92.28,Michael A Brown,AR,1443926916000.0,18266348
197933712,Lebanon,,1452484139000.0,36.21,-86.31,Michael Blazer,TN,1464840484000.0,18266348
34240622,Nashville,Brentwood,1419704136000.0,36.17,-86.78,Michael Gabelman,TN,1502748285000.0,18266348
203301369,Nashville,,1460584950000.0,36.17,-86.78,Michael Hill,TN,1460584950000.0,18266348
213414916,Nashville,,1474478818000.0,36.17,-86.78,Michael Kline,TN,1474478818000.0,18266348
231836701,Spring Hill,,1500071251000.0,35.76,-86.88,Michael L Tauber,TN,1500071251000.0,18266348
196501400,Nashville,,1449392435000.0,36.09,-86.82,Michele,TN,1473618112000.0,18266348
193327283,Portland,,1443388887000.0,36.57,-86.49,Michelle,TN,1443393815000.0,18266348
202631762,Nashville,,1459645456000.0,36.13,-86.8,Michelle,TN,1459645456000.0,18266348
183763810,Brentwood,,1453311970000.0,36.0,-86.79,Mickie Howell,TN,1488893414000.0,18266348
218560507,Antioch,,1482451170000.0,36.04,-86.64,Micouri Aranea Silva,TN,1482451170000.0,18266348
221139699,Franklin,,1485925699000.0,35.92,-86.89,Mike King,TN,1485925699000.0,18266348
185770360,Franklin,Franklin,1427970831000.0,35.92,-86.89,Mike Rezba,TN,1428131375000.0,18266348
188094055,La Vergne,,1433194075000.0,36.01,-86.57,Mike W,TN,1433245301000.0,18266348
193513104,Euless,,1443732285000.0,32.85,-97.09,Mikie Thornton,TX,1443732285000.0,18266348
184530249,Tallahassee,,1424224152000.0,30.46,-84.24,Mindy Johnson,FL,1424224152000.0,18266348
229701620,Nashville,,1497456314000.0,36.15,-86.86,Mírian Daniela,TN,1497456314000.0,18266348
207256367,Nashville,,1466123832000.0,36.17,-86.78,ML,TN,1466123832000.0,18266348
203444030,Nashville,,1460804929000.0,36.08,-86.72,mogador,TN,1460804929000.0,18266348
187749973,Nashville,,1432509806000.0,36.17,-86.78,Moko,TN,1432509806000.0,18266348
201470426,Taylors,,1457928987000.0,34.93,-82.32,Molly Bernard,SC,1457928987000.0,18266348
231333498,Franklin,,1499482772000.0,35.93,-86.81,Molly Nuenke,TN,1499482772000.0,18266348
92954562,Nashville,,1438296941000.0,36.06,-86.96,Molly O'Connor,TN,1438296941000.0,18266348
203095669,Madison,,1460308190000.0,36.26,-86.71,Monica,TN,1460308190000.0,18266348
216930383,Nashville,,1479536209000.0,36.15,-86.86,Monica Bruno Nuñez,TN,1479536209000.0,18266348
183511094,Spring Hill,,1421031239000.0,35.72,-86.89,Monica Chessor,TN,1421031239000.0,18266348
182815483,Cookeville,Sparta,1420965335000.0,36.11,-85.5,Monica Hutcheson,TN,1472355314000.0,18266348
211417028,Murfreesboro,Munich,1471817551000.0,35.82,-86.45,Monika Hallissey,TN,1471817551000.0,18266348
186045897,Mount Juliet,,1428708751000.0,36.21,-86.52,Morgan,TN,1484194210000.0,18266348
184998250,Nashville,,1425615648000.0,36.17,-86.78,Morgan,TN,1425615648000.0,18266348
206813678,Nashville,,1465516054000.0,36.17,-86.78,Morgan Dent,TN,1465516054000.0,18266348
193819045,Franklin,,1444316530000.0,35.93,-86.81,Morgan Murray,TN,1444316530000.0,18266348
184475931,Elizabethtown,,1445348209000.0,37.49,-88.27,Mr.C,IL,1445348209000.0,18266348
199903439,Nashville,,1455714490000.0,36.06,-86.96,musicitygal,TN,1466693423000.0,18266348
207109757,Nashville,,1465923599000.0,36.06,-86.96,Muzette Berube Fiander,TN,1465923599000.0,18266348
184829570,Murfreesboro,"Minneapolis, MN",1425148317000.0,35.78,-86.33,Nada,TN,1454169737000.0,18266348
54713102,Nashville,,1420733132000.0,36.17,-86.78,Nancy,TN,1464020411000.0,18266348
219727514,Spring Hill,,1484149543000.0,35.76,-86.88,nancy,TN,1484149543000.0,18266348
4389320,Nashville,Charlotte,1484271798000.0,36.17,-86.78,Nat,TN,1484271798000.0,18266348
222843296,Nashville,,1488226150000.0,36.17,-86.78,Natalie Buzzelli,TN,1488226150000.0,18266348
191240701,Mount Juliet,,1439419434000.0,36.22,-86.52,Nate Feathers,TN,1471063268000.0,18266348
229979437,Nashville,,1497832775000.0,36.15,-86.86,Nawaf Mulafikh,TN,1497832775000.0,18266348
192879105,Nashville,,1442541341000.0,36.17,-86.78,Nazan Tem,TN,1442547418000.0,18266348
206164472,Tullahoma,,1464651965000.0,35.37,-86.21,Nazek Shabayek,TN,1464651965000.0,18266348
229634985,Nashville,,1497370579000.0,36.17,-86.78,Neal C,TN,1497370579000.0,18266348
205553247,La Vergne,,1463790124000.0,36.01,-86.57,Neira Ahmespahic,TN,1463790124000.0,18266348
215432389,Spring Hill,,1477195610000.0,35.76,-86.88,neza,TN,1477195610000.0,18266348
198453230,Nashville,,1453470469000.0,36.17,-86.78,Nichole Young,TN,1453470469000.0,18266348
192209539,Nashville,,1441298552000.0,36.17,-86.78,Nick,TN,1441298552000.0,18266348
224497884,Clarksville,,1490550420000.0,36.53,-87.35,Nick,TN,1490591698000.0,18266348
192686975,Nashville,,1442186235000.0,36.06,-86.96,Nick Hoover,TN,1442186235000.0,18266348
203529750,Spring Hill,,1460922875000.0,35.76,-86.88,Nicole,TN,1460922875000.0,18266348
190685109,Nashville,,1438347073000.0,36.17,-86.78,Nicole,TN,1438347073000.0,18266348
210037852,Greer,,1469853744000.0,34.9,-82.27,Nicole Paxson,SC,1469853744000.0,18266348
186134602,Nashville,,1428942861000.0,36.06,-86.96,Nicole Staggs,TN,1428942861000.0,18266348
205360043,Nashville,,1463525533000.0,36.15,-86.86,Nigel ,TN,1463525533000.0,18266348
86432462,Nashville,,1427163067000.0,36.15,-86.86,Niki,TN,1427163067000.0,18266348
200691527,Nashville,,1471401417000.0,36.17,-86.78,Niki Eisgruber,TN,1506359992000.0,18266348
201760041,Columbia,"Buffalo, NY",1458343349000.0,35.61,-87.05,Nikki,TN,1458343349000.0,18266348
197457429,Nashville,,1492213497000.0,36.11,-86.78,Nina,TN,1492213497000.0,18266348
209666213,Nashville,,1469369325000.0,36.09,-86.82,Nkechi ,TN,1469369325000.0,18266348
221727351,Madison,,1486668358000.0,36.26,-86.71,Nora Harris,TN,1486668358000.0,18266348
190416835,Hendersonville,,1437865559000.0,36.32,-86.61,Olga Mamaychuk,TN,1437865559000.0,18266348
208776523,Nashville,,1468201195000.0,36.17,-86.78,Olivia,TN,1468201195000.0,18266348
234168251,Franklin,,1502888375000.0,35.93,-86.81,Olivia Oetjens,TN,1502888375000.0,18266348
194405110,Finger,,1445396480000.0,35.32,-88.6,Oren Martin,TN,1445396480000.0,18266348
203235606,Franklin,,1460494207000.0,35.92,-86.89,Pam,TN,1460494207000.0,18266348
200808812,Nashville,,1456975382000.0,36.08,-86.72,Pamela,TN,1456975382000.0,18266348
163290002,Nashville,,1434873435000.0,36.17,-86.79,Pat Bridges,TN,1443373940000.0,18266348
192127486,Paducah,,1441144050000.0,37.04,-88.71,Patricia Ann Gibson,KY,1441144050000.0,18266348
76695072,Nashville,,1458501573000.0,36.06,-86.7,Patrick,TN,1463955295000.0,18266348
208886759,Nashville,,1468341362000.0,36.17,-86.78,Patrick,TN,1468341362000.0,18266348
205095793,Nashville,,1463184062000.0,36.08,-86.72,Patrick Duteau,TN,1463184062000.0,18266348
222142396,Columbia,,1487246625000.0,35.61,-87.05,Paula Bean,TN,1487246625000.0,18266348
205309195,Cottontown,,1463458767000.0,36.49,-86.59,Peg,TN,1463458767000.0,18266348
188356233,Paducah,,1433733826000.0,37.04,-88.71,Peggy Henderson Allgood,KY,1446306374000.0,18266348
207221919,Hermitage,,1466080136000.0,36.19,-86.6,Perry Dunkling,TN,1466135034000.0,18266348
193804901,Goodlettsville,"Nashville, TN ",1444282960000.0,36.33,-86.74,Peyton Campbell,TN,1444282960000.0,18266348
230010671,Nashville,,1497883859000.0,36.17,-86.78,Philip Van Reeth,TN,1497883859000.0,18266348
205607547,Nashville,,1463868145000.0,36.13,-86.8,Portia,TN,1463868145000.0,18266348
195153985,Brentwood,,1450824315000.0,36.0,-86.79,Preeti,TN,1473833752000.0,18266348
189227879,Arrington,,,36.18,-86.73,,TN,,18266348
211970626,Smyrna,,1472577791000.0,35.97,-86.51,Primm,TN,1472577791000.0,18266348
191620251,Nashville,,1440172207000.0,36.17,-86.79,Purnima Bansal,TN,1440172207000.0,18266348
208120712,Spring Hill,,1467316644000.0,35.76,-86.88,R,TN,1467316644000.0,18266348
213197220,Nashville,,1474213260000.0,36.17,-86.72,Rach Marie,TN,1474213260000.0,18266348
221905615,Nashville,,1486924799000.0,36.17,-86.78,Rachel,TN,1487345403000.0,18266348
210023642,Nashville,,1469835581000.0,36.18,-86.81,Rachel,TN,1469835581000.0,18266348
199269068,Nashville,"Chattanooga, TN",1454784694000.0,36.17,-86.78,Rachel Dorsey,TN,1461874454000.0,18266348
207545249,Cleveland,,1466527579000.0,35.16,-84.88,Rachel Frey,TN,1466527579000.0,18266348
229015643,Nashville,,1496607849000.0,36.17,-86.78,Rachel J,TN,1496607849000.0,18266348
185617813,Hendersonville,,1427514709000.0,36.32,-86.61,Rachel Lin ,TN,1446310401000.0,18266348
220525339,Nashville,,1485160363000.0,36.17,-86.78,Rachel Manssur,TN,1485160363000.0,18266348
212508611,Nashville,,1473300609000.0,36.13,-86.8,Rachel Raykov,TN,1473300609000.0,18266348
202113357,Nashville,,1458865202000.0,36.08,-86.72,Rachel S,TN,1458865202000.0,18266348
199752440,Nashville,,1455507637000.0,36.08,-86.72,Rachel Stowe Scarsi G,TN,1455507637000.0,18266348
226635416,Nashville,,1493493196000.0,36.06,-86.96,rafiq,TN,1493493196000.0,18266348
193283929,Brentwood,,1443305621000.0,36.0,-86.79,Rajiv Wadhwa,TN,1443305621000.0,18266348
190498833,Antioch,,1438011494000.0,36.04,-86.64,Rakel Hankins,TN,1438011494000.0,18266348
13723774,Hermitage,,1455585791000.0,36.19,-86.6,Ramona Wattenbarger,TN,1455585791000.0,18266348
78741522,Brentwood,"Glendale, California",1459954593000.0,36.0,-86.79,Randy Tashjian,TN,1459954593000.0,18266348
198738604,Nashville,,1453946539000.0,36.17,-86.78,Raquel ,TN,1453946539000.0,18266348
214079627,Nashville,,1475289813000.0,36.17,-86.72,Ray W,TN,1475289813000.0,18266348
209165872,Clarksville,,1468712284000.0,36.53,-87.35,Ray Watkins,TN,1468734083000.0,18266348
203792480,Nashville,,1461291054000.0,36.17,-86.78,Reanne Emily Christine,TN,1479820988000.0,18266348
158122672,Nashville,,1424409309000.0,36.1,-86.66,Rebecca,TN,1424409309000.0,18266348
185010910,Nashville,,1435665072000.0,36.16,-86.79,Rebecca Hodges,TN,1435665072000.0,18266348
196862572,Greenbrier,,1450130351000.0,36.43,-86.8,Rebecca Ultsch,TN,1450130351000.0,18266348
210005463,Nashville,,1469813789000.0,36.17,-86.78,Rene',TN,1469813789000.0,18266348
209065530,Nashville,,1468577831000.0,36.07,-86.73,Rese Clark,TN,1468577831000.0,18266348
187634790,Franklin,,1432472647000.0,35.92,-86.87,Rhonda,TN,1432472647000.0,18266348
184177885,Nashville,,1423108209000.0,36.17,-86.78,Rhonda Botros,TN,1423721813000.0,18266348
186213584,Manchester,,1429134856000.0,35.47,-86.11,Rhonda Sweatland,TN,1429134856000.0,18266348
224686397,Murfreesboro,,1490802538000.0,35.82,-86.45,Ri Ri,TN,1490802538000.0,18266348
218435645,Smyrna,,1482202084000.0,35.97,-86.51,Richard Jones,TN,1483273384000.0,18266348
5856456,Nashville,New York,1419697142000.0,36.08,-86.72,Richard Pelych,TN,1499286007000.0,18266348
189248546,Spring Hill,,1435549955000.0,35.76,-86.88,Rick Cardarella ,TN,1435549955000.0,18266348
190513425,Nashville,,1438031123000.0,36.1,-86.66,Rick Heiman,TN,1458676278000.0,18266348
196386513,Dickson,,1449158638000.0,36.08,-87.43,Rilee Baker,TN,1478364652000.0,18266348
193333209,Mount Juliet,,1443398793000.0,36.22,-86.52,rita blake,TN,1443398793000.0,18266348
58553252,Paris,"Paris, TN",1458530542000.0,36.3,-88.31,River Byrd,TN,1472936397000.0,18266348
170200122,Nashville,,1432349765000.0,36.15,-86.79,RIVER JORDAN,TN,1448118809000.0,18266348
184147158,Franklin,,1432945345000.0,35.92,-86.89,rivka,TN,1454108330000.0,18266348
222721189,Nashville,,1488051926000.0,36.21,-86.72,RLB,TN,1488051926000.0,18266348
185104747,Milwaukee,,1425935456000.0,43.04,-87.92,Robbie Maris,WI,1425935456000.0,18266348
32441542,Nashville,"Bellevue, TN",1486527891000.0,36.06,-86.96,Robert,TN,1486527891000.0,18266348
200714647,Clarksville,,1456845881000.0,36.53,-87.35,Robert Sample,TN,1456845881000.0,18266348
196315945,Franklin,Brentwood,1449013700000.0,35.92,-86.89,Robert Xeno,TN,1463946595000.0,18266348
222120480,Nashville,,1487210393000.0,36.18,-86.74,Robin Guest,TN,1487210393000.0,18266348
200664765,Nashville,,1456771500000.0,36.17,-86.78,Robin H Haynes,TN,1456771500000.0,18266348
187243102,Nashville,,1436772211000.0,36.17,-86.78,Ronald Joseph Durastanti,TN,1436772211000.0,18266348
219495961,Clarksville,,1483859705000.0,36.53,-87.35,Ronis Gutierrez,TN,1483859705000.0,18266348
185900743,Antioch,,1428343965000.0,36.04,-86.64,Ronisha ,TN,1428618377000.0,18266348
211610268,Lynchburg,,1472162487000.0,35.26,-86.38,Ronnie Hornbuckle,TN,1472162487000.0,18266348
189534266,Nashville,,1436582562000.0,36.06,-86.96,Rosemarie,TN,1436582562000.0,18266348
192386176,Goodlettsville,,1441638238000.0,36.32,-86.72,Rosemary,TN,1441638238000.0,18266348
186494272,Hendersonville,Nashville,1429805602000.0,36.32,-86.61,Ruby Barnes,TN,1429805602000.0,18266348
183621154,Smyrna,,1421386271000.0,35.97,-86.51,Russell Church,TN,1421386271000.0,18266348
215001607,Nashville,,1476565066000.0,36.06,-86.96,Rylie ,TN,1477085145000.0,18266348
216911431,Nashville,,1479507417000.0,36.17,-86.78,"Ryon ""RJ"" Brantley",TN,1483101791000.0,18266348
191146019,Brentwood,,1439239660000.0,36.0,-86.79,Sabrina Hall Hampton,TN,1439239660000.0,18266348
219740784,Nashville,,1484164628000.0,36.15,-86.79,Sade,TN,1484164628000.0,18266348
225769272,Nashville,,1492329788000.0,36.15,-86.86,Saeed Alzahrani,TN,1492329788000.0,18266348
166082312,Nashville,Franklin,1453328959000.0,36.13,-86.86,Sagar,TN,1466189462000.0,18266348
203951302,Nashville,,1461529107000.0,36.08,-86.72,Sally,TN,1461529107000.0,18266348
217682203,Nashville,,1480833176000.0,36.17,-86.78,Sam,TN,1480833176000.0,18266348
198531444,Nashville,,1453591240000.0,36.08,-86.72,Sam,TN,1453591240000.0,18266348
237597847,Nashville,,1507036623000.0,36.17,-86.78,Samantha,TN,1507124805000.0,18266348
191684415,Clarksville,,1440292841000.0,36.53,-87.35,Samantha Bridenbaker,TN,1440292841000.0,18266348
101681352,Nashville,,1451674399000.0,36.17,-86.78,Samantha Chester,TN,1451674399000.0,18266348
147225562,Thompsons Station,,1501282812000.0,35.8,-86.9,Samantha Lacheta,TN,1501282812000.0,18266348
186540471,Nashville,,1429908430000.0,36.16,-86.79,Samantha Zard,TN,1429908430000.0,18266348
186529443,Antioch,,1429890579000.0,36.04,-86.64,Samarra,TN,1464298988000.0,18266348
63382422,Knoxville,,1478356080000.0,36.03,-83.89,Samir Harb,TN,1478356080000.0,18266348
212305931,Hendersonville,,,36.32,-86.61,,TN,,18266348
190863597,Antioch,Brentwood,1438684583000.0,36.04,-86.64,Sandra,TN,1438684583000.0,18266348
199823969,Nashville,,1455601721000.0,36.17,-86.78,Sandra,TN,1455601721000.0,18266348
219984145,Nashville,,1484487959000.0,36.06,-86.96,Sandy,TN,1484487959000.0,18266348
184816149,Mount Juliet,,1425097915000.0,36.22,-86.52,Sandy M,TN,1462020617000.0,18266348
220880732,Fairview,,1485611926000.0,35.97,-87.13,Sara,TN,1485611926000.0,18266348
231304292,Nashville,,1499457791000.0,36.17,-86.78,Sara Stewart,TN,1499457791000.0,18266348
188565577,Brentwood,,1434150861000.0,36.0,-86.79,Sarah,TN,1434150861000.0,18266348
200295695,Madison,,1473803188000.0,36.26,-86.71,Sarah ,TN,1473803188000.0,18266348
197725882,Brentwood,,1452108106000.0,36.0,-86.79,Sarah,TN,1452108106000.0,18266348
207257900,Nashville,,1466277303000.0,36.17,-86.72,Sarah Campbell,TN,1466277303000.0,18266348
187804012,Franklin,,1432612985000.0,35.92,-86.89,Sarah Cookley,TN,1434322795000.0,18266348
231809999,Nashville,,1500042669000.0,36.11,-86.86,Sarah Gilliam,TN,1500042669000.0,18266348
189223714,Nashville,,1435507042000.0,36.06,-86.96,Sarah Hagood,TN,1435507042000.0,18266348
201163225,Hendersonville,,1457489598000.0,36.32,-86.61,Sarah Jackson,TN,1457489598000.0,18266348
198412968,Nashville,,1453369054000.0,36.06,-86.96,Sarah Martinez,TN,1453369054000.0,18266348
205257465,Franklin,,1463400428000.0,35.92,-86.89,Sarah Sisk,TN,1463400428000.0,18266348
197743064,Nashville,,1452135402000.0,36.17,-86.78,Sasha,TN,1452135402000.0,18266348
232037404,Nashville,,1500324240000.0,36.16,-86.79,Saydi Miller,TN,1500324240000.0,18266348
182763579,Nashville,,1465260934000.0,36.13,-86.8,Sb,TN,1474028374000.0,18266348
218513858,Nashville,,1490978818000.0,36.17,-86.78,Schan,TN,1491315071000.0,18266348
204969213,Hendersonville,,1463005849000.0,36.32,-86.61,Scott Jewett,TN,1463005849000.0,18266348
212214885,Murfreesboro,,1472920649000.0,35.82,-86.45,Sean MacDonald,TN,1472920649000.0,18266348
193330722,Nashville,,1443394698000.0,36.16,-86.79,Sean Wilkinson,TN,1443394698000.0,18266348
193791049,Nashville,,1444267558000.0,36.13,-86.8,Sebastian,TN,1444267558000.0,18266348
227319193,Clarksville,,1494428242000.0,36.56,-87.41,Selah Ochoa,TN,1494428242000.0,18266348
9003361,Franklin,,1455669401000.0,35.93,-86.81,seppy NYANG'ORO,TN,1455669401000.0,18266348
220890118,Nashville,,1485622796000.0,36.11,-86.86,Shaan Kumar,TN,1485622796000.0,18266348
204803968,Brisbane,,1475530199000.0,-27.46,153.02,Shain,,1475530199000.0,18266348
192201148,Madison,,1441284200000.0,36.26,-86.71,Shanice Offutt,TN,1441284200000.0,18266348
188272613,Washington Navy Yard,,1433555872000.0,38.83,-77.02,Shanika,DC,1433555872000.0,18266348
211260412,Murfreesboro,,1471591303000.0,35.78,-86.33,Shannon,TN,1471591303000.0,18266348
75672262,Nashville,,1431625446000.0,36.08,-86.93,Shannon Kerr,TN,1431625446000.0,18266348
233609822,Nashville,,1502236014000.0,36.17,-86.78,Shannon Stuart,TN,1502236014000.0,18266348
209467205,Columbia,,1469529045000.0,35.61,-87.05,Sharon P.,TN,1469620386000.0,18266348
200870271,Nashville,,1457069964000.0,36.11,-86.86,sharon pomeroy,TN,1457069964000.0,18266348
208084368,Fort Campbell,,1467260268000.0,36.65,-87.46,Shauna Wedderburn,KY,1467260268000.0,18266348
197866275,Cordova,,1452365323000.0,35.14,-89.76,Shavonda,TN,1452365323000.0,18266348
3448461,Nashville,nashville,1421889691000.0,36.17,-86.78,Shawn,TN,1445192643000.0,18266348
194498882,Nashville,,1445570307000.0,36.17,-86.78,Shawn Strain,TN,1445570307000.0,18266348
212863673,Nashville,,1473775853000.0,36.17,-86.78,Shawna Bellew,TN,1475537940000.0,18266348
205921919,Franklin,,1464384465000.0,35.92,-86.89,Shawnda,TN,1464384465000.0,18266348
185309052,Franklin,,1426553586000.0,35.92,-86.89,Shawnda Tiernan,TN,1485919098000.0,18266348
12086000,Smyrna,Smyrna,1419697269000.0,35.97,-86.51,Shea n Wayne Miller,TN,1466855531000.0,18266348
212094707,Nashville,,1472749586000.0,36.15,-86.86,Shea Wages,TN,1472749586000.0,18266348
84227122,Clarksville,,1492974144000.0,36.53,-87.35,Sheba,TN,1493379420000.0,18266348
208175881,Nashville,,1495029667000.0,36.17,-86.78,Sheila J,TN,1495029667000.0,18266348
232003395,Springfield,,1500286283000.0,36.52,-86.87,Sheila Nichole Olson,TN,1500286283000.0,18266348
231083258,Nashville,,1499182580000.0,36.17,-86.72,Shekinah Christian,TN,1499182580000.0,18266348
151199082,Nashville,,1496679381000.0,36.17,-86.78,Shelby,TN,1496679381000.0,18266348
210735674,Hermitage,,1470846996000.0,36.19,-86.6,Shelby Buttrey,TN,1470931396000.0,18266348
199343071,Nashville,,1454901066000.0,36.08,-86.72,Shelley,TN,1454901066000.0,18266348
209369024,Clarksville,,1468965552000.0,36.56,-87.41,Shelli Marie,TN,1468965552000.0,18266348
72948292,Franklin,Nebraska,1419858676000.0,35.92,-86.89,Sheri Spell Stage Hypnotist,TN,1466684544000.0,18266348
209479582,Nashville,,1469116007000.0,36.17,-86.78,Sherrïe Hartley,TN,1469116007000.0,18266348
211119354,Franklin,,1471385217000.0,35.92,-86.89,Sherry Travis,TN,1473823412000.0,18266348
196075172,Nashville,,1448506919000.0,36.09,-86.82,Shirley,TN,1448506919000.0,18266348
208960480,Lynnville,,1468436252000.0,35.39,-87.0,shravya kyatham,TN,1468436252000.0,18266348
206865240,Antioch,,1466128549000.0,36.17,-86.88,shweta ,TN,1466128549000.0,18266348
183865809,Nashville,,1422114919000.0,36.07,-86.73,Signature,TN,1422940392000.0,18266348
219985470,Thompsons Station,,1484489403000.0,35.8,-86.9,Simone,TN,1484489403000.0,18266348
201945032,Nashville,,1458604906000.0,36.06,-86.96,sonia ramirez,TN,1458604906000.0,18266348
224261964,Nashville,,1490212780000.0,36.07,-86.73,Sonya Brothers Harner,TN,1490212780000.0,18266348
206550098,Nashville,,1465177589000.0,36.08,-86.72,Sonya Petway,TN,1465177589000.0,18266348
210447456,Columbia,,1470429468000.0,35.61,-87.05,Sonya White,TN,1470429468000.0,18266348
199213783,Bumpus Mills,,1454695492000.0,36.66,-87.83,SS,TN,1454695492000.0,18266348
134117392,Nashville,Nashville,1436803877000.0,36.14,-86.74,Stacey,TN,1436803877000.0,18266348
204063495,Nashville,,1461686710000.0,36.06,-86.96,Stacey Thompson,TN,1461686710000.0,18266348
209426592,Nashville,,1469042564000.0,36.17,-86.78,Stefani Leigh,TN,1469042564000.0,18266348
184839910,Franklin,,1425256769000.0,35.99,-86.9,Stephanie,TN,1452523888000.0,18266348
209950408,Smyrna,,1469733841000.0,35.97,-86.51,Stephanie,TN,1469733841000.0,18266348
189525207,Franklin,,1436137908000.0,35.93,-86.81,Steve Frantz ,TN,1436137908000.0,18266348
208858954,Mount Juliet,,1468301566000.0,36.21,-86.52,Steve Green,TN,1468301566000.0,18266348
198453187,Franklin,,1453438104000.0,35.92,-86.89,Steve S.,TN,1453438104000.0,18266348
206678746,Nashville,,1465339888000.0,36.17,-86.78,Steve Vining,TN,1465339888000.0,18266348
187517112,Nashville,,1432045500000.0,36.18,-86.74,Steven Mathew,TN,1432045500000.0,18266348
210733719,Nashville,,1470834042000.0,36.18,-86.74,Steven Mathew,TN,1470834042000.0,18266348
224977448,Nashville,,1491223319000.0,36.17,-86.78,steven mccaig,TN,1491223319000.0,18266348
221725052,Nashville,,1486665915000.0,36.21,-86.72,Steven Woodson,TN,1486665915000.0,18266348
197496886,Goodlettsville,,1451681240000.0,36.33,-86.74,Stevie ,TN,1451681240000.0,18266348
210271633,Nashville,,1470170496000.0,36.17,-86.78,Sue,TN,1470170496000.0,18266348
9495593,Nashville,,1419698541000.0,36.17,-86.78,Sue Kauflie,TN,1419698541000.0,18266348
204472706,Nashville,,1462290552000.0,36.06,-86.96,Summer Thielebeule,TN,1462290552000.0,18266348
188049080,Nashville,,1433109139000.0,36.06,-86.96,Susan,TN,1433109139000.0,18266348
206170876,Nashville,,1464659331000.0,36.17,-86.78,Susan,TN,1464659331000.0,18266348
185915186,Nashville,,1428370248000.0,36.06,-86.96,Susan,TN,1486601853000.0,18266348
185950748,Nashville,,1428458333000.0,36.15,-86.86,Susan,TN,1428458333000.0,18266348
198049960,Mount Juliet,,1452701754000.0,36.22,-86.52,Susan Meador,TN,1464017094000.0,18266348
9111594,Nashville,,1419731852000.0,36.16,-86.79,susan n.,TN,1424135692000.0,18266348
8698539,Brentwood,,1424059902000.0,36.0,-86.79,Susan Schaefer,TN,1424114874000.0,18266348
200601965,Franklin,,1458138463000.0,35.92,-86.89,Sylvia,TN,1458324631000.0,18266348
106423822,Nashville,,1469488309000.0,36.11,-86.86,Sylvia Birriel,TN,1469488309000.0,18266348
184586540,Nashville,,1424398388000.0,36.15,-86.86,T,TN,1424398388000.0,18266348
199623689,Nashville,,1455324516000.0,36.15,-86.86,Tamara C,TN,1455324516000.0,18266348
195728547,Nashville,,1447830028000.0,36.11,-86.86,Tamara Lankford,TN,1447830028000.0,18266348
199854245,Nashville,,1455651161000.0,36.17,-86.72,Tamarcus Summers,TN,1472387313000.0,18266348
208312509,Nashville,,1467587168000.0,36.07,-86.73,Tammie G. Stephens-Blades,TN,1467587168000.0,18266348
199474376,Nashville,,1455101350000.0,36.06,-86.96,Tamra Rainey,TN,1455101350000.0,18266348
208960761,Nashville,,1468436589000.0,36.18,-86.81,Tanoa Maddox,TN,1468436589000.0,18266348
187185135,Antioch,,1431346592000.0,36.17,-86.88,TANYA RADIC ,TN,1435448708000.0,18266348
225305550,Franklin,,1491691208000.0,35.93,-86.84,Tara,TN,1491691208000.0,18266348
183410648,Antioch,,1420690146000.0,36.04,-86.64,Tara,TN,1420690146000.0,18266348
206239411,Nashville,,1464750466000.0,36.17,-86.72,Tara H,TN,1464750466000.0,18266348
185713569,Franklin,,1427811664000.0,35.9,-86.96,Tara L.,TN,1427995351000.0,18266348
11968728,Nashville,,1471407667000.0,36.17,-86.72,Tara M Allen,TN,1471407667000.0,18266348
13612849,Brentwood,Nashville,1452209071000.0,36.0,-86.79,Tara Volpintesta,TN,1456484982000.0,18266348
213768028,Oak Grove,,1474935813000.0,36.68,-87.45,Tarshena Rodriguez,KY,1474935813000.0,18266348
199797915,Madison,,1455571954000.0,36.26,-86.71,Tasha Avery,TN,1455571954000.0,18266348
227861075,Nashville,,1496241699000.0,36.08,-86.72,Taylor M.,TN,1496241699000.0,18266348
214926015,Nashville,,1476458056000.0,36.15,-86.81,Taylor Mackenzie Wylie,TN,1476458056000.0,18266348
210328759,Spartanburg,,1470252819000.0,34.93,-81.97,Taylor Reisz,SC,1470252819000.0,18266348
184987519,Old Hickory,,1425588276000.0,36.25,-86.63,Taylor Vines,TN,1425588276000.0,18266348
211861206,Nashville,,1472430042000.0,36.11,-86.86,Teal,TN,1472430042000.0,18266348
185564877,Nashville,,1427338344000.0,36.06,-86.96,Tee,TN,1432155985000.0,18266348
10222331,Clarksville,"Champaign, IL",1452470578000.0,36.56,-87.41,Teena,TN,1452648254000.0,18266348
213598448,Clarksville,,1474726596000.0,36.56,-87.41,Tehee Titus,TN,1474726596000.0,18266348
207856189,Nashville,,1466962356000.0,36.17,-86.78,Teka,TN,1466962356000.0,18266348
192966645,Mount Juliet,,1442708937000.0,36.22,-86.52,Teresa Lawson,TN,1508708864000.0,18266348
218888359,Nashville,,1483077018000.0,36.15,-86.86,Terrell Pinkerton,TN,1483077018000.0,18266348
172076802,Franklin,,1419795995000.0,35.92,-86.89,Terri,TN,1503307005000.0,18266348
185042490,Nashville,,1425756647000.0,36.08,-86.72,Terri Carter,TN,1425756647000.0,18266348
200265366,Nashville,,1456233663000.0,36.06,-86.96,Terry Oh,TN,1456233663000.0,18266348
191544679,Antioch,,1440017896000.0,36.04,-86.64,Teshelle Edwards,TN,1440017896000.0,18266348
203159893,Hendersonville,,1460395680000.0,36.32,-86.61,Thanyia,TN,1460395680000.0,18266348
192235411,Nashville,,1441342850000.0,36.06,-86.96,The,TN,1441342850000.0,18266348
227806705,Franklin,,1495071181000.0,35.99,-86.9,Theodore Brittan,TN,1495071181000.0,18266348
5579198,Nashville,Redmond,1419901352000.0,36.17,-86.78,Theresa,TN,1492465307000.0,18266348
208808900,Franklin,,1468256496000.0,35.92,-86.89,Theresa S,TN,1468256496000.0,18266348
125035192,Antioch,,1451056173000.0,36.17,-86.88,Therese Brumfield,TN,1451056173000.0,18266348
209128086,Franklin,,1468665575000.0,35.92,-86.89,Thibisay Ruiz ,TN,1468665575000.0,18266348
193874989,Nashville,,1465323480000.0,36.08,-86.72,Thomas Brown,TN,1465323480000.0,18266348
184504283,Murfreesboro,,1424145550000.0,35.78,-86.33,Tiffany,TN,1424486422000.0,18266348
190090752,Nashville,,1437251830000.0,36.16,-86.79,Tiffany Gifford,TN,1437251830000.0,18266348
33526942,Nashville,,1420210855000.0,36.16,-86.79,Tiffany Holland,TN,1420233013000.0,18266348
192397191,Brentwood,Brentwood,1441663167000.0,36.0,-86.79,Tiffany McKenna,TN,1484169666000.0,18266348
205173724,Nashville,"Arkansas City, AR",1463285288000.0,36.14,-86.74,Tim,TN,1464209738000.0,18266348
198470600,Franklin,,1453478816000.0,35.93,-86.81,Timothy,TN,1453478816000.0,18266348
192125889,Madison,,1441136856000.0,36.26,-86.71,TinaMarie Mirabelli,TN,1441136856000.0,18266348
108957382,Mount Juliet,,1453215406000.0,36.22,-86.52,Tinita,TN,1453215406000.0,18266348
14578863,Eagleville,,1421816943000.0,36.11,-86.78,Toby Lemley,TN,1421816943000.0,18266348
212023610,Nashville,,1472652161000.0,36.11,-86.86,Todd ,TN,1472652161000.0,18266348
73626592,Nashville,,1464525732000.0,36.11,-86.86,Tom Dillehay,TN,1472390205000.0,18266348
195890042,Auburntown,,1456669823000.0,35.99,-86.11,Tom Ganoe,TN,1503968410000.0,18266348
96569582,Nashville,,1471393107000.0,36.17,-86.79,Tonia ,TN,1471393107000.0,18266348
194094635,Nashville,Pittsburgh,1444826178000.0,36.17,-86.79,Tony D.,TN,1477485493000.0,18266348
191946508,Murfreesboro,,1440790431000.0,35.78,-86.33,Tonya,TN,1443038633000.0,18266348
197457396,Murfreesboro,Murfreesboro,1451584792000.0,35.87,-86.44,Tonya Crout,TN,1451584792000.0,18266348
226826586,Nashville,,1493752055000.0,36.16,-86.79,Tori Dickerson,TN,1493752055000.0,18266348
225935828,Nashville,,1492553499000.0,36.07,-86.73,Tori Shaw,TN,1492553499000.0,18266348
203899072,Greenbrier,Greenbrier,1461454213000.0,36.43,-86.8,Torstein Nevels,TN,1464113014000.0,18266348
4510789,Nashville,Orlando,1421109747000.0,36.08,-86.72,toy spears,TN,1421109747000.0,18266348
201712008,Nashville,,1458270352000.0,36.16,-86.79,Tracy,TN,1458270352000.0,18266348
203720909,Nashville,,1461186327000.0,36.08,-86.72,Tracy,TN,1461186327000.0,18266348
229141597,Nashville,Franklin,1496758135000.0,36.06,-86.96,Tracy Homier,TN,1496758135000.0,18266348
206600369,Murfreesboro,,1465245658000.0,35.82,-86.45,Tramp,TN,1466258457000.0,18266348
210657744,Clarksville,,1497667196000.0,36.56,-87.41,Trever Webb,TN,1497667196000.0,18266348
216239348,Nashville,,1478450190000.0,36.17,-86.78,Trey Herrington,TN,1478450190000.0,18266348
111857512,Nashville,,1471110065000.0,36.09,-86.82,Tricia Reynolds,TN,1471110065000.0,18266348
183441535,Nashville,,1420793156000.0,36.06,-86.96,Tushar K,TN,1423203481000.0,18266348
205767783,Nashville,,1469314508000.0,36.17,-86.78,Ty,TN,1469314508000.0,18266348
232066637,Nashville,,1500357969000.0,36.13,-86.67,Ty Willis,TN,1500357969000.0,18266348
200696829,Antioch,,1456810930000.0,36.04,-86.64,Tyler Carter,TN,1456810930000.0,18266348
204914690,Franklin,"Port Washington, NY",1462927177000.0,35.93,-86.81,Tyler Simeone,TN,1462927177000.0,18266348
218643774,Murfreesboro,,1482638230000.0,35.78,-86.33,Uleni,TN,1482638230000.0,18266348
191616123,Manchester,,1440163766000.0,35.47,-86.11,Ursula Sunquist,TN,1442430345000.0,18266348
215546199,Nashville,,1477366831000.0,36.17,-86.78,Vaibhav Srivastava,TN,1500153651000.0,18266348
187128851,Murfreesboro,,1431211977000.0,35.87,-86.34,Valerie Q ,TN,1431211977000.0,18266348
207446760,Franklin,,1466396012000.0,35.92,-86.89,Vanessa Huaracha,TN,1466396012000.0,18266348
193657201,Murfreesboro,,1444013864000.0,35.87,-86.34,Vanessa Leithoff,TN,1444013864000.0,18266348
235368725,Mount Juliet,,1506995024000.0,36.21,-86.52,Vanessa Niu,TN,1506995024000.0,18266348
198779157,Nashville,,1454014289000.0,36.15,-86.86,Vedanth,TN,1454014289000.0,18266348
212988199,Franklin,,1473938710000.0,35.93,-86.81,Velvet Buinicky Bechard,TN,1473938710000.0,18266348
199534885,Columbia,,1455194114000.0,35.61,-87.05,Vicky Bassett,TN,1455194114000.0,18266348
112579542,Nashville,Nashville ,1487868694000.0,36.15,-86.86,Victoria ,TN,1487868694000.0,18266348
71038612,Bowling Green,,1479700233000.0,37.02,-86.46,victoria,KY,1483881563000.0,18266348
188018649,Clarksville,,1473221049000.0,36.53,-87.35,Victoria,TN,1473221049000.0,18266348
213918593,Dickson,,1475121517000.0,36.08,-87.38,Victoria Hupp,TN,1475121517000.0,18266348
187304631,Nashville,,1431584264000.0,36.17,-86.78,Victoria Shaputis,TN,1431584264000.0,18266348
215050917,Nashville,,1476641876000.0,36.11,-86.78,Vincenzeno,TN,1476641876000.0,18266348
194180707,Franklin,,1444982555000.0,35.94,-86.83,Vinny,TN,1466256572000.0,18266348
8047435,Nashville,,1425954807000.0,36.17,-86.78,Violet,TN,1432069264000.0,18266348
209717900,Cleveland,Cleveland,1469427636000.0,41.48,-81.69,Violet,OH,1469427636000.0,18266348
31314532,Knoxville,Knoxville,1436208926000.0,35.92,-84.1,Viren Lalka,TN,1483673262000.0,18266348
188379764,Hermitage,,1433782946000.0,36.19,-86.6,Wade Bilbrey,TN,1467139427000.0,18266348
187000480,Nashville,,1430925730000.0,36.18,-86.74,WadeS,TN,1430925730000.0,18266348
205054284,Nashville,,1463127683000.0,36.11,-86.86,Waleed Aljohani,TN,1463127683000.0,18266348
205473368,Gainesville,,1463678323000.0,29.65,-82.34,Wes Davis,FL,1463678323000.0,18266348
190308354,Rochester,Rochester,1437670621000.0,44.01,-92.42,Will Gruenert,MN,1437670621000.0,18266348
206151943,Nashville,,1464637995000.0,36.16,-86.79,Will Miller,TN,1464637995000.0,18266348
189531449,Clarksville,,1436148518000.0,36.56,-87.41,Yara Loua,TN,1436148518000.0,18266348
229702960,Nashville,,1497458519000.0,36.18,-86.74,Yevette Smith-Hill,TN,1497458519000.0,18266348
216943669,Clarksville,,1479564161000.0,36.56,-87.41,York Peters,TN,1479564161000.0,18266348
210866896,Nashville,,1471027277000.0,36.11,-86.78,Yuchen Han,TN,1471027277000.0,18266348
205816960,Nashville,,1464148212000.0,36.16,-86.79,Yulia Romanchuk,TN,1475539261000.0,18266348
219275333,Nashville,,1483575370000.0,36.15,-86.86,Yusuf Gürbüz,TN,1483575370000.0,18266348
198440788,Nashville,,1453417236000.0,36.18,-86.74,Zach Gilliam,TN,1453417236000.0,18266348
209099058,Nashville,,1468621312000.0,36.07,-86.73,Zach Glendening,TN,1468621312000.0,18266348
192549128,Hermitage,,1441925825000.0,36.19,-86.6,Zack Clevenger,TN,1442601715000.0,18266348
17686511,Nashville,,1470240264000.0,36.14,-86.74,Zack Register,TN,1470240264000.0,18266348
197771528,Nashville,,1452192172000.0,36.17,-86.78,Zack Williams,TN,1498182523000.0,18266348
67118862,Madison,,1497382293000.0,36.26,-86.71,Zu Beri,TN,1497382293000.0,18266348
211871855,Smyrna,,1472443721000.0,35.97,-86.51,Zuly,TN,1472443721000.0,18266348
