id,city,hometown,joined,lat,lon,name,state,visited,group_id
197981784,Nashville,,1453326068000,36.18,-86.74, Danielle Paulson,TN,1507295075000,18314164
189828477,Austin,,1436732078000,30.22,-97.7,Abdul W Behzad,TX,1477759043000,18314164
198899767,Nashville,,1454203513000,36.07,-86.73,Abhishek Khanal,TN,1454203513000,18314164
183979562,Hendersonville,,1447779764000,36.32,-86.61,Adam,TN,1478285168000,18314164
231084443,Nashville,,1499183749000,36.15,-86.86,Adam Intihar,TN,1499183749000,18314164
206718012,Hendersonville,,1505409007000,36.32,-86.61,Adam McDonald,TN,1505409007000,18314164
222934157,Nashville,,1503811448000,36.17,-86.78,Adamw,TN,1506011805000,18314164
217217963,Nashville,,1480017436000,36.17,-86.78,Addisu Dereje,TN,1508726909000,18314164
206481851,Nashville,,1474436131000,36.17,-86.78,Adia Tigney,TN,1474436131000,18314164
234843128,Lebanon,,1503639671000,36.21,-86.29,Aisha Johnson,TN,1503639671000,18314164
218404116,Nashville,,1482146548000,36.17,-86.78,Akshay Reddy,TN,1482146548000,18314164
11872972,Nashville,,1471465308000,36.13,-86.8,Alan,TN,1496279977000,18314164
145291472,Nashville,,1429533490000,36.14,-86.74,Alan Byers,TN,1506566771000,18314164
2502912,Nashville,,1467122223000,36.17,-86.78,alan huffman,TN,1467122223000,18314164
223443864,Nashville,,1489076998000,36.17,-86.78,Alan Hutcheson,TN,1494534694000,18314164
184310562,Thompsons Station,,1423527684000,35.8,-86.9,Alan R.,TN,1477874592000,18314164
222769111,Nashville,,1488125598000,36.06,-86.96,Alan Woody Reeves,TN,1492994731000,18314164
190308805,Nashville,,1437671035000,36.11,-86.86,Alex Harwell,TN,1500324777000,18314164
13606604,Nashville,Nashville,1493098362000,36.17,-86.72,Alex Simonian,TN,1496087423000,18314164
224506741,Brentwood,,1495634504000,36.0,-86.79,Alexis Lombardo,TN,1506974968000,18314164
203310376,Nashville,,1460597203000,36.22,-86.77,Ali Hamsa,TN,1460597203000,18314164
190707374,Franklin,,1438391322000,35.92,-86.89,Ali Yousef Al-hendas,TN,1438391322000,18314164
200567954,Nashville,,1456633828000,36.17,-86.78,Allen Odvody,TN,1456633828000,18314164
205263795,Clarksville,,1463408392000,36.56,-87.41,Allie,TN,1463408392000,18314164
47185942,Franklin,Cincinnati,1476587357000,35.91,-86.88,Alok,TN,1477862757000,18314164
217955705,Gilbert,,1481910776000,33.26,-111.72,amanda perez,AZ,1481910776000,18314164
95442902,Milpitas,,1495467352000,37.44,-121.89,Amdeberhan,CA,1495736118000,18314164
118912512,Franklin,,1434379876000,35.92,-86.89,Amrit Nandrey,TN,1497286454000,18314164
156190822,Nashville,,1435782255000,36.17,-86.78,AmyofftheA,TN,1435782255000,18314164
204871578,Clarksville,,1462873647000,36.49,-87.23,AnaKatarina Lalonde,TN,1462873647000,18314164
216188920,Nashville,,1478369808000,36.17,-86.78,Anamika Mazumdar,TN,1478403586000,18314164
155195962,Nashville,,1495129758000,36.13,-86.8,Andrea,TN,1500924895000,18314164
196014675,Nashville,,1448384499000,36.18,-86.81,Andrew Bergeron,TN,1448932645000,18314164
183849912,Provo,,1478105587000,40.26,-111.62,Andrew Chaffin,UT,1483398107000,18314164
225900352,Nashville,,1492518232000,36.17,-86.78,Andrew Copley,TN,1493042535000,18314164
211212006,Goodlettsville,,1471523616000,36.32,-86.72,Andrew Fulton,TN,1471523616000,18314164
196542081,Thompsons Station,,1449470132000,35.8,-86.9,Andrew Granholm,TN,1462248398000,18314164
83732652,Nashville,,1502996964000,36.17,-86.78,Andrew Hutchinson,TN,1502996964000,18314164
199697698,Murfreesboro,,1492093981000,35.87,-86.34,Andria Terry,TN,1493158752000,18314164
229319103,Nashville,,1496972797000,36.17,-86.78,andy dsouza,TN,1496972797000,18314164
218015121,Nashville,,1481410954000,36.17,-86.78,Andy Merrick,TN,1481410954000,18314164
215679664,Nashville,,1477571292000,36.17,-86.78,Angela Couch,TN,1497880884000,18314164
13103635,Goodlettsville,,1446734363000,36.33,-86.74,Angi S,TN,1505242357000,18314164
13752843,Nashville,,1439031983000,36.17,-86.79,Angie Walk,TN,1439031983000,18314164
37609322,Brentwood,,1473907424000,36.0,-86.79,Anil Chitreddy,TN,1484344659000,18314164
195799113,Nashville,,1447964105000,36.15,-86.86,Anirban Bhattacharjee,TN,1447964105000,18314164
189926569,Hermitage,Nashville TN ,1490242461000,36.19,-86.6,Anita Walls,TN,1490242461000,18314164
10604590,Nashville,,1425577803000,36.15,-86.86,Ankur Patwa,TN,1451604390000,18314164
94743692,Nashville,Nashville,1455986536000,36.17,-86.72,Ann Embree,TN,1480699440000,18314164
218869837,Nashville,,1483050845000,36.17,-86.78,Ann Shafer,TN,1498617090000,18314164
197049553,Nashville,,1471140361000,36.17,-86.78,Anna Arthur,TN,1471140361000,18314164
222498565,Nashville,,1487735343000,36.08,-86.72,Annie Hallquist,TN,1487735343000,18314164
225990835,Nashville,,1492625672000,36.17,-86.78,Anthony Hancock,TN,1493142587000,18314164
193175438,Nashville,,1443098662000,36.17,-86.78,Anthony Juarez,TN,1443098662000,18314164
218806444,Nashville,,1483027325000,36.14,-86.74,April Shaffer,TN,1483027325000,18314164
220727583,Nashville,,1485401903000,36.17,-86.78,Ashanti,TN,1485401903000,18314164
204294527,Nashville,,1462034358000,36.17,-86.78,Ashish,TN,1462034358000,18314164
217825368,Nashville,Franklin,1486663206000,36.18,-86.81,Ashish Gauli,TN,1486680825000,18314164
236599301,Nashville,,1505757653000,36.15,-86.86,Ashley ,TN,1506605705000,18314164
225719614,Nashville,,1492253390000,36.17,-86.78,Ashley Kiel,TN,1492253390000,18314164
193361475,Antioch,"Lexington, KY",1443454034000,36.04,-86.64,Ashley Oldham,TN,1447552910000,18314164
229566961,Nashville,,1497287064000,36.17,-86.78,Atul Ohri,TN,1497888235000,18314164
186890127,Nashville,,1488979920000,36.07,-86.73,Austin,TN,1493395295000,18314164
183556593,Jacksonville,,1439211999000,30.19,-81.49,Austin Pleat,FL,1442850537000,18314164
186515056,Nashville,,1429846141000,36.16,-86.66,Beau,TN,1429846141000,18314164
217669549,Nashville,,1480809903000,36.17,-86.79,Becky Jackson,TN,1480809903000,18314164
217309361,Nashville,,1485045124000,36.17,-86.78,Ben Maxwell,TN,1507040269000,18314164
192351146,Nashville,,1441570552000,36.11,-86.78,Ben Muir,TN,1441570552000,18314164
219867361,Brentwood,,1488819332000,36.0,-86.79,Ben Murley,TN,1507065427000,18314164
222577643,Antioch,,1494993813000,36.04,-86.64,Benjamin Smith,TN,1496698961000,18314164
160179142,Nashville,,1457474023000,36.06,-86.96,Bhumi,TN,1461164853000,18314164
185378003,Nashville,,1426771885000,36.17,-86.78,Bibo feng,TN,1496738847000,18314164
202984148,Nashville,,1460214958000,36.08,-86.72,Bill Boswell,TN,1460214958000,18314164
183982522,Nashville,Nashville,1422480005000,36.06,-86.96,Bizzy Buffington,TN,1490115815000,18314164
184295846,Lebanon,,1423493572000,36.21,-86.31,BJ,TN,1423493572000,18314164
220757955,Nashville,,1485448303000,36.19,-86.8,Blake Denzel,TN,1485448303000,18314164
96752922,Franklin,Franklin,1434380454000,35.92,-86.89,Blake Smith,TN,1453866197000,18314164
9005384,Nashville,"Greensboro, NC",1421305523000,36.17,-86.78,Blake Urmos,TN,1495243972000,18314164
200303216,Spring Hill,Spring Hill,1456257750000,35.76,-86.88,BMShake,TN,1456257750000,18314164
188677209,Nashville,,1434384234000,36.17,-86.78,Bob Crissey,TN,1434384234000,18314164
186373336,Nashville,"Fredonia, KY",1429542385000,36.17,-86.78,Bob Phelps,TN,1495809778000,18314164
216494258,Nashville,,1482804736000,36.17,-86.78,boiaryntseva,TN,1482804736000,18314164
184295332,Nashville,,1423493022000,36.08,-86.72,Bonita Blue,TN,1423493022000,18314164
206722226,Nashville,,1465398549000,36.17,-86.78,Bonnie&Clyde,TN,1468619756000,18314164
97787512,Franklin,,1426709623000,35.93,-86.81,Boyd Tyrrell,TN,1493744594000,18314164
212617858,Nashville,,1473452465000,36.16,-86.79,Brad ,TN,1473452465000,18314164
188677095,Nashville,,1434383949000,36.17,-86.78,Brad Broh,TN,1438735509000,18314164
184105470,Nashville,,1434383842000,36.14,-86.74,Brad Broh,TN,1434383842000,18314164
227186695,Hermitage,,1494250600000,36.19,-86.6,Branden Butler,TN,1494250600000,18314164
170664062,Nashville,,1504918179000,36.17,-86.78,Brandon Clements,TN,1504918179000,18314164
62418442,Nashville,,1472221175000,36.16,-86.79,Brenda Dillard,TN,1472221175000,18314164
185546576,Nashville,,1427292217000,36.1,-86.66,Brent Malak,TN,1427292217000,18314164
223222316,Hendersonville,,1488765919000,36.3,-86.62,Brett Gower,TN,1488765919000,18314164
205398939,College Grove,,1463581292000,35.77,-86.71,Brett Patterson,TN,1463581292000,18314164
204406975,Nashville,,1462199506000,36.1,-86.66,Brian,TN,1462199506000,18314164
13652787,Antioch,,1456082341000,36.04,-86.64,Brian,TN,1463021322000,18314164
96862332,Hermitage,Knoxville,1455895549000,36.19,-86.6,Brian Douglas,TN,1493294956000,18314164
191499483,Nashville,,1439929835000,36.11,-86.86,Brian M. Shake,TN,1440020112000,18314164
195147917,Spring Hill,,1447194614000,35.76,-86.88,Brian P.,TN,1447194614000,18314164
22006841,Brentwood,San Antonio,1476889116000,36.0,-86.79,Brian Sprayberry,TN,1478786450000,18314164
186005970,Nashville,Nashville,1503335176000,36.18,-86.74,Brittain Brantley,TN,1503335176000,18314164
232872084,Nashville,,1501358529000,36.07,-86.73,Brooke,TN,1501358529000,18314164
13579455,Nashville,,1501856451000,36.16,-86.79,Bruce Beckley,TN,1501856451000,18314164
127214502,Smyrna,,1442408276000,35.97,-86.51,Bryan P Marlowe,TN,1483796219000,18314164
216141262,Columbia,,1478292383000,35.61,-87.05,Bryan Prince,TN,1478292383000,18314164
9390296,Nashville,Newtown,1495570984000,36.16,-86.79,C.C. Rubi,TN,1498074437000,18314164
187248512,Nashville,,1431468221000,36.13,-86.8,Caitlin,TN,1431468221000,18314164
198863047,College Park,,1454149171000,39.0,-76.93,Cal,MD,1456784340000,18314164
234074144,Nashville,,1502775488000,36.14,-86.74,Caleb Maurice Sprinkle,TN,1502775488000,18314164
230476808,Hermitage,,1498431260000,36.19,-86.6,Caleb Petty,TN,1498431260000,18314164
218500568,Nashville,,1482330941000,36.17,-86.78,Camden Dykes,TN,1482330941000,18314164
212300031,Gallatin,,1473032230000,36.39,-86.45,Cande,TN,1473032230000,18314164
189069167,Brentwood,,1436619239000,36.0,-86.79,Candra,TN,1447971498000,18314164
9974993,Brentwood,Hallandale,1492141332000,36.0,-86.79,Candy,TN,1506220029000,18314164
209970904,Nashville,,1469759581000,36.15,-86.86,Cara,TN,1469759581000,18314164
103063952,Nashville,,1426914631000,36.17,-86.78,Carlos,TN,1484871337000,18314164
213753582,Nashville,,1475192220000,36.06,-86.96,Carlos Alvarez,TN,1475192220000,18314164
228364052,Clarksville,,1495765571000,36.56,-87.35,Carmine Richie,TN,1506560311000,18314164
155529942,Bowling Green,,1458591536000,37.02,-86.46,Carson White,KY,1458591536000,18314164
192193130,Nashville,Nashville,1441261723000,36.08,-86.72,Casey,TN,1460397121000,18314164
200419938,Mount Juliet,,1456422631000,36.22,-86.52,Cerridwen,TN,1456422631000,18314164
7816806,Marietta,Atlanta,1487388087000,33.93,-84.46,Cesar G.,GA,1487388087000,18314164
197364291,Nashville,,1451375416000,36.06,-86.96,Cesar Rojano,TN,1451375416000,18314164
74063382,Nashville,,1447173599000,36.17,-86.78,Chad,TN,1507063884000,18314164
184352575,Nashville,,1423753348000,36.17,-86.78,Chad Guisewite,TN,1423753348000,18314164
185206552,Brentwood,,1426847094000,36.0,-86.79,Chad Harlow,TN,1476412469000,18314164
204249371,Nashville,,1461962305000,36.17,-86.78,Chad Harlow,TN,1461962305000,18314164
236352609,Nashville,,1505337904000,36.17,-86.78,Chad Mattingly,TN,1505394070000,18314164
12825115,Nashville,Nashville,1444151897000,36.15,-86.86,Chad You,TN,1492142697000,18314164
218668159,Franklin,,1482701406000,35.93,-86.81,Chaitanya Pawar,TN,1482701406000,18314164
189049801,Nashville,,1435135437000,36.17,-86.78,Chardonne Dixon,TN,1435135437000,18314164
185146777,Nashville,,1426050838000,36.17,-86.78,Charles Beard,TN,1506047239000,18314164
105080542,Redmond,,1477583212000,47.68,-122.12,charles sterling,WA,1477583212000,18314164
9993735,Nashville,nashville,1495635095000,36.16,-86.79,Cheedem Zouaoui,TN,1495635095000,18314164
221913413,Brentwood,,1496103758000,36.0,-86.79,Cheryl,TN,1507398088000,18314164
194018123,Nashville,,1506615945000,36.17,-86.79,Chetan Jain,TN,1506615945000,18314164
187715507,Copperas Cove,,1432441056000,31.14,-97.93,Chloe Day,TX,1438040869000,18314164
9593952,Nashville,,1455715703000,36.17,-86.78,Chris,TN,1455715703000,18314164
188028428,Nashville,North Jersey,1433074645000,36.17,-86.78,Chris Alston,TN,1455820148000,18314164
131098662,Franklin,,1429530080000,35.92,-86.89,Chris Beck,TN,1508323602000,18314164
143541362,Nashville,,1454592778000,36.14,-86.74,Chris Bowman,TN,1501587597000,18314164
181639082,Nashville,,1426948421000,36.08,-86.72,Chris Bowman,TN,1476301954000,18314164
215179218,Nashville,,1476816327000,36.17,-86.78,Chris Burton,TN,1476816327000,18314164
149979832,Nashville,,1498081749000,36.1,-86.8,Chris Dooney,TN,1501036842000,18314164
126065552,Nashville,,1455715431000,36.14,-86.74,Chris Dunn,TN,1456261785000,18314164
186379477,Nashville,,1429709131000,36.17,-86.78,Chris Greene,TN,1447976270000,18314164
227699345,Franklin,,1494945731000,35.92,-86.89,Chris Highfield,TN,1495157831000,18314164
69129912,Albuquerque,Albuquerque,1479146224000,35.11,-106.58,Chris Hyde,NM,1495592793000,18314164
211554226,Nashville,,1492949165000,36.17,-86.78,Chris McNeese,TN,1493186609000,18314164
184185824,Nashville,Nashville,1423141769000,36.08,-86.72,Chris Newman,TN,1465920330000,18314164
225797989,Madison,,1492391271000,36.26,-86.71,Chris Plettner,TN,1492391271000,18314164
215531726,Nashville,,1480984664000,36.17,-86.78,Chris S,TN,1480984664000,18314164
47572122,Nashville,Chicago,1422905027000,36.17,-86.78,Chris SpinMan Spintzyk,TN,1497395018000,18314164
191331106,Hermitage,,1439599664000,36.19,-86.6,Chris Watkins,TN,1439599664000,18314164
217458895,Nashville,,1480446872000,36.17,-86.78,Christa Deeanne,TN,1480446872000,18314164
88574032,Nashville,,1436448317000,36.17,-86.78,Christina,TN,1506366654000,18314164
182802177,Spring Hill,,1425954317000,35.76,-86.88,Christine Dayton Smalley,TN,1427227532000,18314164
110836622,Nashville,Columbus,1450738074000,36.11,-86.86,Christopher Stewart,TN,1497573235000,18314164
213073439,Nashville,,1474053199000,36.16,-86.79,Christopher Sundar,TN,1506951737000,18314164
225315939,Nashville,,1491705239000,36.17,-86.78,Chuck Balkon,TN,1491705239000,18314164
190501922,Nashville,,1438033267000,36.21,-86.72,CJ Gooch,TN,1491759695000,18314164
238436158,Murfreesboro,,1507501035000,35.78,-86.33,Claudius ,TN,1507501035000,18314164
186287921,Marion,,1429341375000,37.29,-88.09,Clément,KY,1429341375000,18314164
12856622,Nashville,,1476278945000,36.16,-86.79,Clif,TN,1508789601000,18314164
227333629,Nashville,,1494444304000,36.08,-86.72,Clint Spann,TN,1494444304000,18314164
82849812,Nashville,Nashville,1442225751000,36.17,-86.72,Clint Stephen Jones,TN,1442225751000,18314164
217865557,Nashville,,1481140529000,36.17,-86.72,CobaltCPD,TN,1481140529000,18314164
225020203,Nashville,,1491274376000,36.17,-86.78,Cody Asbury,TN,1491274376000,18314164
116359772,Nashville,,1493479574000,36.06,-86.96,Cody Goodman,TN,1506528460000,18314164
210570887,Nashville,,1470607488000,36.15,-86.81,Cole McKenna,TN,1470607488000,18314164
227482125,Nashville,,1494644351000,36.17,-86.78,Collins,TN,1494644351000,18314164
148697332,Franklin,Nashville,1478008853000,35.92,-86.89,Conway Lee,TN,1491943614000,18314164
200377139,Nashville,,1457286187000,36.08,-86.72,Cory Street,TN,1457286187000,18314164
232238480,Nashville,,1500567356000,36.07,-86.73,Craig Ammon,TN,1500567356000,18314164
216312077,Nashville,,1478554747000,36.14,-86.74,Craig Behnke,TN,1478554747000,18314164
185657669,Smyrna,,1427651689000,35.97,-86.51,Crockett Hope,TN,1427651689000,18314164
227860734,Nashville,,1495140198000,36.17,-86.78,Crystal August,TN,1497620594000,18314164
210392442,Nashville,,1470346949000,36.17,-86.78,Curtis Crawford,TN,1479270095000,18314164
139588162,Augusta,,1457787149000,33.46,-81.97,Daisia Woods,GA,1492450843000,18314164
61301922,Nashville,,1506083181000,36.17,-86.78,Dale Willard,TN,1506083181000,18314164
160362592,Franklin,,1506620476000,35.92,-86.89,Dan Park,TN,1506981823000,18314164
192764565,Brentwood,,1446737809000,36.0,-86.79,Dane Hoffmeister,TN,1446737809000,18314164
214288417,Toronto,,1506385841000,43.74,-79.36,Daniel Bishara,ON,1507427566000,18314164
182705998,Nashville,Nashville,1420820345000,36.17,-86.78,Daniel Glenn,TN,1507063533000,18314164
63900142,Kansas City,,1446496344000,39.1,-94.6,Daniel Quinn,MO,1479233571000,18314164
196260462,Arlington,,1448905519000,35.29,-89.74,Daniel R. Evans,TN,1508338348000,18314164
233497418,Brentwood,,1502116001000,36.0,-86.79,Daniel Reilly,TN,1502116001000,18314164
233078642,Nashville,,1501616925000,36.08,-86.72,Darnell Billups,TN,1501616925000,18314164
201894511,Murfreesboro,,1459853854000,35.87,-86.34,Darren Hayes,TN,1461474508000,18314164
228661743,Nashville,,1496166679000,36.17,-86.78,David Austin Conner,TN,1496166679000,18314164
101296512,Franklin,,1495644860000,35.92,-86.87,David Castro,TN,1495644860000,18314164
229102995,Madison,,1496704176000,36.26,-86.71,David Jay,TN,1496704176000,18314164
144256692,Nashville,,1492722967000,36.15,-86.86,David VanWie,TN,1493206939000,18314164
197137323,Nashville,,1475077713000,36.11,-86.86,David W,TN,1477664487000,18314164
199503841,Nashville,,1455142644000,36.18,-86.74,David Walker,TN,1491270098000,18314164
217448658,Nashville,,1480433031000,36.17,-86.78,David Wilcox,TN,1480433031000,18314164
189605618,Nashville,Atlanta,1436289400000,36.21,-86.72,Davis D,TN,1436289400000,18314164
228533008,West Palm Beach,West Palm Beach,1496620375000,26.66,-80.26,Davy Yue,FL,1500499914000,18314164
189733717,Nashville,,1436543078000,36.17,-86.78,Dawson Darnell,TN,1504474726000,18314164
190983789,Nashville,St. Louis,1467218841000,36.11,-86.86,Deane,TN,1467218841000,18314164
233790959,Nashville,,1502430822000,36.14,-86.74,Deasia Spikes,TN,1502430822000,18314164
193698787,Brentwood,,1448907326000,36.0,-86.79,Debang,TN,1506365809000,18314164
16790301,Nashville,,1478292342000,36.14,-86.74,Debbie Bourne,TN,1483825113000,18314164
223447621,Nashville,,1495463043000,36.17,-86.78,Debra Collins,TN,1498143158000,18314164
190807587,Arrington,,1438577481000,35.86,-86.66,Dede Jones,TN,1438577481000,18314164
191006274,Murfreesboro,,1438966077000,35.78,-86.33,Deidra A.,TN,1455762910000,18314164
220157863,Nashville,,1484690782000,36.11,-86.78,Denise Robinson ,TN,1484690782000,18314164
187625505,Thompsons Station,,1432244442000,35.8,-86.9,Derick Peppers,TN,1441078154000,18314164
211216826,Opa Locka,"Opa Locka, FL",1471530105000,25.91,-80.26,DeRon Washington,FL,1471530105000,18314164
203223094,Hermitage,,1460508040000,36.19,-86.6,Derrick Adom,TN,1461066354000,18314164
197087385,Nashville,,1453604761000,36.22,-86.77,Derrick Vaughns,TN,1463023848000,18314164
93431562,Whites Creek,,1454991230000,36.27,-86.83,Derrick Vaughns,TN,1454991230000,18314164
204523281,Nashville,,1462363425000,36.17,-86.78,Dexter Johnson,TN,1506562246000,18314164
228162735,Nashville,,1495509371000,36.17,-86.78,Diana,TN,1495509371000,18314164
223771686,Nashville,,1495572099000,36.14,-86.8,Dixie Messer,TN,1495674124000,18314164
11903646,Nashville,"Nashville, TN",1424912549000,36.16,-86.79,Donald McMunn,TN,1424912549000,18314164
199174291,Nashville,,1495131069000,36.13,-86.8,Dong siegel,TN,1495238897000,18314164
198716655,Hendersonville,"Jackson, TN",1455916111000,36.32,-86.61,Dr. Brittany McMillen,TN,1456175572000,18314164
185440089,Murfreesboro,,1426968835000,35.87,-86.44,Dr. Jeremy Gonsowski,TN,1426968835000,18314164
193746516,Nashville,,1494413924000,36.15,-86.86,Drew Nichol,TN,1501029125000,18314164
234695450,Nashville,,1503474159000,36.17,-86.78,Duncan,TN,1503474159000,18314164
195161271,Goodlettsville,,1447294455000,36.33,-86.74,Dustin Davidson,TN,1447514476000,18314164
196254365,Nashville,,1448894674000,36.17,-86.78,Dustin Dorsey,TN,1449152253000,18314164
198026946,Columbia,,1452650227000,35.61,-87.05,Dv Bull Tn,TN,1452650227000,18314164
9542867,Nashville,,1443023875000,36.11,-86.86,dwayne williams,TN,1443023875000,18314164
10330612,Nashville,,1469244320000,36.17,-86.78,earl  dennis frederick,TN,1469244320000,18314164
11889893,Nashville,"Birmingham, MI",1435240144000,36.06,-86.96,Ed Hickey ,TN,1435240144000,18314164
7563113,Brentwood,,1441127060000,36.0,-86.79,Ed O.,TN,1462133055000,18314164
7658930,Murfreesboro,,1456493131000,35.82,-86.47,Ed Pearson,TN,1508796731000,18314164
235418261,Brentwood,,1504297567000,36.0,-86.79,Edward B,TN,1504297567000,18314164
201952893,Nashville,,1458614925000,36.17,-86.78,Elaine Drew,TN,1458614925000,18314164
108477342,Nashville,,1422557065000,36.16,-86.79,Elise Zieman,TN,1503412438000,18314164
183723020,Nashville,,1454476170000,36.17,-86.72,Elisha Codes,TN,1454730840000,18314164
209223183,Nashville,,1480127121000,36.18,-86.74,Elizabeth Sanger,TN,1480963276000,18314164
224317722,Nashville,,1490292432000,36.17,-86.78,Emmy Matthews,TN,1490292432000,18314164
186045687,Nashville,,1463441377000,36.08,-86.72,Emrith Hodge,TN,1482023609000,18314164
3189815,Nashville,Detroit,1423589662000,36.08,-86.72,Eric,TN,1480596321000,18314164
200677897,Nashville,,1476574515000,36.1,-86.66,Eric A Howard,TN,1506086877000,18314164
230940270,Nashville,,1499009088000,36.17,-86.78,Eric Cui,TN,1499009088000,18314164
219952884,Clarksville,,1484439437000,36.49,-87.23,eric dimon,TN,1484439437000,18314164
232663717,Nashville,,1506627751000,36.17,-86.78,Eric Gulley,TN,1507055589000,18314164
201068430,Antioch,,1507055481000,36.04,-86.64,Eric Gulley,TN,1507055481000,18314164
212184694,Nashville,,1472873071000,36.17,-86.72,Eric Lee Sirignano,TN,1472873071000,18314164
118747982,Nashville,,1421638074000,36.17,-86.78,Eric Nichols,TN,1444143951000,18314164
195603509,Franklin,,1501710438000,35.93,-86.81,Eric Pan,TN,1508461974000,18314164
156873382,Nashville,Nashville,1464713184000,36.17,-86.79,Eric Rambow,TN,1484165192000,18314164
227854249,Nashville,,1506349370000,36.17,-86.78,Eric Schenk,TN,1506349370000,18314164
229671534,Hendersonville,,1497409973000,36.32,-86.61,Eric Watkins,TN,1497409973000,18314164
235472141,Nashville,,1504364421000,36.15,-86.86,Erica Johnson,TN,1504364421000,18314164
195653542,Franklin,,1447698675000,35.92,-86.89,Erika Thompson Tennant,TN,1463519440000,18314164
131807052,Nashville,,1485349987000,36.17,-86.72,Erin Wallace,TN,1485349987000,18314164
161041682,Nashville,,1439944608000,36.16,-86.79,Ethan,TN,1481069151000,18314164
221625355,Nashville,,1486532248000,36.17,-86.72,Eva Smith,TN,1486532248000,18314164
153945712,Franklin,,1429556636000,35.92,-86.89,Evan McLaughlin,TN,1493296566000,18314164
115572422,Nashville,,1446845821000,36.17,-86.78,Evan VanDolah,TN,1446845821000,18314164
190750035,Thompsons Station,,1438474233000,35.8,-86.9,Federico Campisano,TN,1438474233000,18314164
200733507,Antioch,,1456865647000,36.04,-86.64,Frank Wilkens,TN,1481039797000,18314164
232595107,Nashville,,1501008876000,36.11,-86.78,Freddie,TN,1501206309000,18314164
184325414,Nashville,,1494433170000,36.17,-86.78,G. Batey,TN,1506256458000,18314164
223058708,Nashville,,1488518485000,36.17,-86.78,Gabby M,TN,1488518485000,18314164
4169858,Nashville,Nashville,1455838706000,36.17,-86.72,Gaines Kergosien,TN,1461039644000,18314164
183822919,Franklin,,1434371214000,35.92,-86.89,Gajanan,TN,1478296479000,18314164
222190646,Nashville,,1487307767000,36.16,-86.79,Garrad,TN,1487307767000,18314164
208429247,Mount Pleasant,Nashville,1477866259000,32.82,-79.85,Garrett Vangilder,SC,1484325024000,18314164
189026535,Nashville,,1492553899000,36.18,-86.81,Gary,TN,1492553899000,18314164
97736772,Nashville,,1426019874000,36.17,-86.79,Gary Garrison,TN,1427223521000,18314164
137425392,Franklin,,1492972376000,35.92,-86.89,Gaurav,TN,1493155365000,18314164
183684722,Huntsville,,1421595679000,34.73,-86.57,Geof Thayer,AL,1493086682000,18314164
120303082,Brentwood,,1454790663000,36.0,-86.79,Gerald A. Wakefield,TN,1498507339000,18314164
195966524,Nashville,,1448295732000,36.17,-86.78,Gib Bowden,TN,1448295732000,18314164
223615271,Pegram,,1489326409000,36.12,-87.03,Ginger Ohlman,TN,1489326409000,18314164
187489463,Franklin,,1475464061000,35.93,-86.81,Gini,TN,1475464061000,18314164
190579630,Hermitage,,1438140215000,36.19,-86.6,Glenda,TN,1438140215000,18314164
220056540,Nashville,,1484576318000,36.17,-86.78,Gloria Jaycox,TN,1508516533000,18314164
163524842,Nashville,Nashville,1480699472000,36.16,-86.79,Grace(Jie) Zhao,TN,1480699472000,18314164
163558932,Nashville,,1462744701000,36.17,-86.78,Grayson Miller,TN,1478492398000,18314164
194427633,Smyrna,,1445443548000,35.97,-86.51,Greg Brethen,TN,1445443548000,18314164
221713812,Brentwood,,1486653546000,36.0,-86.79,Guy Crossley,TN,1486653546000,18314164
191814531,Nashville,,1440534340000,36.17,-86.78,Guy Moorehead,TN,1440534340000,18314164
198312825,Nashville,,1453183668000,36.1,-86.66,H. Marbry,TN,1480556788000,18314164
222743541,Nashville,,1488080502000,36.17,-86.78,Harini M,TN,1488080502000,18314164
191344924,Hermitage,,1439632167000,36.19,-86.6,Hassan,TN,1439632167000,18314164
193704847,Knoxville,,1444124958000,35.93,-84.01,Hawa,TN,1480211941000,18314164
212996972,Nashville,,1473950960000,36.17,-86.78,Heather,TN,1473950960000,18314164
215659281,Nashville,,1477532270000,36.16,-86.77,Heather B,TN,1508276161000,18314164
197070153,Nashville,,1450637117000,36.17,-86.78,Heather Marie Luna,TN,1450637117000,18314164
205930903,Nashville,,1464461644000,36.11,-86.78,Heather Terese,TN,1464461644000,18314164
13811636,Nashville,New York,1481688123000,36.13,-86.8,henry,TN,1481688123000,18314164
195137108,Fort Wayne,,1446733114000,41.07,-85.15,Hillary Wood,IN,1446733114000,18314164
199382699,Lithia Springs,,1454965514000,33.77,-84.64,Hugo N,GA,1454965514000,18314164
54437942,Murfreesboro,Spring Hill,1429550005000,35.78,-86.33,Ian Lee,TN,1480567352000,18314164
189432210,Murfreesboro,,1494691679000,35.87,-86.34,Ida Houston,TN,1494691679000,18314164
2671261,Nashville,,1481069610000,36.19,-86.8,Ira,TN,1481164569000,18314164
223846347,Nashville,,1489633537000,36.07,-86.73,Ivan Ramirez Twoworldride,TN,1489633537000,18314164
233164242,Franklin,,1501719233000,35.93,-86.81,Ivy Kuzminsky Gabele,TN,1501719233000,18314164
208169599,Hermitage,,1467388901000,36.19,-86.6,J Slade Hurd,TN,1467388901000,18314164
125424842,Nashville,,1487722506000,36.07,-86.78,Jackson Holder,TN,1491530216000,18314164
217457170,Nashville,Nashville,1480444494000,36.15,-86.86,Jaime Shafer,TN,1480444494000,18314164
188124377,Smyrna,,1434134018000,35.97,-86.51,Jake McNabb,TN,1434652800000,18314164
195342956,Nashville,,1447972400000,36.17,-86.79,James A.,TN,1464378251000,18314164
185123933,Nashville,,1425992687000,36.17,-86.78,James Parker,TN,1425992687000,18314164
222705038,Nashville,,1488032619000,36.17,-86.78,James Paul Lee,TN,1488032619000,18314164
177135382,Nashville,Clarksville,1463341127000,36.17,-86.78,James Winegar,TN,1508287046000,18314164
238713924,Nashville,,1507809268000,36.17,-86.78,Jami Burnett,TN,1507809268000,18314164
203581361,Nashville,,1460995440000,36.17,-86.78,Jami Delagrange,TN,1497275229000,18314164
183937030,Nashville,,1429240305000,36.17,-86.78,Jamie Bedgood,TN,1463516488000,18314164
222899804,Nashville,,1488302984000,36.17,-86.78,Jaquelin,TN,1488302984000,18314164
191806434,Franklin,,1440522296000,35.93,-86.81,Jarred Finney,TN,1454534633000,18314164
186369438,Nashville,,1429534012000,36.17,-86.78,Jarred Finney,TN,1480961098000,18314164
153168942,Franklin,,1483307138000,35.99,-86.9,Jarrod Albert,TN,1499574510000,18314164
230063585,Nashville,,1497934390000,36.22,-86.77,Jason Denton,TN,1506625874000,18314164
227404915,Nashville,,1494534697000,36.17,-86.78,Jason Richmond,TN,1495750152000,18314164
186959919,Gallatin,,1440520612000,36.39,-86.45,Jason Romans,TN,1508430458000,18314164
210387022,Nashville,,1470339750000,36.17,-86.78,Jason Sterling,TN,1470339750000,18314164
200446547,Franklin,,1456456647000,35.92,-86.89,Jay,TN,1457581314000,18314164
233399329,Nashville,,1502001407000,36.08,-86.72,Jay Jones,TN,1502001407000,18314164
234410941,Murfreesboro,Murfreesboro,1503153790000,35.82,-86.45,Jay Sundberg,TN,1503153790000,18314164
203953902,Nashville,,1461532012000,36.08,-86.72,JB,TN,1461532012000,18314164
213744272,Brentwood,,1476467602000,36.0,-86.79,Jeff Bourque,TN,1497626077000,18314164
212406217,Brentwood,,1481758182000,36.0,-86.79,Jeff Fowler ,TN,1485386205000,18314164
193373373,Franklin,,1447273121000,35.93,-86.81,Jeff L.,TN,1447729012000,18314164
210307472,Rockvale,,1470225108000,35.76,-86.55,Jeffrey Dillard,TN,1480610389000,18314164
12600344,Nashville,,1473885494000,36.13,-86.8,Jeffrey L Williams,TN,1479233493000,18314164
206166649,Murfreesboro,,1464654456000,35.78,-86.33,Jen,TN,1464654456000,18314164
199570331,Nashville,,1455241522000,36.17,-86.78,Jennie M,TN,1475535135000,18314164
113528122,Smyrna,Fort Worth ,1508792509000,35.94,-86.54,Jennifer Prien,TN,1508792509000,18314164
192867227,Nashville,,1442869025000,36.17,-86.78,Jerad Clifford,TN,1442869025000,18314164
198079256,Murfreesboro,"Huntsville, AL",1452747791000,35.87,-86.34,Jeremy R. Wenger,TN,1452747791000,18314164
237047061,Nashville,,1505960321000,36.17,-86.79,Jeremy Wilson,TN,1505960321000,18314164
80388742,Nashville,,1502917526000,36.17,-86.78,Jerry Baker,TN,1502917526000,18314164
226749171,Nashville,,1493651887000,36.17,-86.78,Jerry Heath,TN,1494524020000,18314164
204698817,Pegram,,1462625803000,36.12,-87.03,Jerry Ivery Jr.,TN,1480308380000,18314164
89572882,Brentwood,,1498088247000,36.0,-86.79,Jerry Thomas,TN,1498088247000,18314164
208259976,Nashville,,1496430967000,36.14,-86.8,Jessica,TN,1496430967000,18314164
83049972,Nashville,,1421613877000,36.18,-86.74,Jessica Porter,TN,1497885544000,18314164
153401662,Eldoret,,1423021689000,0.52,35.27,Jessica Ruff,,1426734035000,18314164
7548020,Brentwood,Nashville,1495511073000,36.0,-86.79,Jim,TN,1495750927000,18314164
12585301,Nashville,,1483799290000,36.13,-86.8,Jim O'Grady,TN,1508467163000,18314164
191469431,Nashville,,1444230858000,36.16,-86.79,Jing Liu,TN,1444230858000,18314164
217604792,Salt Lake City,Salt Lake City,1480697908000,40.71,-111.89,Jingsai Liang,UT,1480697908000,18314164
131677842,Nashville,,1494875580000,36.09,-86.82,jj,TN,1497278151000,18314164
96228902,Franklin,,1494875245000,35.92,-86.89,Joan Dyer,TN,1494875245000,18314164
163597802,Brentwood,,1428374437000,36.0,-86.79,Joe Falkenburg,TN,1505268595000,18314164
181457472,Nashville,"Erie, PA",1467592784000,36.17,-86.78,Joe Mifsud,TN,1467592784000,18314164
209407174,Franklin,,1469033920000,35.92,-86.89,Joel Coady,TN,1469033920000,18314164
217160398,Nashville,,1484353430000,36.17,-86.78,Joel Legg,TN,1497477530000,18314164
187862876,Mount Juliet,"Nashville, TN",1432738149000,36.21,-86.52,John Adcock,TN,1432738149000,18314164
199908061,Nashville,,1455720434000,36.16,-86.79,John Bybee,TN,1480962428000,18314164
86361582,Tempe,Tempe,1456254347000,33.37,-111.93,John Gould,AZ,1469166118000,18314164
157883962,Brentwood,,1425954430000,36.0,-86.79,John McKennon,TN,1429553638000,18314164
196079571,Nashville,,1448517764000,36.17,-86.78,John Poteat,TN,1448648691000,18314164
63587632,Hendersonville,"Valley Forge, Pa",1448516398000,36.32,-86.61,John Poteat,TN,1448516398000,18314164
185786033,Brentwood,,1428011865000,36.0,-86.79,John Roddy,TN,1442850558000,18314164
9550020,Spring Hill,,1495547155000,35.76,-86.88,John Wilson,TN,1496176281000,18314164
110923962,Nashville,Nashville,1434585163000,36.13,-86.8,John Wilson,TN,1493042412000,18314164
188557916,Mount Juliet,,1493067582000,36.22,-86.52,Jon Boulineau,TN,1507131317000,18314164
225014682,Spring Hill,,1491267285000,35.66,-86.89,Jon Chapman,TN,1491271881000,18314164
204083673,Brentwood,,1461710749000,36.0,-86.79,Jonathan Hunkin,TN,1461710749000,18314164
174246072,Nashville,,1455732197000,36.2,-86.73,Jonathan McElroy,TN,1456144890000,18314164
238619703,Fort Campbell,,1507692790000,36.65,-87.46,Jorge Aguayo,KY,1507692790000,18314164
220135561,Franklin,,1484669495000,35.92,-86.89,Josh Dunn,TN,1484669495000,18314164
233650311,Hendersonville,,1502285374000,36.32,-86.61,Josh O'Rourke,TN,1506650372000,18314164
192094679,Nashville,,1457910424000,36.16,-86.79,Josh Schiets,TN,1462073098000,18314164
225259145,Nashville,,1491622169000,36.17,-86.78,Josh Vick,TN,1491622169000,18314164
189689825,Brentwood,,1492701373000,36.0,-86.79,Josh Vick,TN,1506090570000,18314164
188508736,Nashville,,1434040649000,36.14,-86.74,Joshua Brooks,TN,1434040649000,18314164
230423216,Nashville,,1498364163000,36.17,-86.78,Joshua Puckett,TN,1506699069000,18314164
210272574,Nashville,,1475595091000,36.17,-86.78,Joy Mitchell,TN,1480367470000,18314164
231156300,Clarksville,,1499273536000,36.56,-87.41,Judith Ann Arnold,TN,1499273536000,18314164
196898553,Nashville,,1450214176000,36.11,-86.86,Julia Brinkmann,TN,1455727535000,18314164
80266312,Spring Hill,"Franklin, TN",1498163549000,35.76,-86.88,Julie Payne,TN,1508235485000,18314164
85012872,Nashville,,1425984706000,36.17,-86.78,Justa Name,TN,1497998622000,18314164
202751345,New York,,1459811876000,40.75,-73.99,Justin Hall,NY,1459811876000,18314164
135113782,Franklin,,1455843252000,35.92,-86.89,Justin Hoover,TN,1492907940000,18314164
234063415,Nashville,,1502763336000,36.15,-86.86,Kaitlyn Pelletier,TN,1506006151000,18314164
239190353,Memphis,,1508352244000,35.09,-89.85,Kani Amoah,TN,1508352244000,18314164
3325723,Miramar Beach,Franklin,1446173444000,30.39,-86.5,Karen McMahon,FL,1466970563000,18314164
199445796,Nashville,,1455055480000,36.17,-86.78,Karim Shaik,TN,1475693981000,18314164
92686942,Columbia,,1507771985000,35.61,-87.05,Karmen,TN,1507771985000,18314164
224978753,Nashville,,1499547247000,36.17,-86.78,Kassandra Pinori,TN,1506559599000,18314164
208569099,Nashville,,1481151326000,36.17,-86.78,Kassie Briggs,TN,1500503174000,18314164
185970958,Nashville,,1428515335000,36.06,-86.96,Kate Akers,TN,1428515335000,18314164
205714812,Nashville,,1493127135000,36.11,-86.86,Katherine Parker,TN,1493127135000,18314164
219463271,Nashville,,1483849511000,36.16,-86.79,Kathryn,TN,1489122761000,18314164
185111613,Nashville,,1425950421000,36.17,-86.78,Kathy S.,TN,1427209149000,18314164
201718497,Nashville,,1468542312000,36.17,-86.78,Katie Grace Harris,TN,1468542312000,18314164
220564993,Nashville,,1486141513000,36.17,-86.78,katie prevost,TN,1498578144000,18314164
217604962,Old Hickory,,1480698143000,36.25,-86.63,KBennette,TN,1480698143000,18314164
7666830,Hermitage,,1492551846000,36.19,-86.6,Keith,TN,1492551846000,18314164
210999895,Lebanon,,1481395154000,36.21,-86.31,keith korzec,TN,1506007472000,18314164
190228861,Nashville,,1437512257000,36.1,-86.66,Keith Pelchat,TN,1440107881000,18314164
229173333,Nashville,,1496788005000,36.11,-86.78,Kelli,TN,1496788005000,18314164
216673978,Brentwood,Franklin,1481227447000,36.0,-86.79,Kelly Parsons,TN,1484532223000,18314164
216748395,Nashville,,1479248966000,36.13,-86.8,Ken Moini,TN,1479248966000,18314164
178953952,Nashville,Nashville,1421084942000,36.08,-86.72,Ken Raetz,TN,1497625799000,18314164
219626753,Nashville,,1484016230000,36.14,-86.8,Kenna Jing,TN,1484709669000,18314164
155854102,Jacksonville,,1477920021000,30.19,-81.49,Kenneth Wood,FL,1477920021000,18314164
236243545,Nashville,,1505165052000,36.17,-86.78,Kent Smith,TN,1506603785000,18314164
184003744,Arrington,,1422552521000,35.86,-86.66,Kerry Tyler,TN,1483672065000,18314164
182982296,Washington,,1450494701000,38.91,-77.02,Kevin,DC,1455893372000,18314164
200625715,Nashville,,1456712272000,36.17,-86.78,Kevin,TN,1456712272000,18314164
170209812,Nashville,Nashville,1480692726000,36.1,-86.66,Kevin Godsey,TN,1497663387000,18314164
186198739,Chattanooga,,1429102279000,35.07,-85.31,Kevin Hix ,TN,1429102279000,18314164
185358570,Nashville,,1426707856000,36.17,-86.78,Kevin Holland,TN,1484779460000,18314164
223169992,Lebanon,,1488686584000,36.21,-86.31,Kevin Suarez,TN,1488686584000,18314164
217754475,Nashville,,1480959643000,36.17,-86.78,Kevin Tumminello,TN,1495382189000,18314164
201087582,Hendersonville,,1457384973000,36.32,-86.61,Kiesha Resha,TN,1457384973000,18314164
192169953,Nashville,,1444226591000,36.22,-86.86,Kindall,TN,1497620631000,18314164
196349830,Franklin,,1449081624000,35.92,-86.89,Krish Vsv,TN,1454112180000,18314164
182662859,Murfreesboro,,1440646016000,35.87,-86.34,Kristen Brown,TN,1440646016000,18314164
196013110,Nashville,,1448383162000,36.17,-86.78,Kristen Brown,TN,1448383162000,18314164
223595847,Murfreesboro,,1489290708000,35.82,-86.45,Kristen Brown,TN,1489290708000,18314164
230131151,Nashville,,1498012183000,36.11,-86.78,Kristian Kimbro Rickard,TN,1498012183000,18314164
202311485,Mount Juliet,,1480699218000,36.22,-86.52,Kristy McGee,TN,1508021993000,18314164
220914934,Atlanta,Atlanta,1487642584000,33.93,-84.39,Kseniia Ok,GA,1506097684000,18314164
201083161,Nashville,,1457729694000,36.08,-86.72,Kumar,TN,1483986501000,18314164
124371832,Brentwood,,1464364047000,36.0,-86.79,Kurt Mueller,TN,1507381847000,18314164
237646068,Nashville,,1506627602000,36.17,-86.78,Kushan Hewa,TN,1507055610000,18314164
238492952,Nashville,,1507564749000,36.13,-86.8,kyle black,TN,1507564749000,18314164
173556522,Nashville,"Boston, MA",1465941357000,36.18,-86.74,Kyle McCarthy,TN,1479157482000,18314164
238153371,Hermitage,,1507204220000,36.19,-86.6,Kyle Nelson,TN,1507204220000,18314164
226128399,Franklin,,1492814229000,35.93,-86.81,Kyle R,TN,1492955702000,18314164
216192798,Hendersonville,,1478432836000,36.32,-86.61,Lando,TN,1494551129000,18314164
190738775,Franklin,,1438454373000,35.93,-86.81,Lanray. S,TN,1447987412000,18314164
217213957,Nashville,,1480010035000,36.17,-86.78,Larry Pung,TN,1506431047000,18314164
222288505,Franklin,,1488872732000,35.93,-86.83,Latish Khubnani,TN,1493162472000,18314164
185720704,Nashville,,1427827371000,36.17,-86.78,Laura,TN,1427827371000,18314164
190953808,Nashville,,1438859815000,36.17,-86.78,Laura,TN,1438859815000,18314164
228032468,Nashville,,1495380688000,36.17,-86.78,Laura Bland,TN,1495380688000,18314164
211856088,Mount Juliet,,1472422730000,36.22,-86.52,Laura Stutzman Stott,TN,1472422730000,18314164
189448893,Nashville,,1435971164000,36.17,-86.78,Lauren Dixon,TN,1435971164000,18314164
205526729,Nashville,,1466089317000,36.17,-86.78,Lauren Lambert,TN,1466089317000,18314164
204934288,Murfreesboro,,1462959694000,35.87,-86.44,lawrence mccoy,TN,1462959694000,18314164
219815596,Nashville,,1485272405000,36.08,-86.72,Leah Massey,TN,1485272405000,18314164
217829252,Antioch,,1482889613000,36.17,-86.88,LeAndra Richardson,TN,1482889613000,18314164
185106564,Nashville,,1425938378000,36.17,-86.78,Leigh Anne,TN,1497273985000,18314164
216311116,Nashville,,1497381999000,36.17,-86.78,Lennie Patterson,TN,1497930444000,18314164
223690505,Nashville,,1489422684000,36.13,-86.8,Lindsay Conlin,TN,1489422684000,18314164
224365886,Nashville,,1491314154000,36.1,-86.66,Lindsey Lance,TN,1491314154000,18314164
225042201,Nashville,,1491311938000,36.17,-86.78,Lindsey Lance,TN,1491311938000,18314164
107301542,Nashville,,1444067963000,36.22,-86.77,Lisa,TN,1454681399000,18314164
148906982,Nashville,,1468453659000,36.17,-86.78,Lisa Kaye LeVan,TN,1468453659000,18314164
189720345,Nashville,,1436509372000,36.16,-86.79,Liv,TN,1436509372000,18314164
212225594,Smyrna,,1473614873000,35.97,-86.51,Logan Wilson,TN,1483714315000,18314164
184842362,Nashville,,1495019783000,36.17,-86.78,Lolita Medina,TN,1498009323000,18314164
86834002,Clarksville,"Memphis, TN",1478962962000,36.53,-87.35,Lorenzo Preston,TN,1478962962000,18314164
187700521,Nashville,,1459812131000,36.08,-86.72,Lu Xiong,TN,1486494572000,18314164
192638839,Murfreesboro,,1442095506000,35.85,-86.36,Lucas Do,TN,1442095506000,18314164
182314202,Nashville,,1478184366000,36.08,-86.72,Luke Hardwick,TN,1493042190000,18314164
118353132,Murfreesboro,,1449644317000,35.87,-86.34,LUNAR,TN,1449644317000,18314164
216464467,Nashville,,1484336756000,36.14,-86.74,Lynn McClurg,TN,1484336756000,18314164
193165290,Murfreesboro,,1443071973000,35.82,-86.45,M. Iman,TN,1479939180000,18314164
185708032,Nashville,Lake Charles LA,1427797153000,36.18,-86.74,M. Jason Morgan,TN,1508795910000,18314164
207023582,Nashville,,1477852425000,36.17,-86.78,Madi,TN,1493162328000,18314164
143759992,Nashville,,1496170884000,36.1,-86.93,Magnolia McShane,TN,1507758865000,18314164
229803182,Nashville,,1497586096000,36.17,-86.78,Mahesh,TN,1497586096000,18314164
199274025,Nashville,,1454791867000,36.18,-86.74,Malek Damiri,TN,1454791867000,18314164
225289289,Nashville,,1491670765000,36.17,-86.78,Malini Senthilkumar,TN,1491675840000,18314164
237166067,Nashville,,1506097677000,36.17,-86.78,Manic Kumar,TN,1506097677000,18314164
190974400,Franklin,,1438896765000,35.93,-86.81,Manik,TN,1438896765000,18314164
81213252,Franklin,,1484318170000,35.96,-86.89,Manuel Izturriaga,TN,1484318170000,18314164
234897192,Smyrna,,1503705003000,35.97,-86.51,Margaret Campbell,TN,1503918037000,18314164
185110269,Nashville,,1425947005000,36.17,-86.78,Mariea Williams,TN,1427157158000,18314164
223011143,Nashville,,1488463721000,36.17,-86.78,Mark ,TN,1497463122000,18314164
233759315,Nashville,,1502404145000,36.17,-86.78,Mark Daniel,TN,1502662203000,18314164
236919129,Nashville,,1505828096000,36.17,-86.78,Mark Ferguson,TN,1508287554000,18314164
231901381,Fairview,,1500154589000,35.97,-87.13,Mark Hall,TN,1500154589000,18314164
212423255,Nashville,,1473191015000,36.08,-86.72,Mark Hammock,TN,1473191015000,18314164
239565901,Nashville,,1508781786000,36.19,-86.8,Mark McGlothlin,TN,1508781786000,18314164
212091136,Nashville,,1492537435000,36.06,-86.96,Marsha Pierce,TN,1492537435000,18314164
186222730,Nashville,,1458004407000,36.06,-86.96,Martha Lupai,TN,1458004407000,18314164
207538596,Nashville,Chicago,1477944968000,36.16,-86.79,Martin Vioski,TN,1492640011000,18314164
185376094,Nashville,,1426765253000,36.17,-86.78,Marty,TN,1444053896000,18314164
192465320,Nashville,,1441766781000,36.17,-86.78,Mary Ann Sobczak Chisholm,TN,1441766781000,18314164
217399711,Nashville,,1480352560000,36.17,-86.78,Mary Haynes,TN,1480352560000,18314164
183757409,Arrington,,1421785405000,35.86,-86.66,Mary I.,TN,1427279415000,18314164
102863442,Franklin,"Whites Creek, TN",1456155275000,35.92,-86.89,Mary Kergosien,TN,1456155275000,18314164
163173352,Nashville,Nashville,1454961275000,36.11,-86.86,Marybeth Snodgrass,TN,1456779857000,18314164
223186343,Murfreesboro,,1488727615000,35.78,-86.33,Matt,TN,1488727615000,18314164
208254483,Nashville,,1467506665000,36.09,-86.82,Matt Hojsik,TN,1467506665000,18314164
157020682,Nashville,,1482078304000,36.17,-86.78,Matt Kasle,TN,1482078304000,18314164
203818557,Nashville,,1478878856000,36.22,-86.77,Matt Kraatz,TN,1484070618000,18314164
190999961,Nashville,,1467305482000,36.08,-86.72,Matt Pramstaller,TN,1477921325000,18314164
186389338,Hermitage,,1429573101000,36.19,-86.6,Matt R,TN,1443729461000,18314164
234376726,Nashville,,1503109385000,36.17,-86.78,Matthew,TN,1503109385000,18314164
215431567,Nashville,,1493150140000,36.18,-86.74,Matthew Prisco,TN,1493150140000,18314164
199993939,Mount Juliet,,1455833770000,36.22,-86.52,Matthew Spann,TN,1455833770000,18314164
224546585,Nashville,,1490621030000,36.14,-86.74,Matthias Mueller,TN,1497962054000,18314164
214899373,Nashville,,1488891455000,36.16,-86.77,Matti Gilmore,TN,1488891455000,18314164
99979372,Paris,,1454958071000,48.86,2.34,Maxime Riahi,,1462155460000,18314164
204682905,Franklin,,1462597328000,35.99,-86.9,May,TN,1462597328000,18314164
222347865,Nashville,,1497730459000,36.13,-86.8,May Shen,TN,1498097590000,18314164
225224730,Nashville,,1491576557000,36.17,-86.78,Maynard Friend,TN,1506987777000,18314164
208991302,Nashville,,1496250632000,36.09,-86.82,Megan McGuire,TN,1506614494000,18314164
218938385,Murfreesboro,,1483140840000,35.85,-86.36,Melissa Flowers,TN,1491668404000,18314164
11264269,Nolensville,Clarksville,1472497398000,35.94,-86.67,Melody,TN,1472497398000,18314164
185106952,Nashville,,1425939334000,36.08,-86.72,Merwin,TN,1452891866000,18314164
210653545,Los Angeles,,1470714079000,34.05,-118.27,Micah Buckley,CA,1478883164000,18314164
187948177,Nashville,,1432907296000,36.16,-86.66,Michael,TN,1432907296000,18314164
134829322,Nashville,,1423503904000,36.13,-86.8,Michael,TN,1427219503000,18314164
55615442,Nashville,Murfreesboro,1441927805000,36.16,-86.79,Michael,TN,1441927805000,18314164
185670722,Brentwood,,1439369564000,36.0,-86.79,Michael,TN,1442849898000,18314164
214243734,Nashville,,1475504649000,36.17,-86.78,Michael Albert,TN,1494540814000,18314164
191889613,Mount Juliet,,1440681873000,36.22,-86.52,Michael Arnell,TN,1491449698000,18314164
225417090,Nashville,,1491851633000,36.17,-86.78,Michael Baker,TN,1493147205000,18314164
215970349,Nashville,,1506384329000,36.11,-86.86,Michael Butler,TN,1506384329000,18314164
90381182,Nashville,,1436810118000,36.17,-86.78,Michael Goldstein,TN,1436810118000,18314164
201916013,Nashville,,1505324928000,36.14,-86.74,Michael H.,TN,1506012698000,18314164
187038145,Nashville,,1431007955000,36.1,-86.66,Michael Lintonen,TN,1506963862000,18314164
215241555,Nashville,,1476911953000,36.14,-86.74,Michael McKinley,TN,1507016616000,18314164
217193488,Nashville,,1479967639000,36.17,-86.78,Michael McKinley,TN,1479967639000,18314164
210629395,Hendersonville,,1470685365000,36.32,-86.61,Michelle,TN,1470685365000,18314164
217407479,Nashville,,1480363394000,36.17,-86.78,Michelle Clark,TN,1480363394000,18314164
120328582,Nashville,,1437970127000,36.13,-86.8,Michelle Falcon,TN,1437970127000,18314164
215892483,Nashville,,1477912081000,36.17,-86.78,Michelle Garramone,TN,1477912081000,18314164
53717952,Nashville,,1427320341000,36.1,-86.66,mike,TN,1427320341000,18314164
186662002,Murfreesboro,,1430170813000,35.78,-86.33,Mike,TN,1430170813000,18314164
230237578,Nashville,,1498133517000,36.16,-86.66,Mike Donahue,TN,1498133517000,18314164
188397685,Nashville,,1459636834000,36.17,-86.78,Mike Glenn,TN,1459636834000,18314164
187963710,Adamsville,,1432935663000,35.23,-88.39,Mitchel Pritchard,TN,1432935663000,18314164
107587482,Jacksonville,,1477920067000,30.19,-81.49,MitchellPearson,FL,1478003545000,18314164
8213592,Clarksville,Houston,1440944870000,36.53,-87.35,mlsj1,TN,1456252544000,18314164
227777211,Nashville,,1495037620000,36.17,-86.78,Mohammed Rasras,TN,1495808721000,18314164
227777103,Nashville,,1495037480000,36.17,-86.78,Mohammed Rasras,TN,1497207795000,18314164
218557160,Nashville,,1482440627000,36.17,-86.78,Mohammed Rasras,TN,1482440627000,18314164
26658362,Nashville,,1427620324000,36.16,-86.79,Monica Baker,TN,1441078411000,18314164
215329450,Nashville,,1477040506000,36.08,-86.72,Monica Bhargava,TN,1477040506000,18314164
190659506,Nashville,,1438290641000,36.08,-86.72,Monica Fouad,TN,1438290641000,18314164
238802649,Nashville,,1507908976000,36.16,-86.77,Moo Jin Oh,TN,1507908976000,18314164
222356790,Nashville,,1491783642000,36.17,-86.78,Mukul,TN,1493063095000,18314164
203172636,Nashville,,1460502519000,36.17,-86.78,N Khalid,TN,1463420036000,18314164
183427754,Arrington,,1420750149000,35.86,-86.66,NashBI,TN,1508592813000,18314164
4389320,Nashville,Charlotte,1484272236000,36.17,-86.78,Nat,TN,1484352162000,18314164
128117352,Nashville,Nashville,1507047294000,36.18,-86.74,Nathan Butler,TN,1507047294000,18314164
185171856,Nashville,,1426173441000,36.17,-86.78,Nathanial Gainer,TN,1426783260000,18314164
237773655,Nashville,,1506779760000,36.17,-86.78,NathanM,TN,1506779760000,18314164
237191674,Nashville,,1506123981000,36.17,-86.78,Neal Sanders,TN,1506123981000,18314164
214286403,Nashville,,1506650314000,36.17,-86.78,Neil Baer,TN,1507107836000,18314164
206234001,Austin,,1464744999000,30.22,-97.75,Ngenze A,TX,1464744999000,18314164
195555011,Franklin,,1447511477000,35.99,-86.9,NICK FIELDS,TN,1476798632000,18314164
162554982,Nashville,,1426015747000,36.06,-86.96,Nick Kroes,TN,1476807138000,18314164
149806892,Nashville,Nashville,1489278506000,36.18,-86.81,Nicole Cygielman,TN,1489278506000,18314164
123168762,Franklin,,1421039766000,35.92,-86.89,Nitin,TN,1426170772000,18314164
186361298,Nashville,,1429507523000,36.17,-86.78,Nitin,TN,1429507523000,18314164
202915038,Brentwood,,1461079057000,36.0,-86.79,Niyi A. Odusote,TN,1492526294000,18314164
235005355,Nashville,,1503841381000,36.22,-86.77,Nke Chi,TN,1503841381000,18314164
234168251,Franklin,,1502888603000,35.93,-86.81,Olivia Oetjens,TN,1502888603000,18314164
188833594,Nolensville,,1434684641000,35.94,-86.67,Orlando Hayle,TN,1434684641000,18314164
211885518,Antioch,,1472468487000,36.04,-86.64,Pa'Shua Mayo,TN,1472468487000,18314164
216021930,Nashville,,1478108478000,36.17,-86.78,Paras Metaliya,TN,1506601326000,18314164
166795242,Nashville,,1475266159000,36.17,-86.78,Parvin,TN,1475664337000,18314164
211735645,Nashville,,1472254404000,36.17,-86.78,Pat Haller,TN,1472254404000,18314164
206747130,Nashville,,1465425624000,36.17,-86.78,Patrick,TN,1465425624000,18314164
196256937,Nashville,,1448899205000,36.17,-86.78,Patrick Arras,TN,1448899205000,18314164
228722230,Nashville,,1508785227000,36.16,-86.78,Patrick Hart,TN,1508785227000,18314164
231482868,Nashville,,1499658417000,36.07,-86.73,Patrick O'Brien,TN,1499658417000,18314164
218704611,Antioch,,1482776810000,36.04,-86.64,Paul Wall,TN,1482776810000,18314164
3661197,Nashville,,1497917037000,36.17,-86.78,Pedro,TN,1506731644000,18314164
199170497,Goodlettsville,,1454620597000,36.33,-86.74,Peter Mancini,TN,1454620597000,18314164
193185381,Brentwood,Hermitage,1455854851000,36.0,-86.79,Phil Postmus,TN,1479329242000,18314164
185524764,Brentwood,,1427222861000,36.0,-86.79,Philip,TN,1427282853000,18314164
23875762,Nashville,,1491325778000,36.06,-86.96,Phillip Vest,TN,1497278932000,18314164
183011955,Nashville,,1421560201000,36.06,-86.96,Pieter L.,TN,1507177884000,18314164
54154652,Charlottesville,Nashville,1426711173000,38.06,-78.49,Pieter Linden,VA,1460581526000,18314164
87774872,Hermitage,Nashville,1489372685000,36.19,-86.6,Pliny Third,TN,1508762983000,18314164
185359941,Nashville,,1426711413000,36.17,-86.78,poonam miyan,TN,1429529896000,18314164
205378170,Franklin,,1463546322000,35.92,-86.89,Pradeep,TN,1463546322000,18314164
186372253,Nashville,,1429540182000,36.17,-86.78,Pradeep Manjunath,TN,1429540182000,18314164
185369176,Nashville,,1426735098000,36.17,-86.78,pramod,TN,1426735098000,18314164
22624461,Nashville,Nashville,1490202852000,36.16,-86.79,prashant,TN,1501177217000,18314164
229238477,Nashville,,1496870360000,36.17,-86.78,Prince Li,TN,1496870360000,18314164
143916972,Nashville,,1441828295000,36.17,-86.72,pritesh,TN,1480966067000,18314164
11505811,Nashville,,1491267391000,36.08,-86.72,Priya,TN,1491267391000,18314164
222840826,Nashville,,1488223629000,36.16,-86.79,Q. Stewart,TN,1488223629000,18314164
216269148,Brentwood,,1483720662000,36.0,-86.79,Q. White,TN,1498105702000,18314164
186071678,Gallatin,"Fort Wayne, IN",1428781259000,36.39,-86.45,Quisha Jones,TN,1428781259000,18314164
235370729,Franklin,,1504240269000,35.92,-86.89,RajKumar Doraiswamy,TN,1504240269000,18314164
193685136,Chicago,Chicago,1444067984000,41.88,-87.64,Rakesh Ghodasara,IL,1493303421000,18314164
215637644,Nashville,,1477504958000,36.09,-86.82,Randy Brown,TN,1477504958000,18314164
200673587,Spring Hill,,1456781894000,35.76,-86.88,Randy Clem II,TN,1478880180000,18314164
193624846,Nashville,,1443960479000,36.17,-86.78,Rashan Pittman,TN,1443960479000,18314164
224563017,Nashville,,1490637457000,36.08,-86.72,Ravi Teja,TN,1490637457000,18314164
229049863,Nashville,,1496645036000,36.15,-86.8,Ray Li,TN,1497321028000,18314164
214460093,Murfreesboro,,1475763162000,35.78,-86.33,Raymond Adair,TN,1475763162000,18314164
196862572,Greenbrier,,1450130542000,36.43,-86.8,Rebecca Ultsch,TN,1450130542000,18314164
228405433,Nashville,,1499370626000,36.17,-86.78,Rebekah Gary,TN,1499370626000,18314164
214275292,Nashville,,1475538213000,36.08,-86.72,Reggie LeValle,TN,1475538213000,18314164
188848346,Hermitage,,1434724157000,36.19,-86.6,Rehan,TN,1434724157000,18314164
213744287,Nashville,,1475505098000,36.17,-86.78,Reid Linn,TN,1506619762000,18314164
193879243,Clarksville,,1444426866000,36.56,-87.41,Remotely Operated Concepts,TN,1444426866000,18314164
200781828,Nashville,,1456939997000,36.22,-86.77,Ric Rader,TN,1493061005000,18314164
41233752,Nashville,,1479267988000,36.08,-86.72,Richard,TN,1479267988000,18314164
215233420,Franklin,Nashville,1488400274000,35.93,-86.81,Richie Van Sickle,TN,1488400274000,18314164
71851852,Franklin,,1426708263000,35.92,-86.89,Rick Murdock,TN,1508288327000,18314164
222837116,Nashville,,1488221858000,36.17,-86.78,Rita,TN,1488221858000,18314164
187788117,Nashville,,1433050607000,36.17,-86.78,Rizwan,TN,1441426498000,18314164
183228859,Dallas,,1462821744000,32.79,-96.8,Rizwn s,TX,1462821744000,18314164
204859253,Nashville,,1462853815000,36.17,-86.78,Rob Green,TN,1462892261000,18314164
214761951,Nashville,,1492045505000,36.17,-86.78,Rob Harrigan,TN,1497451401000,18314164
225788324,Gallatin,,1492361118000,36.39,-86.45,Robert Castro III,TN,1492361118000,18314164
185524618,Nashville,,1427222298000,36.16,-86.79,Robert Crissey,TN,1429717169000,18314164
8866689,Antioch,"Jamestown, TN",1426877187000,36.04,-86.64,Robert Ray,TN,1484334547000,18314164
220955068,Franklin,,1485705960000,35.93,-86.81,Robert Rice,TN,1485705960000,18314164
185124735,Nashville,,1425995118000,36.17,-86.78,Robert Saldana,TN,1475507517000,18314164
215920985,Nashville,,1477951644000,36.17,-86.78,Robert Vaughan,TN,1497274581000,18314164
196140860,Nolensville,,1448661694000,35.94,-86.67,Robert Verell,TN,1506007085000,18314164
9317828,Antioch,,1464033217000,36.17,-86.88,robertschley,TN,1464033217000,18314164
184359365,Nashville,"Nashville, TN",1452704437000,36.15,-86.86,Roe Rogers,TN,1484318639000,18314164
223738717,Brentwood,,1496016997000,36.0,-86.79,Ruby MBA Professional,TN,1498083078000,18314164
183621154,Smyrna,,1421386271000,35.97,-86.51,Russell Church,TN,1421386271000,18314164
71760172,McKinney,,1503441265000,33.17,-96.6,Ryan Elmore,TX,1503441265000,18314164
203664064,Nashville,,1461104219000,36.16,-86.79,Ryan Gilreath,TN,1461104219000,18314164
235715024,Spring Hill,,1504623902000,35.76,-86.88,Ryan McMahan,TN,1508334362000,18314164
148026092,Franklin,,1452008162000,35.93,-86.81,Ryan Smith,TN,1452008162000,18314164
34208282,Nashville,,1475735500000,36.08,-86.72,Ryan Trebilcock,TN,1475735500000,18314164
216911431,Nashville,,1479507098000,36.17,-86.78,"Ryon ""RJ"" Brantley",TN,1479507098000,18314164
187368558,Brentwood,,1431725960000,36.0,-86.79,sage earls,TN,1431735760000,18314164
187305987,Nashville,,1431595774000,36.06,-86.96,Sai,TN,1496548174000,18314164
189633429,Nashville,,1449013738000,36.17,-86.78,Sally A.,TN,1449199014000,18314164
215065731,Spring Hill,,1476656640000,35.76,-86.88,Sam Lax,TN,1476656640000,18314164
225365919,Murfreesboro,,1491778908000,35.82,-86.45,Sam M.,TN,1491778908000,18314164
127515562,Nashville,,1427207662000,36.14,-86.74,Saman Saadat,TN,1440102504000,18314164
48967512,Boston,,1425709064000,42.35,-71.07,SamG,MA,1425709064000,18314164
184328214,Nashville,,1481046718000,36.07,-86.78,Sammed M.,TN,1508286455000,18314164
15446041,Nashville,Nashville,1488813311000,36.08,-86.72,Samuel Palaparthy,TN,1490282733000,18314164
195971704,Nashville,,1448304012000,36.08,-86.72,Sandeep,TN,1448999687000,18314164
237634864,Nashville,,1506616765000,36.17,-86.78,Sandeep Gondela,TN,1508301484000,18314164
46546712,Mount Juliet,,1487062829000,36.16,-86.5,Sandeep S Darawade,TN,1494591578000,18314164
102344122,Antioch,,1491234809000,36.04,-86.64,Sandy Brewer Jones,TN,1504205172000,18314164
231304292,Nashville,,1499456390000,36.17,-86.78,Sara Stewart,TN,1499456390000,18314164
188247355,Nashville,,1433508367000,36.08,-86.72,Sarah Vinson,TN,1433508367000,18314164
214590028,Nashville,,1475954921000,36.18,-86.81,Sarai Corea,TN,1475954921000,18314164
228741348,Franklin,,1496263847000,35.92,-86.89,Satej Prabhu,TN,1496263847000,18314164
227776995,Nashville,,1495037364000,36.17,-86.78,Scott Conder,TN,1497538312000,18314164
225225948,Franklin,,1491578554000,35.92,-86.89,Scott Dickson,TN,1491578554000,18314164
214759521,Nashville,,1476209648000,36.17,-86.78,Scott Emerson,TN,1479381781000,18314164
190086065,Nashville,,1437243967000,36.15,-86.79,scott Harry,TN,1437243967000,18314164
225531109,Nashville,,1493051778000,36.14,-86.74,Sean Cofoid,TN,1498143871000,18314164
219462455,Nashville,,1483819756000,36.17,-86.78,Sean Logan,TN,1506792120000,18314164
182889319,Nashville,,1426080249000,36.17,-86.78,Sean Michael Williams,TN,1427158835000,18314164
219148445,Nashville,,1483442645000,36.08,-86.72,Sean Williams,TN,1483442645000,18314164
92795252,Nashville,,1426789719000,36.17,-86.78,Sekou,TN,1507228930000,18314164
190978121,Lebanon,,1438905672000,36.21,-86.31,Senn Nathan,TN,1438905672000,18314164
9003361,Franklin,,1455669401000,35.93,-86.81,seppy NYANG'ORO,TN,1455669401000,18314164
192791349,Nashville,,1442371876000,36.17,-86.78,Serena Vayda,TN,1442371876000,18314164
190830600,Old Hickory,,1438623626000,36.25,-86.63,Sergio L. Weiberg,TN,1438623626000,18314164
8539046,Nashville,,1476902075000,36.13,-86.8,Shalini,TN,1508766102000,18314164
211957987,Nashville,,1476017189000,36.08,-86.72,Shane Helfenberger,TN,1476897449000,18314164
216374980,Nashville,,1478652763000,36.15,-86.79,Shannon Lutes,TN,1478652763000,18314164
195139991,Nashville,,1446735867000,36.08,-86.72,Shaun,TN,1446735867000,18314164
194381707,Nashville,Nashville,1451781187000,36.17,-86.78,Shawn,TN,1451781187000,18314164
12480841,Nashville,"Shreveport, LA",1491254908000,36.17,-86.72,Shawn Oden,TN,1491254908000,18314164
192314185,Brentwood,,1497217719000,36.0,-86.79,Shawn Stewart,TN,1497217719000,18314164
155803232,Nashville,,1456169027000,36.17,-86.72,Sheila,TN,1508789201000,18314164
202677735,Madison,,1459713600000,36.26,-86.71,Shelby Hudson,TN,1463020520000,18314164
166695402,Nashville,,1506961987000,36.08,-86.72,Shirley Moulton ,TN,1506961987000,18314164
45597012,Nashville,,1421026294000,36.17,-86.78,Shruti Sharma,TN,1425726972000,18314164
198152116,Franklin,,1452891938000,35.92,-86.89,Sijan Joshi,TN,1452891938000,18314164
25149122,La Vergne,La Vergne,1494867241000,36.01,-86.57,Simon Kingaby,TN,1495819274000,18314164
229121218,Nashville,,1497992625000,36.17,-86.78,Simone McCarron,TN,1497992625000,18314164
214482726,Nashville,,1476111043000,36.17,-86.78,SLASLEY,TN,1476111043000,18314164
226812534,Antioch,,1493735418000,36.04,-86.64,So Hollywood,TN,1493735418000,18314164
208173959,Madison,"Collierville, TN",1467394927000,36.26,-86.71,Sonya Anthony McGhee,TN,1467394927000,18314164
185139782,Mount Juliet,,1426031563000,36.22,-86.52,Spencer Swindell,TN,1493128647000,18314164
44523602,Nashville,,1448931377000,36.21,-86.72,Stacey Ellen Smith,TN,1460576656000,18314164
228827230,Brentwood,,1496370698000,36.0,-86.79,Stanley Rajkumar Samala Melchias,TN,1496370698000,18314164
224811331,Lebanon,,1490980711000,36.21,-86.31,Stephanie Anderson,TN,1494527580000,18314164
224856831,Nashville,,1494590549000,36.17,-86.78,Stephanie Cummings ,TN,1494710279000,18314164
27191232,Nashville,Meridian,1440424965000,36.08,-86.72,Stephanie Marie Farrell,TN,1440424965000,18314164
211293558,Nashville,,1475682929000,36.18,-86.74,Stephanie Parker,TN,1475682929000,18314164
73896942,Chicago,,1487164662000,41.94,-87.7,Stephen,IL,1487164662000,18314164
155607352,Williamsport,,1429967027000,35.62,-87.1,Stephen Dvorak,TN,1429967027000,18314164
195421486,Spring Hill,,1448041927000,35.76,-86.88,Stephen Farrell,TN,1492685483000,18314164
238299386,Nashville,,1507347212000,36.14,-86.76,Steve Garcia,TN,1507347212000,18314164
197632568,Brentwood,,1463177158000,36.0,-86.79,Steve Peterson,TN,1497965785000,18314164
185408999,Nashville,,1426869703000,36.17,-86.72,Steve Raimo,TN,1426869703000,18314164
215550708,Nashville,,1477368886000,36.15,-86.81,Steve Talabi,TN,1477368886000,18314164
184744302,Nashville,,1425422652000,36.08,-86.72,Steven G. Sigmon,TN,1492624358000,18314164
187522343,Nashville,,1432050436000,36.07,-86.73,Sudhir,TN,1440419728000,18314164
184002949,Franklin,,1423262592000,35.93,-86.81,Sudhir Havaligi,TN,1423262592000,18314164
229711712,Nashville,,1497466879000,36.17,-86.78,Suhail Salameh,TN,1497466879000,18314164
202673459,Nashville,,1463716670000,36.17,-86.78,Sundar,TN,1463716670000,18314164
214185043,Nashville,,1475428297000,36.17,-86.78,Sundar Kuppuswamy,TN,1475428297000,18314164
229104299,Franklin,,1496705274000,35.92,-86.89,Suresh Kumar Yatirajula,TN,1496705274000,18314164
216803265,Nashville,,1479334496000,36.14,-86.74,Susan Crawford,TN,1479475018000,18314164
217465323,Nashville,,1480454986000,36.07,-86.73,Susan Crawford,TN,1480454986000,18314164
221710131,Indianapolis,Indianapolis,1486651543000,39.66,-86.1,susanrm,IN,1486651543000,18314164
191202867,Franklin,,1439343976000,35.93,-86.81,swati bhandaru,TN,1439343976000,18314164
11795572,Spring Hill,Spring Hill,1506037432000,35.76,-86.88,Tamara,TN,1506037432000,18314164
124955032,Nashville,Nashville,1479706498000,36.09,-86.82,Tamara,TN,1494976452000,18314164
182846773,Franklin,,1422551827000,35.92,-86.89,Tamera Clark,TN,1422551827000,18314164
11607577,Nashville,,1425938491000,36.11,-86.78,Tanya Jarrett,TN,1426176362000,18314164
12042647,Chattanooga,,1428255761000,35.04,-85.31,Tara,TN,1428255761000,18314164
222065087,Nashville,,1487218146000,36.14,-86.74,Tarekegn Sisay,TN,1487218146000,18314164
108490052,Nashville,"Columbia, SC",1494447477000,36.06,-86.96,Taylor Desseyn,TN,1494447477000,18314164
126066112,Nashville,Nashville,1482824303000,36.17,-86.78,Taylor Michael Matson,TN,1482824303000,18314164
227630739,Nashville,,1494861508000,36.17,-86.78,Taylor Spruell,TN,1495659905000,18314164
225004518,Nashville,,1491254881000,36.17,-86.78,Taylor Trumphour,TN,1491254881000,18314164
234412475,Goodlettsville,,1503155190000,36.32,-86.72,Teresa Richmond,TN,1506951742000,18314164
229802124,Nashville,,1497584607000,36.17,-86.78,Teri Pung,TN,1497584607000,18314164
218472078,Nolensville,,1482272300000,35.94,-86.67,Tessa Balkon,TN,1492102892000,18314164
209778872,Sevierville,,1469501881000,35.84,-83.48,Thomas E. Lowery,TN,1469501881000,18314164
178938602,Nashville,,1434640131000,36.11,-86.86,Thomas O. Cooper,TN,1434640131000,18314164
20213561,Nashville,Nashville,1477733438000,36.17,-86.78,Thomas Shavor,TN,1498055812000,18314164
188219505,Franklin,,1433445041000,35.93,-86.81,Tiffany McCarty,TN,1475507615000,18314164
75509262,Nashville,,1491255835000,36.17,-86.78,Tim Ables,TN,1501173537000,18314164
193514150,Nashville,,1443734091000,36.17,-86.78,Tim Curtis,TN,1443737813000,18314164
94087322,Nashville,,1475508278000,36.17,-86.78,Timothy Travis,TN,1493128462000,18314164
5317212,Nashville,"Dearborn, MI",1429199307000,36.22,-86.77,Tina Belli,TN,1482940296000,18314164
59781652,Nashville,,1506357531000,36.16,-86.79,Tina Thaxton,TN,1506357531000,18314164
186653173,Mount Juliet,,1497959151000,36.17,-86.49,Tina Thaxton,TN,1506357633000,18314164
198046604,Nashville,,1452694228000,36.08,-86.72,Tito,TN,1507126445000,18314164
14940941,Nolensville,,1426867023000,35.94,-86.67,Tod Sandberg,TN,1426867023000,18314164
235544785,Nashville,,1504448350000,36.17,-86.78,Todd Hayden,TN,1504448350000,18314164
223973544,Nashville,,1489820211000,36.15,-86.8,Tom Sanchez,TN,1489820211000,18314164
185380456,Nashville,,1426778571000,36.17,-86.78,Tommy Griffin,TN,1444165081000,18314164
227721587,Nashville,,1494966563000,36.17,-86.78,Tommy Montroy,TN,1494966563000,18314164
194923584,Nashville,"Nashville, TN",1446339722000,36.17,-86.78,Toni,TN,1506015633000,18314164
211529913,Nashville,,1471969669000,36.13,-86.8,Toni,TN,1471969669000,18314164
200751977,Brentwood,,1456901024000,36.0,-86.79,Tony Kim,TN,1457645148000,18314164
206341778,Nashville,,1493126603000,36.17,-86.78,Tori Gentry,TN,1495720694000,18314164
193538470,Nashville,,1444058456000,36.17,-86.78,Tracy ,TN,1444167338000,18314164
202669127,Gallatin,,1495915663000,36.39,-86.45,Tradessa,TN,1508288379000,18314164
182607564,Nashville,,1444057612000,36.06,-86.96,Travis,TN,1502830253000,18314164
227382202,Nashville,,1494509319000,36.08,-86.72,Travis Green,TN,1494509319000,18314164
185096540,Nashville,Nashville,1425917019000,36.17,-86.72,Travis Howell,TN,1425917019000,18314164
210657744,Clarksville,,1497667196000,36.56,-87.41,Trever Webb,TN,1497667196000,18314164
221180409,Nashville,,1485981586000,36.18,-86.81,Trevor Boren,TN,1485981586000,18314164
209888831,Nashville,,1476889929000,36.17,-86.78,Tyler Muller,TN,1508439610000,18314164
216962893,Murfreesboro,,1479589576000,35.85,-86.36,Ukela Alred,TN,1496168110000,18314164
217751685,Nashville,,1480955458000,36.17,-86.78,Uma Nagappa,TN,1480955458000,18314164
203356091,Nashville,,1460668476000,36.17,-86.78,Vanessa,TN,1460828812000,18314164
175891512,Nashville,,1483057897000,36.17,-86.78,Vanessa,TN,1483057897000,18314164
224287185,Clarksville,,1490245273000,36.53,-87.34,Veronica Aguirre,TN,1490245273000,18314164
98818162,Mount Juliet,,1460730478000,36.22,-86.52,Veronica Heber,TN,1506645723000,18314164
214729620,Nashville,,1495520634000,36.17,-86.78,Vickie Woods,TN,1506914335000,18314164
150144022,Nashville,,1456357361000,36.09,-86.82,Victoria McClaran,TN,1456357361000,18314164
197623522,Atlanta,Atlanta,1451922084000,33.93,-84.39,Victoria Truitt,GA,1451946256000,18314164
203160990,Jacksonville Beach,,1494893390000,30.28,-81.41,Vijay G,FL,1494893390000,18314164
117760522,Newark,,1497910679000,39.6,-75.75,Vijay Gande,DE,1497910679000,18314164
230016463,Franklin,,1497886954000,35.92,-86.89,Vijayakumar Sekar,TN,1506100647000,18314164
192958359,Nashville,,1482636977000,36.19,-86.8,Vinay Suneja,TN,1486782724000,18314164
185207862,Fairview,,1456961305000,35.97,-87.13,Vincent,TN,1460894430000,18314164
200946236,Franklin,,1457191020000,35.92,-86.89,Vincentzenno Cappelli,TN,1457191020000,18314164
215050917,Nashville,,1476642818000,36.11,-86.78,Vincenzeno,TN,1476642818000,18314164
11649803,Nolensville,,1492538474000,35.94,-86.67,Vinoj,TN,1493211329000,18314164
185107274,Nashville,,1425958909000,36.17,-86.78,Vipul Tyagi,TN,1495318015000,18314164
192065921,Nashville,,1441030544000,36.17,-86.78,Virginia Hovde,TN,1441030544000,18314164
192064271,Nashville,,1441027620000,36.17,-86.78,Vishal,TN,1441027620000,18314164
96442732,Nashville,"Nashville, TN",1495126164000,36.18,-86.81,Wansoo Im,TN,1495633051000,18314164
218060116,Nashville,,1481492700000,36.17,-86.77,Wayne Earle,TN,1508473058000,18314164
187052248,Murfreesboro,,1431034859000,35.82,-86.45,"Wayne Stearns, Jr;.",TN,1444144158000,18314164
130190882,Nashville,Murfreesboro,1451452149000,36.14,-86.74,wen,TN,1495464946000,18314164
62111092,Nashville,"San Luis Obispo, CA",1475508347000,36.18,-86.81,Wes,TN,1506282508000,18314164
195696513,Murfreesboro,,1451933964000,35.87,-86.34,Will Bray,TN,1451933964000,18314164
120578592,Nashville,,1420758874000,36.13,-86.8,Will Harvey,TN,1507133508000,18314164
228114286,Nashville,,1495464954000,36.17,-86.78,William,TN,1506614491000,18314164
225978684,Nashville,,1492611862000,36.17,-86.78,William Bratz,TN,1492611862000,18314164
195150281,Mount Juliet,Mount Juliet,1448298705000,36.21,-86.52,William Etcetera,TN,1455626204000,18314164
199617086,Nashville,,1463675021000,36.21,-86.72,William Johnnson,TN,1475709945000,18314164
208248095,Goodlettsville,,1467498318000,36.32,-86.72,William Lawrence,TN,1467498318000,18314164
214242792,Nashville,,1475503473000,36.17,-86.78,William Ledbetter,TN,1476714372000,18314164
215737735,Nashville,,1477664253000,36.19,-86.8,William Ledbetter,TN,1479136762000,18314164
194199540,Nashville,,1448298619000,36.17,-86.79,William Ledbetter,TN,1448909804000,18314164
203455821,Madison,,1460821194000,36.26,-86.71,Wm Muse,TN,1460821194000,18314164
6160486,Franklin,,1421591729000,35.92,-86.89,yan fei,TN,1507079947000,18314164
238562122,Nashville,,1507637544000,36.15,-86.86,Yanina Bonetto,TN,1507637544000,18314164
223039509,Nashville,,1502902584000,36.17,-86.78,Yasmine Mukahal,TN,1506653388000,18314164
200716232,Nashville,,1456844640000,36.19,-86.8,Ying,TN,1456844640000,18314164
186369909,Nashville,,1429535135000,36.17,-86.78,Yogi,TN,1429652245000,18314164
185393906,Nashville,,1426813458000,36.17,-86.78,Yongqin Zhang,TN,1506112354000,18314164
210921083,Nashville,,1491080981000,36.16,-86.79,You Zhou,TN,1491080981000,18314164
211844922,Nashville,,1497500238000,36.11,-86.78,Youyang,TN,1499298764000,18314164
192186790,Nashville,,1444160166000,36.08,-86.72,Yuanchun Wang,TN,1444160166000,18314164
219275333,Nashville,,1483575370000,36.15,-86.86,Yusuf Gürbüz,TN,1483575370000,18314164
221454263,Antioch,,1486320340000,36.04,-86.64,Yusuf Yusuf,TN,1486320340000,18314164
225984269,Nashville,,1492618430000,36.17,-86.78,Yuvraj,TN,1493648042000,18314164
208257157,Antioch,,1467509712000,36.04,-86.64,Zack Green,TN,1467509712000,18314164
223847954,Nashville,,1489639408000,36.17,-86.78,Zarina,TN,1495400323000,18314164
193053558,Brentwood,,1442866547000,36.0,-86.79,Zoe Yim,TN,1442866547000,18314164
182785505,Nashville,,1453314990000,36.13,-86.8,Zoey Nguyen,TN,1484320532000,18314164
237575678,Nashville,,1506546921000,36.13,-86.8,??,TN,1506546921000,18314164
