id,city,hometown,joined,lat,lon,name,state,visited,group_id
191012351,Primm Springs,,1451558436000.0,35.84,-87.24,A S,TN,1451558436000.0,18634990
199116612,Fort Campbell,,1454535005000.0,36.65,-87.46,Abbi,KY,1454535005000.0,18634990
203214279,Nashville,,1505266993000.0,36.17,-86.78,Adam Aelker,TN,1505266993000.0,18634990
10109351,Nashville,,1433430710000.0,36.21,-86.72,Adam Troxler,TN,1433430710000.0,18634990
235512786,Nashville,,1504405723000.0,36.04,-86.73,Adrian Davis,TN,1504405723000.0,18634990
218196000,Charlotte,,1481737908000.0,36.24,-87.26,Aida,TN,1481737908000.0,18634990
188232726,Huntsville,,1433601266000.0,34.74,-86.62,Alescia,AL,1433601266000.0,18634990
227363326,Spring Hill,,1494480414000.0,35.76,-86.88,Alex Martinez,TN,1494713689000.0,18634990
233054561,Fort Campbell,,1501591318000.0,36.65,-87.46,Alexander Render,KY,1501591318000.0,18634990
2491285,Nashville,,1467257304000.0,36.17,-86.78,alicia,TN,1498607309000.0,18634990
2865794,Murfreesboro,Murfreesboro,1482000414000.0,35.82,-86.45,Alisa,TN,1503674206000.0,18634990
11901340,Nashville,Nashville,1488849815000.0,36.17,-86.79,Allen,TN,1488849815000.0,18634990
213437717,Nashville,,1474504762000.0,36.07,-86.73,Allyson,TN,1484960980000.0,18634990
13838907,Nashville,,1458784794000.0,36.17,-86.78,Alyssa Dixon,TN,1458784794000.0,18634990
193363870,Fresno,,1448127974000.0,36.84,-119.8,Amber Donat,CA,1448127974000.0,18634990
190026711,Nashville,,1442197588000.0,36.08,-86.72,Amberlee' Brooks,TN,1442197588000.0,18634990
203849134,Nashville,,1463538944000.0,36.06,-86.96,Amy,TN,1508808347000.0,18634990
200136385,Goodlettsville,,1456034244000.0,36.32,-86.72,Amy West,TN,1456034244000.0,18634990
3550993,Nashville,,1496450672000.0,36.17,-86.78,Andrea,TN,1508358589000.0,18634990
199655144,Nashville,,1455398901000.0,36.17,-86.78,Angela Nolan,TN,1465350831000.0,18634990
230489180,Nashville,,1498445668000.0,36.14,-86.81,Ann Tezak,TN,1498445668000.0,18634990
227496236,Nashville,,1494668848000.0,36.08,-86.72,ARi Lyon,TN,1494668848000.0,18634990
200251893,Indianapolis,,1463849787000.0,39.77,-86.11,Arijana Anderson,IN,1463849787000.0,18634990
212556898,Murfreesboro,,1473368329000.0,35.78,-86.33,Ashland Ferguson,TN,1473368329000.0,18634990
205361764,Madison,,1463526884000.0,36.26,-86.71,Ashleigh,TN,1463526884000.0,18634990
200686557,Nashville,,1456798933000.0,36.09,-86.82,Ashley,TN,1456798933000.0,18634990
237265972,Gladeville,,1506211762000.0,36.19,-86.28,Ashley Jaspers,TN,1506211762000.0,18634990
218113293,Goodlettsville,,1481583438000.0,36.33,-86.74,Ashley Michele Morrow,TN,1508113336000.0,18634990
215817321,Ashland City,,1477788275000.0,36.28,-87.07,Audra Beachy,TN,1477788275000.0,18634990
14948621,Nashville,,1463589089000.0,36.16,-86.79,Audrey,TN,1467486203000.0,18634990
234929266,Brentwood,,1503763743000.0,36.0,-86.79,Austin ,TN,1505484890000.0,18634990
239238064,Fort Campbell,,1508410730000.0,36.65,-87.46,Austin Hanika,KY,1508410730000.0,18634990
134971982,Smyrna,Nashville ,1441549603000.0,35.97,-86.51,Barbara Adkerson,TN,1502925982000.0,18634990
222132238,Nashville,,1495727406000.0,36.18,-86.81,Barry Eckert,TN,1496605966000.0,18634990
201226416,Smyrna,,1457582114000.0,35.97,-86.51,Barry Holtcamp,TN,1457582114000.0,18634990
188229283,Nashville,,1433462620000.0,36.09,-86.82,Belinda Chen,TN,1433462620000.0,18634990
17612361,Nashville,"Chesterland, OH",1439648757000.0,36.17,-86.78,Ben Blackford,TN,1448707364000.0,18634990
228063106,Oak Grove,,1495415899000.0,36.68,-87.45,Benjamin Stork,KY,1495415899000.0,18634990
118100402,Hendersonville,Huntsville,1499914824000.0,36.32,-86.61,Bethany Boyer,TN,1499914824000.0,18634990
227129757,Nashville,,1494172057000.0,36.21,-86.72,Bethany Grimes,TN,1494172057000.0,18634990
23469141,Nashville,,1433519936000.0,36.09,-86.82,Bill Nunley,TN,1433519936000.0,18634990
236123449,Nashville,,1505051102000.0,36.09,-86.82,Bob Bowe,TN,1506784489000.0,18634990
200948309,Hermitage,,1457191428000.0,36.19,-86.6,Brandi Leach,TN,1459429844000.0,18634990
211781851,Clarksville,,1472322730000.0,36.56,-87.41,Brandon Robb,TN,1472322730000.0,18634990
62418442,Nashville,,1472221623000.0,36.16,-86.79,Brenda Dillard,TN,1472221623000.0,18634990
102878332,Nashville,,1496527016000.0,36.11,-86.86,Bria,TN,1496527016000.0,18634990
209963734,Nashville,,1469750691000.0,36.17,-86.78,Brian,TN,1483299941000.0,18634990
225431589,Nashville,,1491869085000.0,36.17,-86.78,Brian Fenix,TN,1491869085000.0,18634990
203124467,Christiana,,1460341766000.0,35.71,-86.36,Brian Kemski,TN,1460341766000.0,18634990
203403379,Nashville,,1460741858000.0,36.18,-86.74,Brian Shaw,TN,1460741858000.0,18634990
212298853,Hendersonville,,1473030285000.0,36.32,-86.6,Bridgette O'Brien,TN,1503239036000.0,18634990
218779530,Nashville,,1482897465000.0,36.16,-86.77,Britt,TN,1482897465000.0,18634990
198136861,Nashville,,1452867498000.0,36.17,-86.78,Brittany,TN,1452903139000.0,18634990
183438980,Nashville,"Clarksville, TN",1436570497000.0,36.17,-86.78,Brittney,TN,1489259304000.0,18634990
221305173,Nashville,,1495731962000.0,36.17,-86.72,CallieC,TN,1495731962000.0,18634990
194679713,Nashville,,1445889843000.0,36.17,-86.78,Calvin Griffin,TN,1445889843000.0,18634990
152606552,Brentwood,,1437238517000.0,36.0,-86.79,Cameron,TN,1438897745000.0,18634990
158790562,Nashville,,1436574296000.0,36.17,-86.78,Cameron Lea,TN,1436574296000.0,18634990
20079631,Washington,East Lansing,1441978154000.0,38.91,-77.02,Candace Hines,DC,1465569436000.0,18634990
201262218,Smyrna,,1457639434000.0,35.97,-86.51,Candice Leichty,TN,1457639434000.0,18634990
206545438,La Grange,,1465171957000.0,35.31,-77.79,Carla Dudley,NC,1465518360000.0,18634990
188868011,Franklin,,1434759805000.0,35.92,-86.89,Carly Weinstein,TN,1434763510000.0,18634990
173304952,Nashville,,1442518879000.0,36.08,-86.72,Carol,TN,1442518879000.0,18634990
10532519,Nashville,New York,1463074548000.0,36.11,-86.86,Caroline,TN,1506958445000.0,18634990
234453313,Nashville,,1503197824000.0,36.17,-86.78,Carolyn ,TN,1503197824000.0,18634990
104794332,Nashville,"Nashville, TN",1465413925000.0,36.14,-86.74,Carrie Middleton,TN,1465417569000.0,18634990
207193029,Hendersonville,,1466034423000.0,36.32,-86.61,Cassie,TN,1466034423000.0,18634990
223612740,Clarksville,,1489323073000.0,36.56,-87.41,CeDoanne,TN,1489323073000.0,18634990
204536273,Mount Juliet,,1462380754000.0,36.22,-86.52,Cedric Dent,TN,1462380754000.0,18634990
209959655,Antioch,,1469977669000.0,36.04,-86.64,Chadwin Jase Clark,TN,1469977669000.0,18634990
8614667,Nashville,,1457808306000.0,36.21,-86.72,Charlie Bond,TN,1457808306000.0,18634990
47526752,Lebanon,"baton rouge, la",1461343329000.0,36.26,-86.2,cherami pace,TN,1461421314000.0,18634990
81060442,Madison,,1438983002000.0,36.26,-86.71,Cherice Collins,TN,1438983002000.0,18634990
238166851,Nashville,,1507221566000.0,36.16,-86.78,Cheryl Polk,TN,1507221566000.0,18634990
231162545,Nashville,,1499279831000.0,36.14,-86.8,Chris Maniscalco,TN,1499279831000.0,18634990
220052996,Nashville,,1484572806000.0,36.06,-86.96,Chris Manner,TN,1484572806000.0,18634990
198614619,Nashville,,1453746932000.0,36.1,-86.66,Christalynn,TN,1454683700000.0,18634990
197733414,Nashville,,1452138554000.0,36.16,-86.79,Christian Redl,TN,1452138554000.0,18634990
221996618,Nashville,,1487376716000.0,36.18,-86.74,Christian Weiss,TN,1489168340000.0,18634990
211130804,Dickson,,1471401603000.0,36.08,-87.43,christie phillips,TN,1471401603000.0,18634990
24408952,Nashville,"Little Neck, NY",1465845630000.0,36.17,-86.78,Christina,TN,1476455544000.0,18634990
192135113,Nashville,,1441151844000.0,36.08,-86.72,Christina ,TN,1441158523000.0,18634990
199402658,Nashville,,1460203807000.0,36.16,-86.79,Christina Witt,TN,1461064636000.0,18634990
193393112,Brentwood,,1443500833000.0,36.0,-86.79,Christina Zaragoza,TN,1443500833000.0,18634990
203447453,Murfreesboro,,1460809892000.0,35.82,-86.45,Christy Smith Fancher,TN,1460809892000.0,18634990
113304,Nashville,,1462403319000.0,36.17,-86.78,Cindy,TN,1472307907000.0,18634990
161574592,Franklin,,1451874904000.0,35.92,-86.89,Claire Cassidy,TN,1451874904000.0,18634990
220207243,Nashville,,1484752667000.0,36.11,-86.86,Claire Conlon,TN,1484752667000.0,18634990
210628882,Nashville,,1470684173000.0,36.07,-86.78,Clay Curtis,TN,1470684173000.0,18634990
195629837,Spring Hill,,1447649669000.0,35.76,-86.88,Clay Wright,TN,1447649669000.0,18634990
193858336,Murfreesboro,,1444391635000.0,35.87,-86.34,Clif Hatch,TN,1445345014000.0,18634990
188928967,Franklin,,1434898112000.0,35.93,-86.81,Cody McCluskey,TN,1434898112000.0,18634990
197342834,Nashville,,1451335575000.0,36.1,-86.66,Colin,TN,1451335575000.0,18634990
215367772,Nashville,,1477096329000.0,36.13,-86.8,Colin Klein,TN,1477096329000.0,18634990
190055193,Shelbyville,,1437238517000.0,35.48,-86.47,Connie Bates,TN,1437176518000.0,18634990
186394449,Nashville,Brentwood,1460258313000.0,36.08,-86.72,Courtney,TN,1492204493000.0,18634990
230045695,Nashville,,1500607121000.0,36.08,-86.72,Courtney,TN,1500607121000.0,18634990
225105806,Murfreesboro,,1491401993000.0,35.78,-86.33,Courtney Larry,TN,1491401993000.0,18634990
211685088,Nashville,,1472183994000.0,36.17,-86.78,Cristi,TN,1472183994000.0,18634990
196950580,Nashville,,1450334435000.0,36.15,-86.86,Curtis,TN,1459733898000.0,18634990
190503490,Eva,,1438017394000.0,34.32,-86.74,Curtis Wilson,AL,1438017394000.0,18634990
201350643,Franklin,,1457766424000.0,35.92,-86.89,Cyndi Beltran,TN,1458662343000.0,18634990
232462526,Murfreesboro,,1500850503000.0,35.87,-86.44,Daniel Upton,TN,1500850503000.0,18634990
2220997,Fairview,"Fairview, TN",1470704198000.0,35.97,-87.13,Danny,TN,1470704198000.0,18634990
216255211,Nashville,,1478469548000.0,36.14,-86.74,Danny Klema,TN,1485629171000.0,18634990
214872604,Nashville,,1476376691000.0,36.17,-86.78,Dassie,TN,1496415687000.0,18634990
101361902,Nashville,,1508784586000.0,36.17,-86.72,dave and michelle stanek,TN,1508784586000.0,18634990
69604182,Nashville,,1446583769000.0,36.08,-86.72,David Adkins,TN,1447699726000.0,18634990
202205771,Nashville,,1459016621000.0,36.17,-86.78,David Mead,TN,1459016621000.0,18634990
104691012,Murfreesboro,,1482234401000.0,35.89,-86.47,David O. Lander,TN,1496095816000.0,18634990
235105301,Cottontown,,1503953360000.0,36.49,-86.59,David Whitefield Gould,TN,1503953360000.0,18634990
228477394,Nashville,,1495923489000.0,36.17,-86.79,David Williams,TN,1495923489000.0,18634990
192131406,Nashville,,1441145166000.0,36.17,-86.78,davidson hardin,TN,1441145166000.0,18634990
228743151,Joelton,,1496265777000.0,36.33,-86.91,Davis Dasher,TN,1496265777000.0,18634990
160864182,Clarksville,,1466348468000.0,36.53,-87.35,Dayquan Julienne,TN,1466348468000.0,18634990
192388475,Nashville,,1441743042000.0,36.17,-86.79,Deann Berry,TN,1464805617000.0,18634990
239129976,Nashville,,1508280091000.0,36.14,-86.81,Deanna Smith,TN,1508280091000.0,18634990
191407129,Hendersonville,,1439758738000.0,36.32,-86.61,Deborah ,TN,1439758738000.0,18634990
224905389,Cookeville,,1495033287000.0,36.2,-85.52,Deborah ,TN,1495033287000.0,18634990
190122744,Columbia,,1437321309000.0,35.61,-87.05,Demario,TN,1437321309000.0,18634990
187843653,Nashville,Nashville,1456893421000.0,36.16,-86.79,Dixie ,TN,1456893421000.0,18634990
222439070,Murfreesboro,,1487656423000.0,35.85,-86.36,Domonique Covel,TN,1487656423000.0,18634990
201287627,Franklin,,1457672419000.0,35.92,-86.89,Don Copeland,TN,1457672419000.0,18634990
188784817,Antioch,,1434589310000.0,36.04,-86.64,Donna Waltz,TN,1434589310000.0,18634990
86790902,Franklin,,1433384903000.0,35.93,-86.81,Doug Baron,TN,1485256661000.0,18634990
69331692,Bloomington,,1470436703000.0,40.48,-89.0,Dustin Cain,IL,1470436703000.0,18634990
192792326,Nashville,,1442373595000.0,36.17,-86.78,Edessa Yousefzadeh,TN,1442397045000.0,18634990
198903035,Mount Juliet,,1454208132000.0,36.21,-86.52,Edrick,TN,1459664915000.0,18634990
209568875,Dayton,,1469333863000.0,35.49,-85.02,Elisabeth McGhee,TN,1469333863000.0,18634990
219091871,Nashville,,1490053081000.0,36.17,-86.72,Elizabeth Grace,TN,1490053081000.0,18634990
206108469,Franklin,,1464577934000.0,35.92,-86.89,Elizabeth Styron,TN,1464577934000.0,18634990
219114378,Nashville,,1483399674000.0,36.08,-86.72,Elliott Neece,TN,1483399674000.0,18634990
194681648,Clarksville,,1445893098000.0,36.56,-87.41,Emilie,TN,1445893098000.0,18634990
198964977,Antioch,,1454300524000.0,36.04,-86.64,Emily Carty,TN,1481217875000.0,18634990
219359431,Murfreesboro,,1483682985000.0,35.85,-86.36,Emily Darcy,TN,1483682985000.0,18634990
214973487,Nashville,,1476558548000.0,36.17,-86.78,Emmanuel Ogunkoya,TN,1476558548000.0,18634990
186045687,Nashville,,1435921553000.0,36.08,-86.72,Emrith Hodge,TN,1435921553000.0,18634990
201138077,Readyville,,1457456972000.0,35.82,-86.22,Erin Rowland,TN,1457476995000.0,18634990
212178512,Memphis,,1472864534000.0,35.02,-89.87,Erlinda Barrios,TN,1472864534000.0,18634990
226084539,Nashville,,1492752786000.0,36.17,-86.78,Ethan Charles,TN,1492752786000.0,18634990
13116777,Nashville,,1435518836000.0,36.13,-86.8,Evan Edwards,TN,1463445574000.0,18634990
198586815,Nashville,,1453693533000.0,36.17,-86.78,Fletcher Pickering,TN,1453693533000.0,18634990
192974586,Nashville,,1442724342000.0,36.06,-86.96,Forward grace,TN,1442724342000.0,18634990
208258435,Nashville,,1467512387000.0,36.17,-86.78,Francesca ,TN,1467512387000.0,18634990
214184798,Nashville,,1508592618000.0,36.17,-86.78,Fred Johnson,TN,1508592618000.0,18634990
232595107,Nashville,,1501008874000.0,36.11,-86.78,Freddie,TN,1501008874000.0,18634990
205104317,Madison,,1463193304000.0,36.26,-86.71,Funguy84,TN,1463193304000.0,18634990
233089457,Pleasant View,,1502509728000.0,36.38,-87.04,Gabriel Chastain,TN,1502509728000.0,18634990
218395158,Clarksville,,1482124758000.0,36.53,-87.34,Garland Cain,TN,1482124758000.0,18634990
35235252,Nashville,,1441291160000.0,36.13,-86.8,Gayle Goad,TN,1503755993000.0,18634990
103120532,Nashville,Nashville,1433376829000.0,36.11,-86.86,Georgeanne,TN,1435512217000.0,18634990
225227376,Nashville,,1491580043000.0,36.17,-86.78,Georgina ,TN,1491580043000.0,18634990
196921508,Franklin,,1450270068000.0,35.93,-86.81,giselle newman,TN,1450270068000.0,18634990
71662782,Antioch,,1473178603000.0,36.04,-86.64,Gladys ,TN,1473178603000.0,18634990
46121842,Murfreesboro,New Orleans,1434684761000.0,35.78,-86.33,Glenda Padilla Moret,TN,1442571601000.0,18634990
236020975,Nashville,,1504935300000.0,36.17,-86.78,Grace Harrison,TN,1504935300000.0,18634990
213868661,Nashville,"Nashville, TN",1479587513000.0,36.11,-86.78,Greg,TN,1504562935000.0,18634990
198199791,Lynchburg,Lynchburg,1452983313000.0,37.41,-79.13,Greg Cassady,VA,1459647937000.0,18634990
10635706,Folsom,,1468391995000.0,38.68,-121.16,Greg Rankin,CA,1468391995000.0,18634990
200485124,Flint,,1456536992000.0,42.97,-83.78,Greg Starr,MI,1456536992000.0,18634990
202880733,Antioch,,1459991814000.0,36.04,-86.64,Gregory,TN,1459991814000.0,18634990
219479192,Nashville,,1483837292000.0,36.1,-86.66,Gretta Anderson,TN,1483837292000.0,18634990
229352465,Brentwood,,1497021104000.0,36.0,-86.79,Griffin,TN,1497021104000.0,18634990
208689759,Nashville,,1468090452000.0,36.17,-86.78,Gus Macdonald,TN,1468090452000.0,18634990
78930962,Nashville,,1433338640000.0,36.16,-86.79,H David Schaefer,TN,1436417241000.0,18634990
225865908,Nashville,,1492467781000.0,36.15,-86.86,Hallie Hillemann,TN,1492467781000.0,18634990
198028986,Dickson,,1452653736000.0,36.08,-87.43,Hanna,TN,1452653736000.0,18634990
208461593,Nashville,,1467778886000.0,36.18,-86.74,Hannah Klein,TN,1467778886000.0,18634990
233872016,Thompsons Station,,1502534213000.0,35.8,-86.9,Hayley,TN,1502534213000.0,18634990
12635934,Nashville,,1506886117000.0,36.16,-86.79,Heather,TN,1506886117000.0,18634990
198889841,Murfreesboro,,1454189621000.0,35.82,-86.45,Heather,TN,1454189621000.0,18634990
129734652,Hermitage,"Hudsonville, MI",1453590214000.0,36.19,-86.6,Heather F,TN,1460837061000.0,18634990
212043415,Nashville,,1488504573000.0,36.07,-86.73,Holly molly,TN,1488504573000.0,18634990
231997258,Smyrna,,1500275505000.0,35.97,-86.51,Irfan Ali,TN,1500275505000.0,18634990
210013317,Nashville,,1470162494000.0,36.17,-86.78,Issam Bahour,TN,1470162494000.0,18634990
230973773,Fort Campbell,,1499046155000.0,36.65,-87.46,Jacob,KY,1499046155000.0,18634990
189204028,Murfreesboro,Murfreesboro,1447594503000.0,35.82,-86.45,James,TN,1447594503000.0,18634990
214954905,Nashville,,1476493408000.0,36.11,-86.86,James Rich,TN,1476493408000.0,18634990
217291937,Nashville,,1480169701000.0,36.06,-86.96,Jamie Baker,TN,1480169701000.0,18634990
205622298,Nashville,,1463887722000.0,36.18,-86.74,Jane Santiago,TN,1463887722000.0,18634990
227598901,Hendersonville,,1494813884000.0,36.32,-86.61,Jared Moore,TN,1494813884000.0,18634990
215821418,Nashville,,1477794126000.0,36.14,-86.74,Jarvis B. Puckett,TN,1477794126000.0,18634990
205424920,Nashville,,1463610477000.0,36.17,-86.78,Jason Alan,TN,1483496506000.0,18634990
136303722,Nashville,"Nashville, TN",1447194047000.0,36.06,-86.96,Jason Soucy,TN,1447194047000.0,18634990
227226138,Nashville,,1494295083000.0,36.07,-86.78,Jay,TN,1494295083000.0,18634990
232504138,Fort Campbell,,1500906062000.0,36.65,-87.46,Jayson Rich,KY,1500906062000.0,18634990
221181978,Chapmansboro,,1485983094000.0,36.37,-87.14,Jc Martinez,TN,1489267833000.0,18634990
188907404,Nashville,,1434845273000.0,36.11,-86.78,Jeannger,TN,1434845273000.0,18634990
217424606,Hermitage,,1480388643000.0,36.19,-86.6,Jeff Bjorklund (swedishjeff),TN,1480388643000.0,18634990
208489590,Hendersonville,,1471655081000.0,36.32,-86.61,Jennifer,TN,1471655081000.0,18634990
205617221,Greenbrier,,1466969862000.0,36.43,-86.8,Jennifer and Rick,TN,1469207793000.0,18634990
191489221,Chapmansboro,,1439913458000.0,36.37,-87.14,Jennifer Chaffin Gagnon,TN,1439913458000.0,18634990
214582672,Nashville,,1475947604000.0,36.09,-86.82,Jennifer Justice,TN,1475947604000.0,18634990
210773736,Nashville,,1470883944000.0,36.15,-86.86,Jennifer Litos,TN,1470972636000.0,18634990
95599772,Nashville,,1458094717000.0,36.1,-86.66,Jenny,TN,1458094717000.0,18634990
184114600,Nashville,,1451697215000.0,36.17,-86.78,Jenny,TN,1452986735000.0,18634990
150967352,Nashville,"Roanoke, VA",1469827685000.0,36.17,-86.78,Jeremy Collins Stelmack,TN,1469827685000.0,18634990
195560970,Clarksville,,1447521989000.0,36.56,-87.41,Jeremy White ,TN,1447521989000.0,18634990
24429192,Nashville,Harrisonburg,1501802717000.0,36.08,-86.72,Jesse Lenker,TN,1504305929000.0,18634990
38690452,Nashville,Cypress,1442206723000.0,36.11,-86.8,Jessica,TN,1456589797000.0,18634990
67326632,Nashville,Bellevue,1494185341000.0,36.06,-86.96,Jessica Dodrill,TN,1494185341000.0,18634990
210072704,Nashville,,1470271901000.0,36.17,-86.78,Jessica Elyse,TN,1491159369000.0,18634990
204626353,Nashville,,1462509323000.0,36.16,-86.79,Jessica Hill,TN,1462509323000.0,18634990
233252136,Nashville,,1501829055000.0,36.21,-86.72,Jill Townsend,TN,1501829055000.0,18634990
193436948,Nashville,,1443581787000.0,36.09,-86.82,Jim Jirjis,TN,1443581787000.0,18634990
196267339,Nashville,,1480378613000.0,36.08,-86.72,Jim Sippo Cipollini,TN,1487437657000.0,18634990
192375231,Nashville,,1441618951000.0,36.08,-86.72,Jimmy,TN,1441618951000.0,18634990
207030903,Nashville,,1465822712000.0,36.17,-86.78,Joe Engstrom,TN,1465822712000.0,18634990
188274724,Nashville,,1433560173000.0,36.08,-86.72,Joe Lambert,TN,1436904695000.0,18634990
183201332,Franklin,"Stony Brook, NY",1433473027000.0,35.92,-86.89,Joe T,TN,1467840065000.0,18634990
208221003,Madison,,1467466539000.0,36.26,-86.71,John Grigg,TN,1467466539000.0,18634990
219105350,Nashville,,1483392395000.0,36.17,-86.78,Jon Jaffe,TN,1496420459000.0,18634990
107048712,Nashville,"Miami, FL",1472263899000.0,36.15,-86.86,Jonathan,TN,1472263899000.0,18634990
199157981,Antioch,,1454603724000.0,36.04,-86.64,Joplin,TN,1454603724000.0,18634990
236835088,Chapel Hill,,1505750553000.0,35.62,-86.62,Joseph Olson,TN,1505750553000.0,18634990
232369089,Nashville,,1500736086000.0,36.09,-86.82,Josh Cottrill,TN,1500736086000.0,18634990
111792152,Linden,,1489063687000.0,38.02,-121.09,josh luck,CA,1489063687000.0,18634990
208841405,Nashville,,1468339878000.0,36.17,-86.78,Joy,TN,1468339878000.0,18634990
199270888,Nashville,,1472088858000.0,36.09,-86.63,JP Fulks,TN,1475633860000.0,18634990
216552004,Murfreesboro,,1478958330000.0,35.78,-86.33,Jude,TN,1478958330000.0,18634990
232337587,Hendersonville,,1500689148000.0,36.32,-86.61,julia,TN,1500689148000.0,18634990
192638769,Nashville,,1442095566000.0,36.11,-86.86,Julie,TN,1442095566000.0,18634990
231968354,Fairview,,1500239965000.0,35.97,-87.13,K,TN,1500239965000.0,18634990
203645962,Hendersonville,,1461082774000.0,36.32,-86.61,K.C Kephart,TN,1461082774000.0,18634990
203834478,Hendersonville,,1461357128000.0,36.32,-86.61,Kaitlin Ward,TN,1461357128000.0,18634990
197183245,Nashville,"Columbia, TN",1450921910000.0,36.17,-86.78,Kanesha Patterson,TN,1450921910000.0,18634990
47618912,Nashville,,1437851868000.0,36.14,-86.74,Karen,TN,1470403469000.0,18634990
212707133,Brentwood,,1473573646000.0,36.0,-86.79,Karen Clark,TN,1473573646000.0,18634990
225126935,College Grove,,1491742539000.0,35.77,-86.71,Karen Collier,TN,1491742539000.0,18634990
137503112,Shenzhen,,1492957297000.0,22.53,114.13,Karen G,,1492957297000.0,18634990
154895632,Hendersonville,,1501616925000.0,36.32,-86.61,Kari,TN,1501616925000.0,18634990
192315664,Antioch,"Memphis, TN",1441501122000.0,36.04,-86.64,Karl Lashun Dean Jr,TN,1441501122000.0,18634990
2661540,Brooklyn,Brooklyn,1464866495000.0,40.68,-73.96,Karmen,NY,1481903113000.0,18634990
202050659,Nashville,,1458765902000.0,36.13,-86.8,Katherine Powers,TN,1458765902000.0,18634990
129989822,Hermitage,,1439434262000.0,36.19,-86.6,Kati,TN,1441501463000.0,18634990
227080817,Nashville,,1494165080000.0,36.15,-86.78,Katie Beth Miedaner,TN,1494246447000.0,18634990
205234154,Nashville,,1463363293000.0,36.06,-86.96,Katie Koewler,TN,1466117271000.0,18634990
194396758,Nashville,,1445382675000.0,36.18,-86.74,Katy P,TN,1457478875000.0,18634990
222066463,Nashville,,1487136462000.0,36.17,-86.72,Kayla M. Graf,TN,1487136462000.0,18634990
229873547,Nashville,,1497705709000.0,36.17,-86.78,Kelly Chaffin,TN,1497705709000.0,18634990
235669902,Nashville,,1504574573000.0,36.17,-86.78,Kelly Kraisinger,TN,1504574573000.0,18634990
212284382,Nashville,,1473013995000.0,36.17,-86.78,Kelly Rion,TN,1473013995000.0,18634990
193926163,Nashville,,1444515882000.0,36.11,-86.86,Kels,TN,1444515882000.0,18634990
202389001,Nashville,,1459284863000.0,36.16,-86.79,Kelsey Canfield,TN,1459445328000.0,18634990
204307684,Murfreesboro,,1462051356000.0,35.78,-86.33,Kelsey Kovar,TN,1462051356000.0,18634990
231967533,Antioch,,1500238740000.0,36.04,-86.64,Kelsey Wilsher,TN,1500238740000.0,18634990
182982296,Washington,,1450494698000.0,38.91,-77.02,Kevin,DC,1455893452000.0,18634990
206632578,Nashville,,1465286324000.0,36.17,-86.78,Kevin Cavey,TN,1465286324000.0,18634990
202224239,Nashville,,1459988566000.0,36.15,-86.86,Kevin Liu,TN,1487440214000.0,18634990
201087582,Hendersonville,,1457384989000.0,36.32,-86.61,Kiesha Resha,TN,1457384989000.0,18634990
11953041,Nashville,Nashville,1433563098000.0,36.06,-86.96,Kimberly holcombe ,TN,1443757329000.0,18634990
195209363,Brentwood,,1446863513000.0,36.0,-86.79,Kirk Gripenstraw,TN,1446863513000.0,18634990
189398052,Eagleville,,1435863940000.0,35.75,-86.64,Kirstin,TN,1435863940000.0,18634990
155958632,Nashville,,1506651447000.0,36.17,-86.78,Kristen Beal,TN,1506651447000.0,18634990
190939281,Nashville,,1438824330000.0,36.16,-86.66,Kristine R,TN,1483408368000.0,18634990
196320903,Nashville,,1449048888000.0,36.14,-86.74,Kunta Bliss,TN,1464217407000.0,18634990
188791273,Clarksville,"Antioch, TN",1434597404000.0,36.53,-87.35,Kyanne Richmond,TN,1434990956000.0,18634990
13204678,Nashville,,1442800767000.0,36.13,-86.8,Kyle Greenwood,TN,1442800767000.0,18634990
208165817,Nashville,Nashville,1467384140000.0,36.22,-86.77,Landon Drake Bell,TN,1505447106000.0,18634990
6458794,Nashville,Nashville,1475882934000.0,36.16,-86.79,Lannae,TN,1475882934000.0,18634990
41099822,Nashville,Richmond,1433510051000.0,36.14,-86.74,Larry I. Jones,TN,1498145344000.0,18634990
190953808,Nashville,,1438859813000.0,36.17,-86.78,Laura,TN,1438859813000.0,18634990
205788143,Goodlettsville,,1464113993000.0,36.28,-86.75,Laura,TN,1464113993000.0,18634990
195021267,Nashville,,1446515264000.0,36.17,-86.72,Laura,TN,1446515264000.0,18634990
221418300,Murfreesboro,,1486269667000.0,35.78,-86.33,Laura Maas,TN,1493344426000.0,18634990
212823747,Nashville,,1480392290000.0,36.17,-86.78,Lauren Brooke Finney,TN,1483746390000.0,18634990
190522068,Thompsons Station,,,35.8,-86.9,,TN,,18634990
222487532,Nashville,,1487720253000.0,36.17,-86.78,Laya B,TN,1487720253000.0,18634990
231144933,Nashville,,1499261103000.0,36.17,-86.78,Leanne Cassell Malone,TN,1499261103000.0,18634990
195466745,Nashville,,1447338918000.0,36.17,-86.72,Leigh Anne Lewis,TN,1447338918000.0,18634990
194733674,Thompsons Station,,1445980184000.0,35.8,-86.9,Leni,TN,1445980184000.0,18634990
193701350,Nashville,,1444929470000.0,36.17,-86.78,Leslie Sneed,TN,1483707053000.0,18634990
238125078,Franklin,,1507165324000.0,35.92,-86.89,Leslie Stamper,TN,1507165324000.0,18634990
211917098,Franklin,,1472505884000.0,35.92,-86.89,Levi Scott,TN,1472505884000.0,18634990
198189651,Nashville,,1452968748000.0,36.17,-86.78,Lil,TN,1458448439000.0,18634990
225231768,Nashville,,1491586145000.0,36.13,-86.8,Lily Norton,TN,1491586145000.0,18634990
229662757,Murfreesboro,,1497399473000.0,35.85,-86.36,Lin H,TN,1497399473000.0,18634990
8440245,Nashville,,1473397637000.0,36.06,-86.96,Lindsay,TN,1488340774000.0,18634990
3468787,Nashville,,1433330909000.0,36.17,-86.72,Lisa,TN,1433330909000.0,18634990
202234238,Lebanon,,1459058241000.0,36.15,-86.32,Lisa,TN,1459058241000.0,18634990
238496104,Hendersonville,,1507567685000.0,36.3,-86.62,Logan Eagles,TN,1507567685000.0,18634990
208512168,Nashville,,1468092461000.0,36.17,-86.78,Lori,TN,1468115148000.0,18634990
192119143,Antioch,,1441126407000.0,36.04,-86.64,Lynn Burns,TN,1441126407000.0,18634990
208908686,Franklin,,1468365094000.0,35.92,-86.89,Mackenzie ,TN,1468365094000.0,18634990
233599190,Clarksville,,1502225099000.0,36.53,-87.35,Madam Casha Ming,TN,1502225099000.0,18634990
194700251,Franklin,,1445920982000.0,35.92,-86.89,Madison,TN,1447395235000.0,18634990
216509820,Nashville,Nashville,1489259025000.0,36.11,-86.78,Maggie McDaniel,TN,1489259025000.0,18634990
192042906,Mammoth Cave,,1440980115000.0,37.28,-86.19,Maggie Mudd,KY,1440980115000.0,18634990
202513551,Nashville,,1459475246000.0,36.07,-86.73,Maggie Pomy,TN,1459774618000.0,18634990
113218182,Nashville,,1456848980000.0,36.1,-86.72,Manoja ,TN,1470469153000.0,18634990
191443293,Madison,,1439829686000.0,36.26,-86.71,MarciE,TN,1439829686000.0,18634990
228942697,Nashville,,1496516752000.0,36.13,-86.8,Marian D.,TN,1496516752000.0,18634990
210096250,Fosterville,,1469933875000.0,35.75,-86.39,Mario Allen,TN,1469933875000.0,18634990
177252382,Murfreesboro,"Milan, OH",1438357627000.0,35.87,-86.44,Mark,TN,1438700564000.0,18634990
189758802,Santa Fe,,1437238517000.0,35.76,-87.17,Mark Gonzalez,TN,1437240307000.0,18634990
191720758,Nashville,,1440365009000.0,36.17,-86.78,Marlo,TN,1440365009000.0,18634990
220163197,Nashville,,1484696374000.0,36.17,-86.78,Marsha,TN,1484777213000.0,18634990
195051573,Franklin,,1446572109000.0,35.92,-86.89,Martha,TN,1455767206000.0,18634990
12260818,Nashville,Nashville,1433501882000.0,36.18,-86.74,Martha Lisle,TN,1483318860000.0,18634990
221212756,Nashville,,1486023407000.0,36.17,-86.78,Martynas Šustavi?ius,TN,1486023407000.0,18634990
196177820,Fairview,,1448741563000.0,35.97,-87.13,marvin bateman,TN,1448741563000.0,18634990
188471146,Nashville,,1434027968000.0,36.18,-86.81,Mary,TN,1434027968000.0,18634990
233231433,Nashville,,1501802879000.0,36.17,-86.78,Mary Ann G,TN,1501943202000.0,18634990
65763922,Hermitage,"Cleveland, Ohio",1440264637000.0,36.19,-86.6,Mary Ellen Ludwig,TN,1450667337000.0,18634990
10734674,Nashville,Nashville,1433416275000.0,36.17,-86.78,Mary Jo Jones,TN,1479698306000.0,18634990
194574655,Hendersonville,,1445707333000.0,36.32,-86.61,Mary Leslie Pitt,TN,1445707333000.0,18634990
196126919,Brentwood,,1457060491000.0,36.0,-86.79,Mary Thursby,TN,1469231375000.0,18634990
233455766,Nashville,,1502062697000.0,36.18,-86.74,Matt ,TN,1502427413000.0,18634990
219037028,Shelbyville,,1483311582000.0,35.48,-86.47,Matt Fuller,TN,1483311582000.0,18634990
209422296,Nashville,,1469036991000.0,36.08,-86.72,Matt Pingel,TN,1469036991000.0,18634990
191607517,Brentwood,,1440139668000.0,36.0,-86.79,Matthew Brajkovich,TN,1444151807000.0,18634990
209877119,Nashville,,1469635357000.0,36.17,-86.78,Matthew Wuthrich,TN,1496278869000.0,18634990
194345655,Nashville,,1445294120000.0,36.14,-86.81,Maureen,TN,1456975301000.0,18634990
222611893,Nashville,,1487891083000.0,36.21,-86.72,Megan Canty,TN,1487891083000.0,18634990
216077243,Nashville,,1478193922000.0,36.22,-86.77,Megan Davis,TN,1478193922000.0,18634990
222531934,Florence,,1487785316000.0,34.82,-87.66,Meggin Major,AL,1487785316000.0,18634990
106022732,Hermitage,"Hermitage, TN",1437773924000.0,36.19,-86.6,Melinda Judy,TN,1480141121000.0,18634990
189586771,Nashville,,1436254627000.0,36.14,-86.74,Melinda Patrice Pinder ,TN,1436254627000.0,18634990
215970349,Nashville,,1478029061000.0,36.11,-86.86,Michael Butler,TN,1478029061000.0,18634990
67666832,Goodlettsville,Pataskala ,1458315865000.0,36.32,-86.72,Michael Monnin,TN,1458315865000.0,18634990
196677945,Nashville,,1449722204000.0,36.17,-86.78,Michele Crater,TN,1449722204000.0,18634990
191125326,Nashville,,1439205259000.0,36.17,-86.78,Michelle Johnson,TN,1447848583000.0,18634990
229610139,Nashville,,1497343285000.0,36.17,-86.78,Milo Towers,TN,1497343285000.0,18634990
217332807,Nashville,,1480241082000.0,36.08,-86.72,Minnie Murphy,TN,1480241082000.0,18634990
209314088,Nashville,,1493579588000.0,36.18,-86.73,Miranda,TN,1499823545000.0,18634990
211027856,Nashville,,1471906027000.0,36.08,-86.72,Miriam,TN,1471906027000.0,18634990
211851474,Antioch,,1472417382000.0,36.17,-86.88,Mizani Mrinquisitive Mysteree,TN,1472417382000.0,18634990
158986022,Nashville,,1475291126000.0,36.14,-86.82,Morgan,TN,1475291126000.0,18634990
214994263,Nashville,,1476557503000.0,36.07,-86.78,Nah Rutledge,TN,1476557503000.0,18634990
33807992,Hermitage,"Pleasant View, TN",1434526873000.0,36.19,-86.6,Nancy Neal,TN,1443792196000.0,18634990
226632291,Nashville,,1493490266000.0,36.11,-86.86,Natalie Davant,TN,1493490266000.0,18634990
53071102,Nashville,Nashville ,1487457394000.0,36.17,-86.72,Natalya,TN,1503761753000.0,18634990
155888802,Nashville,"Nashville, TN",1432930151000.0,36.09,-86.82,Neil Norman,TN,1508788092000.0,18634990
233741064,Nashville,,1502384709000.0,36.08,-86.72,Netje Benjamin,TN,1502384709000.0,18634990
8411507,Nashville,Burlington,1464159161000.0,36.17,-86.78,Nic,TN,1494698404000.0,18634990
224921490,Nashville,,1491145566000.0,36.15,-86.81,Nicole ,TN,1491145566000.0,18634990
185759083,Franklin,,1445385739000.0,35.92,-86.89,Nicole Wiley,TN,1445385739000.0,18634990
203902663,Nashville,,1461457537000.0,36.16,-86.79,Nimit Shah,TN,1461462660000.0,18634990
230314872,Nashville,,1498230010000.0,36.17,-86.78,Nishita Dsouza,TN,1498405054000.0,18634990
197697543,Nashville,,1452049946000.0,36.17,-86.78,Niya Murphy,TN,1453854811000.0,18634990
175569102,Seattle,,1494333205000.0,47.61,-122.33,Noelle Denisi,WA,1494333205000.0,18634990
16170091,Nashville,Nashville,1434222723000.0,36.13,-86.8,Noka,TN,1448083998000.0,18634990
234168251,Franklin,,1502887962000.0,35.93,-86.81,Olivia Oetjens,TN,1502887962000.0,18634990
191454247,Antioch,,1439845348000.0,36.04,-86.64,Osikhena Omoh Ojior,TN,1439845348000.0,18634990
55342792,Nashville,,1443479835000.0,36.08,-86.72,oti obilor,TN,1443479835000.0,18634990
43942242,Raleigh,Durham,1475084988000.0,35.86,-78.54,Padmini Kirpalani,NC,1476467272000.0,18634990
197691296,Nashville,,1452039203000.0,36.09,-86.82,Paige,TN,1469072876000.0,18634990
97152212,Nashville,"Somerville, NJ",1474592077000.0,36.17,-86.78,Pam H,TN,1507314224000.0,18634990
8334399,Nashville,"Huntsville, AL",1497457495000.0,36.17,-86.78,Pamela,TN,1497457495000.0,18634990
81306342,Antioch,"Barrington, IL",1445010942000.0,36.17,-86.88,Paul,TN,1445186343000.0,18634990
186155786,La Vergne,,1455751656000.0,36.01,-86.57,Paula Cropper,TN,1455751656000.0,18634990
206963449,Nashville,"México City, MX",1465731303000.0,36.08,-86.72,Paulina Yescas,TN,1465731303000.0,18634990
87746432,Nashville,Nashville,1469977254000.0,36.18,-86.81,PC Fleming,TN,1477424057000.0,18634990
236532848,Chapmansboro,,1505431490000.0,36.37,-87.14,Penny Kong,TN,1505431490000.0,18634990
193804901,Goodlettsville,"Nashville, TN ",1444285790000.0,36.33,-86.74,Peyton Campbell,TN,1444285790000.0,18634990
203482179,New York,,1460852455000.0,40.75,-73.99,Peyton Parker,NY,1460852455000.0,18634990
205118866,Antioch,,1463217837000.0,36.04,-86.64,Phillip Lavallet,TN,1463217837000.0,18634990
205735599,Nashville,,1464040739000.0,36.08,-86.72,Queen Amidala,TN,1467120086000.0,18634990
13431634,Nashville,Donelson,1460691316000.0,36.17,-86.72,Rachel,TN,1477656069000.0,18634990
217033926,Murfreesboro,,1479701996000.0,35.84,-86.39,Rae StFort,TN,1479701996000.0,18634990
214079627,Nashville,,1475289471000.0,36.17,-86.72,Ray W,TN,1475289471000.0,18634990
229816429,Nashville,,1497610189000.0,36.17,-86.78,Rebecca Saterfield,TN,1497650229000.0,18634990
190354429,Nashville,,1437754146000.0,36.17,-86.78,Rebecca Skelly,TN,1437754146000.0,18634990
479412,Nashville,Nashville,1439356356000.0,36.15,-86.86,Regina A DuBois,TN,1500333729000.0,18634990
197589217,Whites Creek,,1468628437000.0,36.27,-86.83,reginald harris,TN,1469242218000.0,18634990
184699351,Hermitage,,1452482040000.0,36.19,-86.6,Rhaiana Campbell,TN,1482713713000.0,18634990
226502472,Nashville,,1493306841000.0,36.11,-86.67,Richard Beauchamp,TN,1493306841000.0,18634990
189576269,Nashville,,1436229975000.0,36.16,-86.79,RJ ,TN,1436229975000.0,18634990
218782366,Nashville,,1482901535000.0,36.15,-86.81,Ro Whi,TN,1482901535000.0,18634990
192236405,Columbia,,1441345978000.0,35.61,-87.05,Robert Selby,TN,1441345978000.0,18634990
167059852,Nashville,,1440037708000.0,36.09,-86.82,Robyn Shibano,TN,1447333793000.0,18634990
218222873,Smyrna,,1481784215000.0,35.97,-86.51,Roger H,TN,1481784215000.0,18634990
205986160,Lebanon,,1464397297000.0,36.21,-86.31,Ronda Kay,TN,1489272763000.0,18634990
218214313,Nashville,,1481767563000.0,36.15,-86.86,Ronnie Thomas,TN,1481767563000.0,18634990
214207348,Clarksville,,1475451450000.0,36.56,-87.35,Ruth Coats,TN,1475451450000.0,18634990
188734438,Hermitage,Hermitage,1438195632000.0,36.19,-86.6,Ryan Yamada,TN,1438195632000.0,18634990
166082312,Nashville,Franklin,1453329529000.0,36.13,-86.86,Sagar,TN,1500009145000.0,18634990
238815972,Nashville,,1507922570000.0,36.16,-86.77,Sammy D,TN,1507922570000.0,18634990
209351807,Readyville,,1468946644000.0,35.82,-86.22,Samuel Nokovich,TN,1468946644000.0,18634990
224878431,Murfreesboro,,1491077424000.0,35.87,-86.44,Sandra Hurlburt,TN,1491449100000.0,18634990
203094815,Spring Hill,,1460340417000.0,35.76,-86.88,Sandra Roberts,TN,1498367576000.0,18634990
220251010,Nashville,,1484802855000.0,36.22,-86.77,Sara Weber,TN,1484802855000.0,18634990
97818942,Nashville,,1437597745000.0,36.13,-86.8,Sarah,TN,1468294087000.0,18634990
194170893,Mount Juliet,,1444961936000.0,36.22,-86.52,Sarah,TN,1444961936000.0,18634990
208807516,Mount Juliet,,1468246777000.0,36.21,-86.52,Sarah,TN,1468246777000.0,18634990
15997811,Nashville,"Rosendale, NY",1471708922000.0,36.18,-86.74,Sarah Rankin,TN,1471708922000.0,18634990
218504844,Nashville,Portland,1496429358000.0,36.06,-86.96,Sari Tullis,TN,1496620438000.0,18634990
237966825,Nashville,,1506994082000.0,36.07,-86.73,Scott Hartsell,TN,1506994082000.0,18634990
224882707,Smyrna,,1491082501000.0,35.97,-86.51,Scott Marshall,TN,1491082501000.0,18634990
205525097,Nashville,,1463754411000.0,36.13,-86.8,Sean McHugh,TN,1463754411000.0,18634990
200407318,Nashville,"Lima, PE",1467744967000.0,36.17,-86.78,Sebastián Alegre,TN,1467744967000.0,18634990
214764664,Gallatin,,1476221629000.0,36.39,-86.45,Selena ,TN,1476221629000.0,18634990
238891791,Murfreesboro,,1508011857000.0,35.87,-86.44,seth brown,TN,1508011857000.0,18634990
210431008,Mount Juliet,,1470408031000.0,36.21,-86.52,Seth Walker,TN,1480126177000.0,18634990
201446141,Brentwood,,1457901271000.0,36.0,-86.79,Shamra Winford,TN,1457901271000.0,18634990
216374980,Nashville,,1478652761000.0,36.15,-86.79,Shannon Lutes,TN,1478652761000.0,18634990
211066818,Franklin,,1471953502000.0,35.92,-86.89,Shari,TN,1471953502000.0,18634990
214361681,Nashville,,1478559535000.0,36.08,-86.72,Sharon Simmons,TN,1480095807000.0,18634990
205921919,Franklin,,1464384464000.0,35.92,-86.89,Shawnda,TN,1464384464000.0,18634990
198045295,Nashville,,1452693289000.0,36.13,-86.8,Shay,TN,1452819058000.0,18634990
209512394,Nashville,,1471718514000.0,36.17,-86.78,Sophia Marie Gault,TN,1472659426000.0,18634990
139478132,Nashville,,1439835757000.0,36.18,-86.74,Sophie Gault,TN,1439835757000.0,18634990
195477088,Nashville,,1447359069000.0,36.17,-86.78,Stacey Schauer,TN,1447633244000.0,18634990
194519075,Nashville,,1445610795000.0,36.06,-86.96,Staci Langloss,TN,1461183358000.0,18634990
232433501,Nashville,,1500820682000.0,36.16,-86.66,Stella Yarbrough,TN,1500820682000.0,18634990
224811331,Lebanon,,1490980708000.0,36.21,-86.31,Stephanie Anderson,TN,1490980708000.0,18634990
230132340,Spring Hill,,1498011744000.0,35.76,-86.88,Stephanie Wilson,TN,1498011744000.0,18634990
229735280,Mount Juliet,,1497494417000.0,36.21,-86.52,Stephen Broyles,TN,1497494417000.0,18634990
189353457,Nashville,,1435771007000.0,36.16,-86.79,Stephen Landry,TN,1435771007000.0,18634990
175147172,Nashville,,1436454815000.0,36.17,-86.78,Sterling Rogers,TN,1436454815000.0,18634990
206678746,Nashville,,1465339853000.0,36.17,-86.78,Steve Vining,TN,1465339853000.0,18634990
224565554,Gallatin,,1490642875000.0,36.39,-86.45,Steven Brent,TN,1490642875000.0,18634990
229114345,Franklin,,1496716855000.0,35.92,-86.89,Sue Manley Lombardo,TN,1496716855000.0,18634990
189199370,Nashville,,1435449877000.0,36.06,-86.96,Summer Sims,TN,1457562071000.0,18634990
141834542,Nashville,,1433340462000.0,36.11,-86.86,Susan,TN,1433564652000.0,18634990
204058317,Nashville,,1461679894000.0,36.09,-86.82,Susan,TN,1461724356000.0,18634990
102251202,Nashville,Nashville,1458612609000.0,36.08,-86.72,Susan Saums,TN,1458612609000.0,18634990
194888341,Franklin,,1446269695000.0,35.92,-86.89,Suzanne,TN,1456091661000.0,18634990
12134295,Nashville,,1442372678000.0,36.15,-86.86,Suzanne,TN,1485641043000.0,18634990
193308554,Nashville,,1443359970000.0,36.17,-86.78,Suzy Adkins,TN,1443359970000.0,18634990
192130478,Eagleville,,1441144300000.0,35.75,-86.64,Sydney Francisco,TN,1441144300000.0,18634990
144013072,Nashville,,1452047988000.0,36.08,-86.72,Tabitha Tanner,TN,1452811997000.0,18634990
205282643,Lebanon,,1463431913000.0,36.21,-86.31,Tami Shahan,TN,1463431913000.0,18634990
189086146,Brentwood,,1435203751000.0,36.0,-86.79,Tanya Nyusa,TN,1436317736000.0,18634990
234154899,Franklin,,1508399258000.0,35.92,-86.89,Tanya Parsley,TN,1508399258000.0,18634990
126525082,Nashville,,1498352432000.0,36.13,-86.8,TeamLockhart,TN,1498352432000.0,18634990
209687131,Hendersonville,,1469391952000.0,36.32,-86.61,Tee,TN,1469391952000.0,18634990
202846515,Wartrace,,1459949368000.0,35.5,-86.34,Terence Davis,TN,1459949368000.0,18634990
13702065,Goodlettsville,"Goodlettsville, TN",1486234101000.0,36.33,-86.74,Teresa,TN,1487439826000.0,18634990
125035192,Antioch,,1451056191000.0,36.17,-86.88,Therese Brumfield,TN,1451056191000.0,18634990
193874989,Nashville,,1465323479000.0,36.08,-86.72,Thomas Brown,TN,1465323479000.0,18634990
209455831,Nashville,,1469075965000.0,36.17,-86.72,Thomas Carter,TN,1469075965000.0,18634990
200533321,Lebanon,,1456589762000.0,36.21,-86.31,Tierney Campbell,TN,1456589762000.0,18634990
205455245,Nashville,,1463655297000.0,36.15,-86.86,Tiffany Rogers,TN,1463655297000.0,18634990
112155732,Nashville,,1468906655000.0,36.17,-86.78,Tim Miller,TN,1494297239000.0,18634990
218822614,Nashville,,1482970968000.0,36.17,-86.78,Tina B,TN,1482970968000.0,18634990
225777543,Joelton,,1492345988000.0,36.33,-86.91,Tina Pugh,TN,1492345988000.0,18634990
228727740,Murfreesboro,,1496249506000.0,35.87,-86.44,Tito Espinoza,TN,1496249506000.0,18634990
1952821,Atlanta,,1463017039000.0,33.94,-84.32,Toi,GA,1507073688000.0,18634990
209182680,Nashville,,1468729716000.0,36.17,-86.78,Tom Mork,TN,1468729716000.0,18634990
226248808,Brentwood,,1492974776000.0,36.0,-86.79,Tori,TN,1492987820000.0,18634990
227382202,Nashville,,1494509317000.0,36.08,-86.72,Travis Green,TN,1494509317000.0,18634990
226202054,Nashville,,1492908678000.0,36.15,-86.79,Travis Swartz,TN,1492973181000.0,18634990
195393262,Nashville,,1447199183000.0,36.07,-86.73,Trevor,TN,1449093271000.0,18634990
105250112,Murfreesboro,,1480040366000.0,35.82,-86.45,Tyler Woodbridge,TN,1485299472000.0,18634990
218668783,Murfreesboro,,1487447692000.0,35.78,-86.33,Valerie Avant,TN,1487447692000.0,18634990
201930849,Nashville,,1484451923000.0,36.17,-86.77,Vane Quiroz,TN,1484451923000.0,18634990
213404911,Mount Juliet,,1474467845000.0,36.21,-86.52,Veronica,TN,1474467845000.0,18634990
205315229,Nashville,,1463467270000.0,36.09,-86.82,Veronica,TN,1463467270000.0,18634990
205802574,Nashville,,1464130527000.0,36.06,-86.96,Victoria Sfasciotti Rovier Lowri,TN,1464130527000.0,18634990
224870681,Brentwood,,1491071687000.0,36.0,-86.79,Victoria Wilson,TN,1491071687000.0,18634990
234680559,Nashville,,1503454402000.0,36.11,-86.78,Vincent O'Neill,TN,1503454402000.0,18634990
200946236,Franklin,,1457191041000.0,35.92,-86.89,Vincentzenno Cappelli,TN,1457191041000.0,18634990
215050917,Nashville,,1476642101000.0,36.11,-86.78,Vincenzeno,TN,1476642101000.0,18634990
209717900,Cleveland,Cleveland,1469427635000.0,41.48,-81.69,Violet,OH,1469427635000.0,18634990
231471383,Hermitage,,1499645325000.0,36.19,-86.6,Wendy Jeup,TN,1499645325000.0,18634990
198262633,Nashville,,1453098787000.0,36.08,-86.72,Wendy LeVan,TN,1480127342000.0,18634990
190308354,Rochester,Rochester,1437670517000.0,44.01,-92.42,Will Gruenert,MN,1437670517000.0,18634990
189536628,Hermitage,,1436156877000.0,36.19,-86.6,Xmichael Pollard,TN,1436156877000.0,18634990
9039988,Nashville,Nashville,1501954497000.0,36.13,-86.8,Yemis,TN,1506972593000.0,18634990
149788912,Nashville,,1467068533000.0,36.11,-86.86,Zouhair bishara,TN,1467068533000.0,18634990
