id,city,hometown,joined,lat,lon,name,state,visited,group_id
7768516,Springfield,"Urbandale, IA",1448902627000,36.52,-86.87,Aaron Webb,TN,1465958992000,18779992
198899767,Nashville,,1454203513000,36.07,-86.73,Abhishek Khanal,TN,1454203513000,18779992
197133543,Smyrna,,1450791628000,35.97,-86.51,Adam Murray,TN,1487682442000,18779992
206481851,Nashville,,1467249035000,36.17,-86.78,Adia Tigney,TN,1469636111000,18779992
202864441,Nashville,,1460405173000,36.17,-86.78,Akbar,TN,1460405173000,18779992
192348746,Manchester,,1441567428000,35.47,-86.08,Alan,TN,1441567428000,18779992
11872972,Nashville,,1465440429000,36.13,-86.8,Alan,TN,1498617970000,18779992
233054561,Fort Campbell,,1501591319000,36.65,-87.46,Alexander Render,KY,1501591319000,18779992
201855190,Nashville,,1458486675000,36.08,-86.72,Ali Baker,TN,1458486675000,18779992
203310376,Nashville,,1460597162000,36.22,-86.77,Ali Hamsa,TN,1460597162000,18779992
184413641,Brentwood,Hendersonville,1470148792000,36.0,-86.79,Alicia Sepanik,TN,1498161300000,18779992
199238890,Nashville,,1456423098000,36.13,-86.8,Allen Phelps,TN,1470856051000,18779992
139428852,Rogers,Rogers,1458538414000,36.33,-94.13,Alvin Singh,AR,1458538414000,18779992
232756190,Nashville,,1501205405000,36.17,-86.78,Amber Stuart,TN,1501205405000,18779992
63282212,Nashville,Nashville,1454958813000,36.18,-86.74,Amy Lee Bennett,TN,1456109071000,18779992
200605708,Nashville,,1467257641000,36.08,-86.72,Andavar,TN,1467257641000,18779992
194631761,Nashville,,1456429675000,36.08,-86.72,Anderson Cook,TN,1496362842000,18779992
19683,Nashville,,1438904166000,36.16,-86.79,Andrew,TN,1438904166000,18779992
211212006,Goodlettsville,,1471523553000,36.32,-86.72,Andrew Fulton,TN,1471523553000,18779992
186615345,Nashville,,1448293595000,36.13,-86.8,Andrew Horvatits,TN,1465435504000,18779992
210836188,Nashville,,1470975890000,36.09,-86.82,Andrew Marshall,TN,1470975890000,18779992
203232124,Atlanta,Atlanta,1460490218000,33.77,-84.38,Andrew Pickelsimer,GA,1498778938000,18779992
191000087,La Vergne,,1454966383000,36.01,-86.57,Andri Alexandrou,TN,1454966383000,18779992
86402252,Nashville,,1446823609000,36.13,-86.8,Andy Collins,TN,1470770745000,18779992
233773991,Nashville,,1502410549000,36.17,-86.78,Angel Mendoza,TN,1502410549000,18779992
190868664,Spring Hill,,1438695694000,35.76,-86.88,Angela Brennan,TN,1438695694000,18779992
184629452,Nashville,,1449070653000,36.16,-86.79,Angelita G,TN,1449070653000,18779992
195799113,Nashville,,1447964118000,36.15,-86.86,Anirban Bhattacharjee,TN,1447964118000,18779992
10604590,Nashville,,1447732688000,36.15,-86.86,Ankur Patwa,TN,1449078049000,18779992
166995752,Palo Alto,Cupertino,1475097125000,37.42,-122.13,Annie,CA,1475184892000,18779992
178113422,Antioch,,1469142293000,36.17,-86.88,Anthony Burkeen,TN,1474298204000,18779992
205010609,Smyrna,,1463069252000,35.97,-86.51,Anton Coleman,TN,1463069252000,18779992
200845247,Nashville,,1457033406000,36.06,-86.96,Antonio Lassandro,TN,1457033406000,18779992
218331206,Nashville,,1482967734000,36.17,-86.78,Antonio Thomas,TN,1482967734000,18779992
186777303,Madison,,1441506256000,36.26,-86.71,Arenas Viscatanius,TN,1487731124000,18779992
182827769,Nashville,,1505427499000,36.06,-86.96,Arnold H.,TN,1505427499000,18779992
211353258,Nashville,,1472919763000,36.13,-86.8,aron mebraht,TN,1472919763000,18779992
204294527,Nashville,,1462034358000,36.17,-86.78,Ashish,TN,1462034358000,18779992
182913359,Nashville,,1448992051000,36.16,-86.79,Ashish Seth,TN,1448996679000,18779992
185967601,Nashville,Nashville,1443628410000,36.16,-86.79,Ashok,TN,1443628410000,18779992
193444461,Clarksville,,1443597825000,36.53,-87.35,ashok kumar,TN,1443597825000,18779992
197174877,Murfreesboro,,1450900178000,35.78,-86.33,Austin Abdo,TN,1450900178000,18779992
183586944,Nashville,,1442278413000,36.08,-86.72,Austin Erlandson,TN,1456770950000,18779992
161055882,Nashville,Nashville,1470257939000,36.16,-86.79,Austin Pleat,TN,1470257939000,18779992
37850382,Nashville,,1470837511000,36.17,-86.78,Bailin Gao,TN,1470867799000,18779992
233663251,Nashville,,1502297364000,36.17,-86.78,bart mathis,TN,1502297364000,18779992
75873682,Nashville,,1458783310000,36.17,-86.78,Bayron,TN,1498169550000,18779992
202294768,White House,,1459402950000,36.48,-86.69,Belle,TN,1459402950000,18779992
225067604,Nashville,,1491362055000,36.13,-86.8,Ben,TN,1491362055000,18779992
207185905,Nashville,,1466025759000,36.09,-86.82,Ben,TN,1498590557000,18779992
1813015,Nashville,,1438627165000,36.09,-86.82,Ben Ramsey,TN,1498237939000,18779992
196440238,Nolensville,,1452553565000,35.94,-86.67,Benjamin Bledsoe,TN,1454513716000,18779992
70814602,Buffalo,,1465889025000,42.9,-78.88,Beth Marsillo,NY,1465889025000,18779992
195010536,Waxhaw,,1446499323000,34.93,-80.74,Bill Fitch,NC,1459797186000,18779992
4353024,Antioch,Nashville,1457204003000,36.04,-86.64,Bill Zack,TN,1470854501000,18779992
94238282,Hermitage,Nashville,1487974760000,36.19,-86.6,Binoy Ayyagari,TN,1487974760000,18779992
228333614,Chattanooga,,1498890223000,35.04,-85.31,Blaise Iradukunda,TN,1498890223000,18779992
209281350,Nashville,,1468858671000,36.17,-86.78,Blake Storts,TN,1468858671000,18779992
200303216,Spring Hill,Spring Hill,1458676113000,35.76,-86.88,BMShake,TN,1458676113000,18779992
214460694,Nashville,,1475764110000,36.17,-86.78,Bobby,TN,1475764110000,18779992
40570712,Nashville,,1438704951000,36.17,-86.78,Bobby Graham,TN,1498580665000,18779992
237683429,Nashville,,1506671059000,36.15,-86.86,Boburmirzo Sirojiddinov,TN,1506931175000,18779992
215416480,Brentwood,,1477171491000,36.0,-86.79,Brad Maxwell,TN,1477171491000,18779992
196302856,Nashville,,1448991820000,36.17,-86.78,Brad Wilkerson,TN,1470103137000,18779992
203239640,Franklin,,1462151488000,35.93,-86.81,Bradley Guthrie,TN,1464821667000,18779992
179219982,Nashville,Nashville,1466037536000,36.17,-86.78,Bradley Koenen,TN,1466037536000,18779992
183608847,Nashville,,1463573574000,36.17,-86.79,Brandi Leath,TN,1470074228000,18779992
202344921,Hermitage,,1459219107000,36.19,-86.6,Brandon Arnold,TN,1459219107000,18779992
234652434,Nashville,,1503427343000,36.17,-86.78,Brandon Brewer,TN,1503427343000,18779992
145088452,Nashville,,1438650001000,36.17,-86.79,Brant Wheeler,TN,1469638093000,18779992
62418442,Nashville,,1472221217000,36.16,-86.79,Brenda Dillard,TN,1472221217000,18779992
60802462,Nashville,,1447428626000,36.15,-86.79,Brendon Pierson,TN,1498651804000,18779992
183029316,Nashville,,1444844263000,36.13,-86.8,Brent Holliman,TN,1444844263000,18779992
184268293,Nashville,,1438105722000,36.17,-86.78,Brent O'Dell,TN,1498161313000,18779992
181103802,Franklin,,1447818501000,35.92,-86.89,Brent Strong,TN,1469633582000,18779992
233429583,Murfreesboro,,1502038716000,35.87,-86.44,Brett Looney,TN,1502038716000,18779992
82545112,Nashville,"Chevy Chase, MD",1438826327000,36.17,-86.78,Brett Michaels,TN,1498755573000,18779992
191977215,Canton,"Woodstock, GA",1448295341000,34.21,-84.4,Brett Roeder,GA,1456344033000,18779992
195189193,Nashville,,1446828672000,36.08,-86.72,Brian Cox,TN,1446828672000,18779992
197630361,Nashville,,1466014222000,36.17,-86.78,Brian Doane,TN,1466014222000,18779992
204081245,Nashville,,1470220008000,36.17,-86.79,Brian Merchant,TN,1470738122000,18779992
7981818,Nashville,Nashville,1439947368000,36.15,-86.86,Brian Pitts,TN,1470591938000,18779992
186256670,Nashville,,1438561207000,36.06,-86.96,Brian Rutledge,TN,1487692480000,18779992
212028545,Nashville,,1472657475000,36.06,-86.96,Brian Scott Jones,TN,1487445636000,18779992
184019319,Hermitage,Nashville,1456431273000,36.19,-86.6,Brian Stumbaugh,TN,1456431273000,18779992
199045731,Brentwood,,1454429876000,36.0,-86.79,Brian Welch,TN,1454429876000,18779992
183687063,Nashville,Nashville,1503203007000,36.18,-86.74,Brooke Wittenberg,TN,1503203007000,18779992
195299072,Madison,,1447030268000,36.26,-86.71,bryan,TN,1447030268000,18779992
200256169,Nashville,,1456239356000,36.17,-86.78,Bryan Stunkel,TN,1456239356000,18779992
212940017,Nashville,,1473876235000,36.07,-86.73,Callaway,TN,1473876235000,18779992
203244569,Antioch,"Nashville, TN",1460506491000,36.04,-86.64,Calvin J.,TN,1498486018000,18779992
215653152,Goodlettsville,,1477523091000,36.32,-86.72,CameronHussey,TN,1477523091000,18779992
185194718,Gallatin,,1469921888000,36.39,-86.45,Carl Kinghorn,TN,1472324793000,18779992
195136851,Hermitage,,1456434175000,36.19,-86.6,Carmen Vazquez-Marin,TN,1456434175000,18779992
208949319,Nashville,,1469019271000,36.17,-86.78,Carter Harris,TN,1474862902000,18779992
1775843,Nashville,Nashville,1453241538000,36.17,-86.79,Casey,TN,1453241538000,18779992
197965134,Nashville,,1452542759000,36.08,-86.72,cgpeanut,TN,1452542759000,18779992
186535966,Nashville,,1473351801000,36.17,-86.78,Chad,TN,1473351801000,18779992
199552113,Franklin,,1455217308000,35.93,-86.81,Chandra,TN,1455217308000,18779992
135965262,Nashville,Nashville,1440108335000,36.16,-86.79,Charlie McMackin,TN,1440108335000,18779992
112901192,Brentwood,,1495217952000,36.0,-86.79,Chas Werner,TN,1495217952000,18779992
191148175,Memphis,,1439242934000,35.09,-89.85,Chase Fryer,TN,1470833441000,18779992
202907404,Nashville,,1460037720000,36.17,-86.78,Chase Ramsey,TN,1460037720000,18779992
231686227,Nashville,,1499891891000,36.14,-86.74,Chaz Henricks,TN,1499891891000,18779992
235670848,Nashville,,1504576156000,36.17,-86.78,Chelsea Rucker,TN,1504576156000,18779992
196449555,Antioch,,1449282070000,36.17,-86.88,Chris,TN,1449282070000,18779992
199006708,Nashville,,1460496922000,36.07,-86.78,Chris Anderson,TN,1473990384000,18779992
224635893,Antioch,,1506554768000,36.04,-86.64,Chris Hutchinson,TN,1506554768000,18779992
184547023,Nashville,,1440357651000,36.16,-86.79,Chris Jarvis,TN,1459999489000,18779992
236578093,Nashville,,1505483325000,36.21,-86.72,Chris Mellor,TN,1505483325000,18779992
190523281,Somerville,,1508554829000,42.4,-71.12,Chris Muir,MA,1508554829000,18779992
184185824,Nashville,Nashville,1448921856000,36.08,-86.72,Chris Newman,TN,1465969977000,18779992
215531726,Nashville,,1480985724000,36.17,-86.78,Chris S,TN,1481006696000,18779992
209643345,Nashville,,1469331983000,36.17,-86.78,Chris Smalley,TN,1477497905000,18779992
47572122,Nashville,Chicago,1442596511000,36.17,-86.78,Chris SpinMan Spintzyk,TN,1465325381000,18779992
227014606,Nashville,,1504289237000,36.17,-86.78,Chris Vandenberg,TN,1504289237000,18779992
202683107,Nashville,,1459719503000,36.17,-86.78,Christian Winters,TN,1459719503000,18779992
195285548,Nashville,,1465941376000,36.13,-86.8,Christina Wisneski,TN,1470666334000,18779992
82849812,Nashville,Nashville,1441756571000,36.17,-86.72,Clint Stephen Jones,TN,1442372657000,18779992
203274115,Nashville,,1460552614000,36.11,-86.86,clint.johnson,TN,1484259398000,18779992
186161661,Franklin,Nashville,1468607320000,35.92,-86.89,Colin Durbin,TN,1471439506000,18779992
14948701,Nashville,Nashville,1452653716000,36.16,-86.79,Cooper McGoodwin,TN,1465235875000,18779992
129003472,Smyrna,,1500485338000,35.95,-86.54,Corey Gross,TN,1500485338000,18779992
200377139,Nashville,,1456357287000,36.08,-86.72,Cory Street,TN,1456357287000,18779992
7813939,Nashville,Nashville,1439989961000,36.11,-86.78,Courey,TN,1439989961000,18779992
207349199,Thompsons Station,,1466263489000,35.8,-86.9,Craig Cooper,TN,1466263489000,18779992
2937409,Mount Juliet,"Pittsburgh, PA",1452801768000,36.22,-86.52,Craig Oaks,TN,1452801768000,18779992
199519697,Antioch,,1455163820000,36.04,-86.64,Crystal Staples,TN,1455163820000,18779992
200422502,Hendersonville,,1456443000000,36.32,-86.61,Curtis Anderson,TN,1498161354000,18779992
197835826,Mount Pleasant,,1452303391000,35.54,-87.21,Curtis Corazao,TN,1452303391000,18779992
194859665,Nashville,,1446219312000,36.08,-86.72,Curtis Scafe,TN,1449070970000,18779992
139588162,Augusta,,1457787073000,33.46,-81.97,Daisia Woods,GA,1464883364000,18779992
206748488,Nashville,,1467589702000,36.17,-86.78,Dan,TN,1487122938000,18779992
186654478,Nashville,,1449078582000,36.16,-86.79,Dan Priest,TN,1464051557000,18779992
199981939,Nashville,,1455819369000,36.14,-86.74,Dan Ventura,TN,1455819369000,18779992
191917442,Mount Juliet,,1440727981000,36.22,-86.52,Dan Wagner,TN,1440727981000,18779992
192764565,Brentwood,,1442329785000,36.0,-86.79,Dane Hoffmeister,TN,1442329785000,18779992
220377003,Nashville,Antioch,1507907550000,36.22,-86.77,Daniel Babcock,TN,1507907550000,18779992
6384580,Nashville,Nashville,1465435589000,36.06,-86.96,Daniel Cottone,TN,1470429355000,18779992
185173098,Knoxville,,1438615066000,36.03,-83.89,Daniel Oliver,TN,1470851049000,18779992
185314082,Nashville,"Nashville, TN",1447946455000,36.17,-86.78,Danielle Hollis,TN,1447946455000,18779992
208300950,Nashville,,1467571737000,36.17,-86.78,Darrell Hagan,TN,1467571737000,18779992
201446209,Nashville,,1457900878000,36.09,-86.82,Dave Harms,TN,1467769899000,18779992
7534345,Nashville,"Louisville, KY",1448936027000,36.06,-86.96,Dave Harned,TN,1459388996000,18779992
230257448,Nashville,,1498159154000,36.17,-86.78,Dave Ryan,TN,1501263368000,18779992
209338328,Franklin,,1468931502000,35.92,-86.89,David Allen,TN,1468931502000,18779992
204237509,Nashville,,1461946623000,36.17,-86.78,David Cramb,TN,1461946623000,18779992
182753398,Franklin,,1461942582000,35.92,-86.89,David Escandell,TN,1470920207000,18779992
209338305,Nashville,,1468930896000,36.17,-86.78,David H,TN,1468930896000,18779992
13760492,Birmingham,"Dallas, TX",1459261765000,33.36,-86.79,David Lormor,AL,1470831024000,18779992
9001173,Nashville,Milwaukee,1443890113000,36.16,-86.79,David Peters,TN,1443890113000,18779992
210923626,Madison,,1476735971000,36.26,-86.71,David Williams,TN,1476735971000,18779992
89861182,Nashville,,1466101281000,36.11,-86.86,David Woolbright,TN,1470611665000,18779992
228533008,West Palm Beach,West Palm Beach,1496633894000,26.66,-80.26,Davy Yue,FL,1500499915000,18779992
212606238,Nashville,,1473438697000,36.11,-86.78,Dayrin Bledsoe,TN,1473438697000,18779992
208430646,Nashville,,1471695600000,36.14,-86.74,Delaine Wendling,TN,1471695600000,18779992
210614410,Hendersonville,,1478056847000,36.32,-86.61,Dennis McGhee,TN,1478056847000,18779992
80529152,Nashville,"Philadelphia, PA",1439836814000,36.17,-86.78,Derek Bartron,TN,1439836814000,18779992
211216826,Opa Locka,"Opa Locka, FL",1471530105000,25.91,-80.26,DeRon Washington,FL,1471530105000,18779992
192517630,Murfreesboro,,1444286126000,35.87,-86.44,Derrick Lewis,TN,1468936903000,18779992
176366962,Nashville,,1449076731000,36.17,-86.78,Devon Tuitt,TN,1449076731000,18779992
200168433,Nashville,,1456081981000,36.07,-86.73,DFann,TN,1456087116000,18779992
212191797,Hendersonville,,1472886058000,36.32,-86.61,Dominic Camany,TN,1472886058000,18779992
208916701,Smyrna,,1478820784000,35.97,-86.51,Dominic Serrano,TN,1478820784000,18779992
206347820,Nashville,,1466000625000,36.11,-86.78,Don Bauer,TN,1470836886000,18779992
185902150,Franklin,"Orlando, FL",1458614024000,35.99,-86.9,Don Cline,TN,1459999938000,18779992
63921092,Nashville,,1470842501000,36.17,-86.78,Doug Powers,TN,1470842501000,18779992
195161271,Goodlettsville,,1447037771000,36.33,-86.74,Dustin Davidson,TN,1449098217000,18779992
215732768,Auburn,,1477656142000,36.89,-86.72,Dustin Hullett,KY,1477656142000,18779992
217859560,Durham,,1481132857000,35.92,-78.8,Dustin Morris,NC,1481132857000,18779992
47428112,Nashville,,1463961474000,36.17,-86.78,Dustin Potter,TN,1489416860000,18779992
214759042,Nashville,,1476209134000,36.16,-86.79,Dustin Walker,TN,1476209134000,18779992
197674291,Murfreesboro,,1465945543000,35.82,-86.45,Dusty Lane Carver,TN,1472838610000,18779992
88201422,Nashville,,1481777464000,36.18,-86.69,Dustyn Rothenberger,TN,1481777464000,18779992
198763296,Nashville,,1453991016000,36.17,-86.78,Earice Roberts,TN,1454597963000,18779992
214883118,Antioch,Chicago,1476389093000,36.04,-86.64,Edgar Barajas,TN,1476389093000,18779992
196358087,Nashville,,1449095452000,36.17,-86.78,Edgar Pinto,TN,1449249809000,18779992
211501851,Nashville,,1471928453000,36.06,-86.96,Edward,TN,1480057358000,18779992
204945437,Nashville,,1462976862000,36.17,-86.78,El Waters,TN,1462976862000,18779992
161305272,Nashville,,1440625762000,36.1,-86.66,eleni,TN,1472532920000,18779992
216420150,Nashville,,1478737994000,36.08,-86.72,Elliott Williams,TN,1478737994000,18779992
195329871,Nashville,,1455555609000,36.17,-86.78,Emma Beaton,TN,1455555609000,18779992
112326762,Smyrna,"Birmingham, AL",1439010939000,35.97,-86.5,Eric,TN,1439010939000,18779992
208235128,Nashville,,1467482745000,36.17,-86.78,Eric Eymann,TN,1467482745000,18779992
191620340,Nashville,,1440171029000,36.17,-86.79,Eric Kopp,TN,1440171029000,18779992
11804293,Nashville,,1470702723000,36.07,-86.73,Eric Warren,TN,1471399456000,18779992
191623599,La Vergne,,1440176516000,36.01,-86.57,Erik DaCosta,TN,1471609803000,18779992
210098836,Brentwood,,1469937873000,36.0,-86.79,Erik J. Olson,TN,1469937873000,18779992
77148762,Nashville,Fort Lauderdale,1465847253000,36.17,-86.78,Erin Oxborrow,TN,1498168795000,18779992
118863742,Nashville,,1454845102000,36.17,-86.78,Firoj,TN,1454845102000,18779992
208426796,Nashville,,1467739834000,36.17,-86.78,Fletcher,TN,1467739834000,18779992
198586815,Nashville,,1453693535000,36.17,-86.78,Fletcher Pickering,TN,1453693535000,18779992
232595107,Nashville,,1501008876000,36.11,-86.78,Freddie,TN,1501008876000,18779992
4169858,Nashville,Nashville,1449110703000,36.17,-86.72,Gaines Kergosien,TN,1468387607000,18779992
208429247,Mount Pleasant,Nashville,1475634392000,32.82,-79.85,Garrett Vangilder,SC,1487041209000,18779992
1746239,Nashville,,1438621407000,36.17,-86.78,George Cooksey,TN,1476873901000,18779992
199491442,Nashville,,1455127150000,36.17,-86.78,Gib Amstutz,TN,1455127150000,18779992
209395896,Nashville,,1503156317000,36.08,-86.72,gijish,TN,1503156317000,18779992
199789219,Nashville,,1455561909000,36.13,-86.8,GL,TN,1455745389000,18779992
186063228,Franklin,,1470321164000,35.93,-86.81,Greg B,TN,1490580318000,18779992
121334792,Hendersonville,,1441123882000,36.32,-86.61,Greg Back,TN,1465964052000,18779992
186434292,Nashville,,1457389094000,36.18,-86.74,Greg Overman,TN,1457389094000,18779992
202807497,Nashville,,1459889552000,36.17,-86.78,Greg Thornton,TN,1460067740000,18779992
210195771,Nashville,,1470071694000,36.17,-86.78,Guy Sereff,TN,1471468633000,18779992
212569310,Nashville,,1502813077000,36.21,-86.72,Hannah Hall,TN,1502813077000,18779992
194219253,Smyrna,"Nashville, TN",1459810134000,35.97,-86.51,Harrison Pickett,TN,1459810134000,18779992
191344924,Hermitage,,1439632167000,36.19,-86.6,Hassan,TN,1439632167000,18779992
235118255,Nashville,,1503966342000,36.17,-86.78,hawani,TN,1503966342000,18779992
215659281,Nashville,,1499877539000,36.16,-86.77,Heather B,TN,1499877539000,18779992
199382699,Lithia Springs,,1454965514000,33.77,-84.64,Hugo N,GA,1454965514000,18779992
210013317,Nashville,,1470162252000,36.17,-86.78,Issam Bahour,TN,1470162252000,18779992
195304754,Nashville,,1447045110000,36.08,-86.72,J Falkum,TN,1447045110000,18779992
198793707,Nashville,,1473949647000,36.08,-86.72,Jack Mocherman,TN,1475166727000,18779992
2134853,Nashville,,1498319289000,36.11,-86.78,jacobwiley,TN,1498319289000,18779992
206693904,Nashville,,1465355745000,36.17,-86.78,Jai,TN,1465519862000,18779992
209492526,Nashville,,1469131130000,36.17,-86.78,jake,TN,1469131130000,18779992
26465352,Atlanta,,1441242090000,33.77,-84.38,Jake Morgan,GA,1469633967000,18779992
202028316,New York,,1458735417000,40.75,-73.99,James Briggs,NY,1465870145000,18779992
204700330,Nashville,,1464649304000,36.17,-86.78,James Lauderdale Jr,TN,1498721517000,18779992
200963976,Murfreesboro,,1457210470000,35.78,-86.33,JAMES RAY DAVENPORT JR,TN,1457210470000,18779992
193562859,Nashville,Nashville,1459980676000,36.16,-86.79,Jamin Thornsberry,TN,1459984992000,18779992
109241512,Nashville,"Nashville, TN",1459348751000,36.1,-86.66,Jared fazio,TN,1459348751000,18779992
234791945,Nashville,Nashville,1503584231000,36.13,-86.8,Jason Rial,TN,1503584231000,18779992
176797192,Nashville,"Columbia, MO",1442269063000,36.04,-86.77,Jason Struckhoff,TN,1498275291000,18779992
200446547,Franklin,,1456456647000,35.92,-86.89,Jay,TN,1456456647000,18779992
14307382,Atlanta,,1473992359000,33.75,-84.55,jayaram raja,GA,1473992359000,18779992
200243267,Nashville,,1456181087000,36.17,-86.78,JD,TN,1498226721000,18779992
8731661,Nashville,"Durham, NC",1439567874000,36.17,-86.79,Jeff Bowen,TN,1470833928000,18779992
76688702,Nashville,Nashville,1459007280000,36.08,-86.72,Jeff Byington,TN,1459977537000,18779992
10385355,Nashville,,1452289820000,36.09,-86.82,Jeff Lofvers,TN,1459881735000,18779992
5367027,Nashville,Nashville,1459780405000,36.08,-86.72,Jeff Whitsitt,TN,1459780405000,18779992
189876805,Nashville,,1448978713000,36.16,-86.79,Jeffrey,TN,1448978713000,18779992
9358849,Nashville,,1455193471000,36.13,-86.8,Jen Sears,TN,1493856660000,18779992
206674826,Nashville,,1465335982000,36.17,-86.78,Jenny,TN,1469637624000,18779992
192867227,Nashville,,1442868576000,36.17,-86.78,Jerad Clifford,TN,1442868576000,18779992
197627926,Nashville,,1455850744000,36.11,-86.86,Jeremy C. Swain,TN,1455850744000,18779992
215906368,Old Hickory,,1477932879000,36.25,-86.63,Jeremy H,TN,1477932879000,18779992
135159662,Nashville,,1459872765000,36.16,-86.79,Jeremy Pinnix,TN,1459872765000,18779992
191180179,Smyrna,,1439307254000,35.97,-86.51,Jermaine Jones,TN,1439307254000,18779992
140339832,Seattle,,1439640998000,47.61,-122.33,Jess Short,WA,1453335395000,18779992
195339551,Nashville,,1447104303000,36.16,-86.79,Jesse Brown,TN,1447104303000,18779992
207895223,Nashville,,1467011222000,36.17,-86.72,Jessica,TN,1467011222000,18779992
191074840,Nashville,,1478541588000,36.17,-86.78,Jessica Thomas,TN,1478541588000,18779992
120761882,Smyrna,,1459860259000,35.97,-86.51,Jessica Wynn,TN,1498166810000,18779992
10909567,Nashville,,1472566078000,36.15,-86.86,Jim Heffner,TN,1472566078000,18779992
132642242,Lebanon,"Lebanon, TN",1448994558000,36.21,-86.31,Jimmy Dean,TN,1459505901000,18779992
189900217,Antioch,,1440565109000,36.04,-86.64,Jimmy T. Perry,TN,1469642177000,18779992
103022292,Nashville,,1499656737000,36.17,-86.78,JJ Rosen,TN,1499656737000,18779992
199444791,Nashville,,1455054183000,36.15,-86.81,Joao Pan,TN,1455054183000,18779992
185368652,Nashville,,1469806945000,36.17,-86.72,Jodee LaVoie,TN,1469806945000,18779992
45107182,Nashville,,1438618044000,36.17,-86.78,Joe Cooper Wallace III,TN,1438618044000,18779992
209577341,Candler,,1469243744000,35.54,-82.68,Joe Guist,NC,1469243744000,18779992
181457472,Nashville,"Erie, PA",1467592916000,36.17,-86.78,Joe Mifsud,TN,1467592916000,18779992
225584777,Goodlettsville,,1492088869000,36.32,-86.72,Joe Reed,TN,1492140055000,18779992
211177037,Nashville,,1472228811000,36.17,-86.78,Joe Zboch,TN,1473714952000,18779992
209743821,Smyrna,,1469465092000,35.97,-86.51,Joey,TN,1469465092000,18779992
114279782,Nashville,Doylestown,1463546842000,36.16,-86.79,John,TN,1465836972000,18779992
76743532,Bangor,,1442888037000,44.81,-68.78,John Harris,ME,1498186237000,18779992
180722412,Gallatin,Gallatin,1449959762000,36.39,-86.45,John Henderson,TN,1487728197000,18779992
161054102,Franklin,Franklin,1440170320000,35.93,-86.81,john omahen,TN,1470855180000,18779992
175154172,Santa Fe,Santa Fe,1438616964000,35.7,-105.97,John Warmath,NM,1438623051000,18779992
127144472,Nashville,,1449085975000,36.17,-86.78,John Watson,TN,1471455373000,18779992
212865554,Nashville,"Greenville, SC",1473777741000,36.18,-86.74,Jon Carroll,TN,1473777741000,18779992
198286572,Mount Juliet,,1460310475000,36.21,-86.52,Jon Murillo,TN,1460310475000,18779992
32247622,Nashville,,1470162122000,36.18,-86.74,Jon Wolski,TN,1487728802000,18779992
148159572,Hendersonville,,1448986344000,36.32,-86.61,Jonathan,TN,1498652977000,18779992
59313302,Nashville,Nashville,1449889893000,36.08,-86.72,Jonathan Coplon,TN,1498166626000,18779992
203303961,Nashville,,1460588270000,36.11,-86.86,Jonathan Hinton,TN,1460588270000,18779992
221531396,Franklin,,1504659469000,35.92,-86.89,Jono Krawczyk,TN,1504659469000,18779992
215148163,La Vergne,,1476770577000,36.01,-86.57,Jordan C.,TN,1491623817000,18779992
212809286,Nashville,,1473705730000,36.17,-86.78,Jordan Speller,TN,1473705730000,18779992
44584692,New York,New York,1492010036000,40.78,-73.96,JORGE,NY,1492010036000,18779992
190834875,San Francisco,San Francisco,1453419975000,37.78,-122.42,Joseph Ensminger,CA,1459791821000,18779992
193788063,Franklin,,1444251905000,36.73,-86.57,Joseph Milliken,KY,1444251905000,18779992
186176645,Nesbit,,1439239311000,34.89,-89.99,Josh Bartliff,MS,1456453761000,18779992
209381189,Nashville,,1468982425000,36.17,-86.78,Josh Mac,TN,1487770771000,18779992
196261898,Nashville,,1448908391000,36.06,-86.96,Josh Marshall,TN,1448908391000,18779992
78490972,Nashville,Nashville,1476761546000,36.13,-86.8,Josh stimpson,TN,1476761546000,18779992
234218495,Clarksville,,1502939959000,36.56,-87.41,Joshua Allen Williams,TN,1502939959000,18779992
216319024,Nashville,,1478563277000,36.14,-86.8,Juan Felipe Ortiz,TN,1478563277000,18779992
157248622,Nashville,,1457494110000,36.16,-86.79,Juan Job,TN,1459980728000,18779992
196898553,Nashville,,1450214115000,36.11,-86.86,Julia Brinkmann,TN,1464786401000,18779992
200612671,Murfreesboro,,1456709350000,35.82,-86.45,Junie George,TN,1456709350000,18779992
194282886,Nashville,,1445380815000,36.17,-86.78,Justin Adams,TN,1445380815000,18779992
202751345,New York,,1459811877000,40.75,-73.99,Justin Hall,NY,1459811877000,18779992
135113782,Franklin,,1448245045000,35.92,-86.89,Justin Hoover,TN,1499139595000,18779992
162731242,Nashville,,1445552374000,36.09,-86.82,JW,TN,1499890705000,18779992
196356296,Nashville,,1449092396000,36.08,-86.72,kais,TN,1449166564000,18779992
200487104,Nashville,Nashville,1456519330000,36.17,-86.78,Kanesha Patterson,TN,1485100344000,18779992
197183245,Nashville,"Columbia, TN",1450921911000,36.17,-86.78,Kanesha Patterson,TN,1450921911000,18779992
60195472,Nashville,Nashville,1447347457000,36.08,-86.72,Karthik Kornalies,TN,1498226656000,18779992
195665672,Nashville,,1447716842000,36.17,-86.78,kate brock,TN,1452742196000,18779992
205714812,Nashville,,1464017694000,36.11,-86.86,Katherine Parker,TN,1464017694000,18779992
224815299,Nashville,,1499711784000,36.17,-86.78,Kathleen Allen,TN,1502134481000,18779992
204960806,Nashville,,1465911339000,36.17,-86.72,Katie Justin,TN,1476886936000,18779992
191230187,Nashville,,1439400443000,36.18,-86.74,Katrina McPeters,TN,1498167919000,18779992
214085642,Nashville,,1475296920000,36.16,-86.79,Kawika A. Moss,TN,1475434555000,18779992
180588862,Nashville,,1465481954000,36.11,-86.78,Kayla  Turner,TN,1465940466000,18779992
56997982,Nashville,"Springfield, IL",1478842140000,36.08,-86.72,Keegan Singh,TN,1478842140000,18779992
30145882,Nashville,,1459791993000,36.17,-86.78,Keith Bradley,TN,1471482769000,18779992
193863309,Nashville,,1444401053000,36.17,-86.72,Kelly C,TN,1444401053000,18779992
205615786,Nashville,,1463878261000,36.17,-86.78,Kemar Reid,TN,1470361865000,18779992
200625715,Nashville,,1456712272000,36.17,-86.78,Kevin,TN,1459865507000,18779992
182982296,Washington,,1450494701000,38.91,-77.02,Kevin,DC,1452711252000,18779992
176796042,Nashville,,1444152276000,36.17,-86.78,Kevin Butler,TN,1498181338000,18779992
200093628,Nashville,,1456071697000,36.15,-86.86,Kevin McHenry ,TN,1469634446000,18779992
82589262,Potwin,,1448898687000,37.94,-97.02,Kevin Ninnemann,KS,1449080885000,18779992
215773393,Nashville,,1477717280000,36.15,-86.8,Kevin Normandeau,TN,1477717280000,18779992
199056574,Nashville,,1454444095000,36.17,-86.78,Kim,TN,1454444095000,18779992
199396025,Nashville,Nashville,1469731815000,36.08,-86.72,Kinman Covey,TN,1470793067000,18779992
49863072,Hermitage,,1476222927000,36.19,-86.6,kiran,TN,1489012254000,18779992
49229592,Murfreesboro,"Murfreesboro, TN",1443713055000,35.87,-86.34,Kirk Hooten,TN,1452714370000,18779992
197737828,Nashville,,1452125296000,36.17,-86.72,Kirk Walker Graves,TN,1452125296000,18779992
205535019,Antioch,"Nashville, TN",1463885742000,36.17,-86.88,Kirolos Shahat,TN,1465597302000,18779992
207191509,New York,,1466032000000,40.75,-73.99,Kossie Gardner,NY,1466032000000,18779992
206735625,Nashville,,1465413747000,36.08,-86.71,Krish,TN,1465413747000,18779992
182662859,Murfreesboro,,1440646033000,35.87,-86.34,Kristen Brown,TN,1440646033000,18779992
205726022,Nashville,,1464032751000,36.16,-86.79,Kristin C,TN,1470866276000,18779992
202311485,Mount Juliet,,1459180200000,36.22,-86.52,Kristy McGee,TN,1459180200000,18779992
201083161,Nashville,,1459183663000,36.08,-86.72,Kumar,TN,1459183663000,18779992
200791784,Mount Juliet,,1456951874000,36.22,-86.52,Kyle Marcum,TN,1456951874000,18779992
173556522,Nashville,"Boston, MA",1470257337000,36.18,-86.74,Kyle McCarthy,TN,1470843420000,18779992
196746795,Franklin,,1449875252000,35.92,-86.89,Lamont TURNER,TN,1449875252000,18779992
7979701,Brentwood,"Riverside, CA",1469506225000,36.0,-86.79,Landon Hale,TN,1470143878000,18779992
201729338,Grand Haven,"Nashville, TN",1458302654000,43.04,-86.18,Laura Weideman,MI,1458302654000,18779992
219815596,Nashville,,1485275273000,36.08,-86.72,Leah Massey,TN,1485275273000,18779992
164436472,Duluth,Johns Creek,1440618459000,34.03,-84.14,Lee at Apigee,GA,1448301874000,18779992
216738382,Nashville,,1479236545000,36.17,-86.78,Lee Coram,TN,1479236545000,18779992
134543412,Nashville,,1438624977000,36.16,-86.8,Leon Peck,TN,1439996665000,18779992
232753450,Nashville,,1505562162000,36.08,-86.72,Leticia Rojano,TN,1505562162000,18779992
207099124,Nashville,,1465911499000,36.17,-86.78,Lexi Vernaglia ,TN,1465911499000,18779992
199277854,Nashville,,1454797967000,36.14,-86.74,Liam Bonnie,TN,1454797967000,18779992
23229581,Nashville,,1470229372000,36.17,-86.78,Lifeavinash,TN,1470229372000,18779992
72840152,Spring Hill,,1479828137000,35.76,-86.88,Linda Catlett,TN,1498565807000,18779992
191998409,Madison,,1442286974000,36.26,-86.71,Lindsey Maddox,TN,1459889186000,18779992
206288146,Goodlettsville,,1464820776000,36.33,-86.74,Link,TN,1465474448000,18779992
86834002,Clarksville,"Memphis, TN",1448507550000,36.53,-87.35,Lorenzo Preston,TN,1469977852000,18779992
191153176,Arlington,,1439250767000,35.29,-89.74,Lou Powell,TN,1471864778000,18779992
121431352,Brentwood,,1454467344000,36.0,-86.79,luay,TN,1498589931000,18779992
192638839,Murfreesboro,,1442095492000,35.85,-86.36,Lucas Do,TN,1442095492000,18779992
225412049,Nashville,,1500578080000,36.17,-86.78,Luis Chunga,TN,1500578080000,18779992
13038904,Nashville,"Huntington Beach, CA",1462992433000,36.08,-86.72,Luke Stokes,TN,1498174420000,18779992
217856665,Nashville,,1494172394000,36.21,-86.72,Luke Woodward,TN,1501241878000,18779992
212722637,Nashville,,1473599863000,36.16,-86.79,Lynn,TN,1473599863000,18779992
200750517,Nashville,,1486997005000,36.16,-86.79,M Bri Wyatt,TN,1486997005000,18779992
6303396,Lebanon,,1448986557000,36.21,-86.31,Malcolm Roberts,TN,1449102629000,18779992
2040789,Erlanger,Erlanger,1469634415000,39.01,-84.6,mamund,KY,1469634415000,18779992
214899808,Nashville,,1476410540000,36.13,-86.67,Manoj,TN,1476715104000,18779992
59367492,Nashville,,1439924678000,36.13,-86.8,Marcus,TN,1439924678000,18779992
211551704,Nashville,Palo Alto,1499972687000,36.15,-86.86,Marcus Gill,TN,1499972687000,18779992
210189290,Nashville,,1470065048000,36.17,-86.78,Marian Rushdy,TN,1470766719000,18779992
210096250,Fosterville,,1469933877000,35.75,-86.39,Mario Allen,TN,1469933877000,18779992
235695658,Franklin,,1504605182000,35.93,-86.84,Marjorie Morris,TN,1504605182000,18779992
205338225,Nashville,,1463500582000,36.18,-86.74,Mark Andersson,TN,1463500582000,18779992
190004053,Portland,,1459534298000,36.57,-86.49,Mark Arzillo,TN,1470078568000,18779992
196304395,Nashville,,1448994489000,36.17,-86.78,Mark M.,TN,1470765755000,18779992
191272888,Brentwood,,1447476273000,36.0,-86.79,Martin Cross,TN,1465912864000,18779992
221212756,Nashville,,1486024607000,36.17,-86.78,Martynas Šustavi?ius,TN,1486024607000,18779992
102863442,Franklin,"Whites Creek, TN",1465942499000,35.92,-86.89,Mary Kergosien,TN,1493313157000,18779992
210259158,Brentwood,,1470155770000,36.0,-86.79,Mary Veracco,TN,1470166913000,18779992
163173352,Nashville,Nashville,1454960903000,36.11,-86.86,Marybeth Snodgrass,TN,1465959070000,18779992
132559112,Nashville,,1456505149000,36.18,-86.74,MaryLvV,TN,1498162055000,18779992
196307588,Nashville,,1448999219000,36.17,-86.72,Matt Cowan,TN,1470869198000,18779992
187002184,Nashville,,1455134327000,36.17,-86.72,Matt Fili,TN,1455134327000,18779992
234737179,Nashville,,1503518290000,36.17,-86.78,Matt Lummus,TN,1503518290000,18779992
89808812,Nashville,,1448978312000,36.17,-86.78,Matt Morahan,TN,1470833823000,18779992
199006923,Nashville,,1454364221000,36.17,-86.78,Matt OBrion,TN,1455057384000,18779992
186389338,Hermitage,,1450976925000,36.19,-86.6,Matt R,TN,1450976925000,18779992
170786152,Fairview,,1455918847000,35.97,-87.13,Matthew Bush,TN,1470768828000,18779992
232660655,Nashville,,1501088864000,36.17,-86.79,Matthew Skinner,TN,1501088864000,18779992
199993939,Mount Juliet,,1455833754000,36.22,-86.52,Matthew Spann,TN,1455833754000,18779992
185930717,Nashville,"Murfreesboro, TN",1441004964000,36.17,-86.78,Max Trenkle,TN,1442365153000,18779992
63392582,Nashville,,1439990030000,36.18,-86.74,maxbeizer,TN,1465226230000,18779992
99979372,Paris,,1450040957000,48.86,2.34,Maxime Riahi,,1450040957000,18779992
4849128,Hermitage,"Chattanooga, TN",1473171237000,36.19,-86.6,Micah Breedlove,TN,1473171237000,18779992
161965822,Nashville,,1502510246000,36.17,-86.78,Micah Vigeant,TN,1502510246000,18779992
5010820,Murfreesboro,,1494037762000,35.78,-86.33,Michael,TN,1498165405000,18779992
188147962,Nashville,,1456204044000,36.13,-86.8,Michael,TN,1464730442000,18779992
188985950,Spring Hill,,1442333476000,35.76,-86.88,Michael Brown,TN,1443167432000,18779992
161262782,Franklin,,1470705523000,35.87,-86.88,Michael Chaney,TN,1472513450000,18779992
71912792,Nashville,Nashville,1457157016000,36.17,-86.72,Michael Conrad,TN,1487727685000,18779992
208571752,Brentwood,,1467934128000,36.0,-86.79,Michael Frost ,TN,1467934128000,18779992
232312915,Nashville,,1500661809000,36.13,-86.8,Michael Kennedy,TN,1500661809000,18779992
85557392,Nashville,,1438654230000,36.13,-86.8,Michael Knell,TN,1498189753000,18779992
202882025,Nashville,,1459993486000,36.14,-86.74,Michael mead,TN,1459993486000,18779992
204891834,La Vergne,,1462899996000,36.01,-86.57,Michael Milom,TN,1470752068000,18779992
101778472,Charlotte,,1462976713000,35.23,-80.84,Michael Moore,NC,1463075680000,18779992
195145042,Franklin,,1446744362000,35.92,-86.89,Michael Roberts,TN,1449073238000,18779992
197640216,Old Hickory,,1451946253000,36.25,-86.63,Michael Robeson,TN,1451946253000,18779992
198128679,Nashville,,1488571268000,36.17,-86.72,michael tambornino,TN,1491936188000,18779992
199170117,New York,,1502285216000,40.75,-73.98,Michael Torsiello,NY,1502285216000,18779992
137601442,Nashville,Nashville,1439665914000,36.15,-86.86,Michael Vogeli,TN,1439665914000,18779992
194099532,Nashville,,1464284907000,36.17,-86.78,Mike Meadows,TN,1465940389000,18779992
206684425,Nashville,,1465345387000,36.16,-86.79,Mike Stringfellow,TN,1465345387000,18779992
234173760,Nashville,,1502893892000,36.13,-86.8,Mikell Vanderlaan,TN,1502893892000,18779992
211851474,Antioch,,1472417383000,36.17,-86.88,Mizani Mrinquisitive Mysteree,TN,1472417383000,18779992
1920154,Mount Juliet,Nashville,1470773676000,36.22,-86.52,mkish,TN,1486081482000,18779992
186038725,Nashville,,1442356049000,36.17,-86.78,Morgan higby-flowers,TN,1442420939000,18779992
223095985,Overland Park,,1490282448000,38.99,-94.68,Muhammad Ali,KS,1490282448000,18779992
128117352,Nashville,Nashville,1495631197000,36.18,-86.74,Nathan Butler,TN,1501734212000,18779992
225488721,Nashville,,1498574142000,36.17,-86.78,Nathan Ostrander,TN,1498574142000,18779992
192874124,Thompsons Station,,1448054140000,35.8,-86.9,Nathan Tanner,TN,1449077169000,18779992
206234001,Austin,,1464744999000,30.22,-97.75,Ngenze A,TX,1464744999000,18779992
196618544,Nashville,,1460990037000,36.17,-86.78,Nicholas Huffman,TN,1460990037000,18779992
199435099,Madison,,1467817732000,36.26,-86.71,Nicholas Jeter,TN,1467817732000,18779992
204153614,Nashville,,1463093565000,36.09,-86.63,Nick Curry,TN,1469495661000,18779992
58983922,Nashville,NASHVILLE,1438620638000,36.21,-86.72,Nick Lorenson,TN,1496351777000,18779992
195371955,Nashville,,1464541245000,36.17,-86.78,Nick Trull,TN,1465929428000,18779992
183378188,Nashville,Nashville,1442269631000,36.17,-86.78,Nickalaus Wallace,TN,1496831868000,18779992
73243812,Nashville,,1442609765000,36.17,-86.78,nikhil gaikwad,TN,1466465538000,18779992
196311668,Nashville,,1449005884000,36.08,-86.72,Nilesh,TN,1449162878000,18779992
127361492,Nashville,,1438878840000,36.17,-86.78,Noah Yarian,TN,1438878840000,18779992
209578349,Nashville,,1469244522000,36.16,-86.79,Oleksii Tkachuk,TN,1469244522000,18779992
211547501,Nashville,,1471989385000,36.17,-86.78,Oliver Prince,TN,1471989385000,18779992
234168251,Franklin,,1502888691000,35.93,-86.81,Olivia Oetjens,TN,1502888691000,18779992
210876362,Nashville,,1471048467000,36.17,-86.78,Oscar Koeneke,TN,1471048467000,18779992
208825415,Nashville,,1468264704000,36.08,-86.72,Palmer Harrell,TN,1468264704000,18779992
83328422,Nashville,,1467806232000,36.17,-86.78,pandian,TN,1498161790000,18779992
96862182,Nashville,,1469722895000,36.17,-86.78,paul,TN,1470845231000,18779992
187277518,Nashville,"Huntington, WV",1449069846000,36.16,-86.79,Paul L. McNeely,TN,1498836751000,18779992
201759245,Nashville,,1458345190000,36.16,-86.79,Paul Park,TN,1458345190000,18779992
203477635,Dickson,,1469633697000,36.08,-87.43,Penny,TN,1470866375000,18779992
202794531,Nashville,,1459875140000,36.17,-86.78,Pete Clare,TN,1471372410000,18779992
119887392,Franklin,Nashville,1438703033000,35.93,-86.81,Peter Hunsberger,TN,1460059090000,18779992
53121132,Nashville,"Knights Landing, CA",1453920035000,36.17,-86.78,Peter Leiser,TN,1487693019000,18779992
69653682,Nashville,Nashville,1438626099000,36.11,-86.86,Philip Brown,TN,1441809288000,18779992
162419382,Nashville,Nashville,1441287460000,36.16,-86.79,Philip Teagle,TN,1441287460000,18779992
132625412,Brentwood,,1470071206000,36.0,-86.79,Pruthviraj Bhosale,TN,1470071206000,18779992
181558152,Nashville,,1445598987000,36.09,-86.82,Rachel Layburn,TN,1459399364000,18779992
175300482,Nashville,,1459559080000,36.16,-86.79,Rav,TN,1498662005000,18779992
214418086,Nashville,,1475700783000,36.17,-86.78,Rayce Wiggins,TN,1502581456000,18779992
100367272,Nashville,,1438615299000,36.13,-86.8,Rebecca Cronin-Dixon,TN,1438799460000,18779992
509953,Chapel Hill,Nashville,1451406082000,35.62,-86.62,Red French,TN,1508590512000,18779992
195495945,Nashville,,1447386732000,36.17,-86.78,ReemTA,TN,1447386732000,18779992
192771391,Nashville,,1442340177000,36.11,-86.78,Regina Jensen,TN,1443445664000,18779992
193879243,Clarksville,,1444426908000,36.56,-87.41,Remotely Operated Concepts,TN,1444426908000,18779992
206848046,Nashville,,1465570023000,36.17,-86.78,Ren Teagle,TN,1465570023000,18779992
199650470,Nashville,,1455368285000,36.17,-86.78,Richard,TN,1455368285000,18779992
210429287,Nashville,,1470405568000,36.17,-86.78,Richard Hunter,TN,1470780875000,18779992
183228859,Dallas,,1462822350000,32.79,-96.8,Rizwn s,TX,1462822350000,18779992
207103542,White House,,1467722884000,36.48,-86.69,Robert Allman,TN,1467722884000,18779992
192120020,Nashville,,1441129088000,36.17,-86.78,Robert K,TN,1471487877000,18779992
154297762,Nashville,,1459486823000,36.09,-86.82,Robert Rochford ,TN,1459881658000,18779992
235162972,Nashville,,1504021591000,36.14,-86.74,Robert Shunk,TN,1504021591000,18779992
225188047,Nashville,Nashville,1499397304000,36.15,-86.86,Ron,TN,1499397304000,18779992
14044727,Nashville,,1465273625000,36.16,-86.79,Ronald,TN,1498181127000,18779992
218287357,Nashville,,1498880522000,36.11,-86.78,Ruslan Mardugalliamov,TN,1498880522000,18779992
11827812,Asheville,Asheville,1466754808000,35.59,-82.56,Ryan ,NC,1467682585000,18779992
14466241,Franklin,"Franklin, TN",1447897262000,35.92,-86.89,Ryan Goltry,TN,1449074093000,18779992
201680292,Nashville,,1470257852000,36.15,-86.86,Ryan O'Daniel,TN,1470923684000,18779992
13214587,Nashville,,1448957943000,36.07,-86.73,Ryan Osborne,TN,1449122929000,18779992
211271973,Nashville,,1472168879000,36.17,-86.78,Ryan Stubbs,TN,1472168879000,18779992
26926402,Nashville,,1441706879000,36.13,-86.8,Ryan Waggoner,TN,1441706879000,18779992
191160484,Nashville,,1455540564000,36.09,-86.82,Sally Fisher,TN,1455540564000,18779992
15446041,Nashville,Nashville,1457031979000,36.08,-86.72,Samuel Palaparthy,TN,1488395809000,18779992
221128997,Nashville,,1485912838000,36.17,-86.78,Sandeep Reddy,TN,1503615208000,18779992
194684339,Nashville,,1465915683000,36.16,-86.77,Sarah,TN,1465915683000,18779992
214590028,Nashville,,1475954921000,36.18,-86.81,Sarai Corea,TN,1475954921000,18779992
3264966,San Francisco,,1452311443000,37.78,-122.42,Sat,CA,1452311443000,18779992
42767962,Nashville,USA,1456412814000,36.17,-86.78,Scott,TN,1456514041000,18779992
202556497,Hermitage,,1459537945000,36.19,-86.6,Scott Michael,TN,1459776068000,18779992
62088352,Nashville,,1459799114000,36.17,-86.78,Scott Wespi,TN,1459799114000,18779992
193758164,Nashville,,1444193210000,36.15,-86.86,Sefora M. Rodriguez,TN,1456429526000,18779992
190978121,Lebanon,,1438923259000,36.21,-86.31,Senn Nathan,TN,1438923259000,18779992
9003361,Franklin,,1455669401000,35.93,-86.81,seppy NYANG'ORO,TN,1455669401000,18779992
161004522,Nashville,,1460586859000,36.1,-86.66,Sequina,TN,1460586859000,18779992
235541488,Nashville,,1504444920000,36.07,-86.73,Sergio Bello,TN,1504444920000,18779992
106415802,Brentwood,Nashville,1456422753000,36.0,-86.79,Shaker Cherukuri,TN,1460047416000,18779992
184335022,Nashville,,1448976207000,36.16,-86.79,Shawn,TN,1449084550000,18779992
196390199,Nashville,,1452714094000,36.16,-86.79,Shawn Cothran,TN,1452714094000,18779992
196348356,Nashville,,1449079196000,36.17,-86.78,Sheik Ahamed Ali,TN,1469729247000,18779992
231522514,Nashville,,1499708243000,36.17,-86.78,Shu XU,TN,1499708243000,18779992
206865240,Antioch,,1466128103000,36.17,-86.88,shweta ,TN,1466128103000,18779992
150289852,Nashville,,1445326684000,36.17,-86.72,Simone Gonzalez,TN,1465226257000,18779992
211460040,Nashville,,1471879472000,36.17,-86.78,sonya jones,TN,1471879472000,18779992
196309128,Nashville,,1449001805000,36.17,-86.78,sowmya Tiramdasu,TN,1471967490000,18779992
194438225,Nashville,,1447430719000,36.17,-86.78,Sri Macherla,TN,1484345028000,18779992
236879947,Nashville,,1505786628000,36.08,-86.72,Srinivas Raghavan,TN,1505786628000,18779992
236332354,Fairview,,1505246407000,35.97,-87.13,Stacey Joplin,TN,1505246407000,18779992
190557229,Nashville,,1456429599000,36.18,-86.74,Stephanie,TN,1465967931000,18779992
211293558,Nashville,,1471640161000,36.18,-86.74,Stephanie Parker,TN,1471640161000,18779992
215550708,Nashville,,1477368886000,36.15,-86.81,Steve Talabi,TN,1477368886000,18779992
3430705,Franklin,Franklin,1439926990000,35.99,-86.9,Steve Winton,TN,1439926990000,18779992
192542264,Nashville,,1442508312000,36.17,-86.78,Steve York,TN,1449096520000,18779992
217409885,Brentwood,,1480368037000,36.0,-86.79,Steven Hodgkins,TN,1480368037000,18779992
192710956,Nashville,,1442236182000,36.16,-86.79,Stoney Enix,TN,1442665665000,18779992
143656952,Hyderabad,,1470631391000,17.4,78.48,subrahmanyam vaddi,,1498640144000,18779992
205818653,Antioch,,1464150646000,36.04,-86.64,Sunday Akinsete,TN,1464150646000,18779992
42062352,Tampa,florida,1438703381000,28.01,-82.55,sunil rajput,FL,1449095773000,18779992
210131587,Nashville,,1469987008000,36.17,-86.78,Susan Duckett,TN,1469987008000,18779992
197780026,La Vergne,,1452265611000,36.01,-86.57,Susan Jett,TN,1452265611000,18779992
218144684,Nashville,,1481652362000,36.17,-86.78,Susan Smith,TN,1481652362000,18779992
42955792,Nashville,,1438807023000,36.13,-86.8,Susanna Richards,TN,1438807023000,18779992
191202867,Franklin,,1439343951000,35.93,-86.81,swati bhandaru,TN,1440621950000,18779992
199854245,Nashville,,1472153634000,36.17,-86.72,Tamarcus Summers,TN,1472153634000,18779992
206428101,Nashville,,1473737531000,36.17,-86.78,Tasha,TN,1473737531000,18779992
211551769,Nashville,Nashville,1471995678000,36.18,-86.74,taylor,TN,1471995678000,18779992
108490052,Nashville,"Columbia, SC",1470860972000,36.06,-86.96,Taylor Desseyn,TN,1471392872000,18779992
163937682,Nashville,,1438664491000,36.17,-86.78,Taylor Jones,TN,1438664491000,18779992
126066112,Nashville,Nashville,1455301971000,36.17,-86.78,Taylor Michael Matson,TN,1483078172000,18779992
192489759,Nashville,,1459798637000,36.17,-86.78,Taylor Miley,TN,1459798637000,18779992
197780056,Nashville,,1452204525000,36.06,-86.96,Taylor Preston,TN,1452204525000,18779992
202663947,Clarksville,,1459697147000,36.53,-87.35,Taylor TayloredServices,TN,1459697147000,18779992
229643678,Nashville,,1501608619000,36.11,-86.78,ten,TN,1501608619000,18779992
190363122,Franklin,New York,1442874612000,35.92,-86.89,Thad Parker,TN,1459773978000,18779992
185785631,Brentwood,New York,1442088292000,36.0,-86.79,Thiruvengadathan Ramjee,TN,1470964236000,18779992
87420672,Nashville,,1440892484000,36.0,-86.69,Thomas Bangs,TN,1455201565000,18779992
139006842,Nashville,,1453801986000,36.15,-86.81,Thomas Gideon,TN,1453801986000,18779992
191904975,Vine Grove,,1440707401000,37.81,-85.99,Tiffany Dunigan,KY,1441243826000,18779992
198659262,Nashville,,1453825965000,36.11,-86.86,Tim,TN,1453825965000,18779992
135318882,Nashville,,1438615325000,36.15,-86.86,Tim B,TN,1449074093000,18779992
76842942,Nashville,,1449494446000,36.17,-86.78,Tim Catchim,TN,1449669276000,18779992
13766608,Spring Hill,Gogona,1490458364000,35.76,-86.88,Tim Duncklee,TN,1490458364000,18779992
207230541,Antioch,,1466092154000,36.04,-86.64,Tim Ross,TN,1466092154000,18779992
20781521,Murfreesboro,,1499711643000,35.87,-86.34,Tim Wickstrom,TN,1499711643000,18779992
101312342,Nashville,,1471366554000,36.17,-86.78,Tobin Quadros,TN,1472753868000,18779992
5014248,Nashville,,1449002005000,36.13,-86.8,Todd,TN,1459911970000,18779992
110598422,Nashville,,1464616331000,36.17,-86.78,Todd Rizzolo,TN,1477842156000,18779992
124825542,Nashville,Nashville,1454957026000,36.18,-86.81,Tom Gilkison,TN,1454957026000,18779992
192159743,Nashville,,1442353098000,36.18,-86.74,Tom Leslie,TN,1442353098000,18779992
191544301,Nashville,,1440016718000,36.13,-86.8,Tom Noser,TN,1440016718000,18779992
78829032,Murfreesboro,,1462148448000,35.82,-86.45,Tony Fletcher,TN,1462916036000,18779992
209290669,Nashville,,1468868591000,36.17,-86.78,Toren Carr,TN,1468868591000,18779992
8228323,Nashville,,1470417209000,36.17,-86.78,tracy ,TN,1508249112000,18779992
39856372,Nashville,,1470784679000,36.17,-86.78,Travis B,TN,1470784679000,18779992
199492078,Nashville,,1455127931000,36.17,-86.78,Tray W,TN,1455127931000,18779992
184332334,Nashville,,1442824331000,36.17,-86.78,Tremaine James,TN,1442824331000,18779992
138867992,Nashville,,1475177630000,36.17,-86.72,Trent Hand,TN,1475177630000,18779992
232676485,Nashville,,1501105476000,36.15,-86.81,Trev Lawson,TN,1501520416000,18779992
208561446,Nashville,,1467915524000,36.17,-86.78,Tristan Greeno,TN,1467915524000,18779992
204906987,Nashville,,1465941214000,36.17,-86.78,Trozdol,TN,1466112812000,18779992
233500180,Nashville,,1502118674000,36.14,-86.74,Tyler Barnett,TN,1502118674000,18779992
184829557,Nashville,,1452312077000,36.17,-86.78,Uday,TN,1498784406000,18779992
207061281,Nashville,,1465856512000,36.17,-86.78,Vaughn Walters,TN,1498186621000,18779992
213204354,Nashville,,1474220384000,36.17,-86.78,vedderman,TN,1474220384000,18779992
186930425,Franklin,,1438718849000,35.93,-86.81,venkatesh,TN,1438718849000,18779992
199054169,Franklin,,1454440851000,35.92,-86.89,Venkatesh,TN,1454440851000,18779992
184492327,Nashville,,1451338448000,36.11,-86.78,Victor,TN,1460600909000,18779992
190968857,Mount Juliet,,1438911750000,36.22,-86.52,Vijay A,TN,1469642170000,18779992
120681332,Nashville,,1457969265000,36.13,-86.8,Vincent Taylor,TN,1508084513000,18779992
231671031,Nashville,,1499883571000,36.17,-86.78,Weezy615,TN,1499883571000,18779992
8925798,Nashville,,1444029005000,36.17,-86.78,Wendy Williams,TN,1444029005000,18779992
182072982,Smyrna,Nashville,1465866994000,35.97,-86.51,Wes,TN,1466019827000,18779992
163409802,Nashville,,1449002429000,36.09,-86.93,Wesam,TN,1470362512000,18779992
9852711,Nashville,Nashville,1444847351000,36.11,-86.86,Weston Hunter,TN,1444847351000,18779992
202978621,Nashville,,1468289611000,36.1,-86.66,Whitney Mitchell,TN,1468289611000,18779992
104949862,Chicago,Nashville,1449859887000,41.9,-87.67,Will WIlkins III,IL,1464130112000,18779992
195150281,Mount Juliet,Mount Juliet,1447691180000,36.21,-86.52,William Etcetera,TN,1506260341000,18779992
150950742,Nashville,,1456621533000,36.17,-86.78,willkotheimer,TN,1456621533000,18779992
188388271,Nashville,Nashville,1465928231000,36.17,-86.78,Yashwanth N,TN,1465928231000,18779992
151330032,Nashville,,1439177641000,36.16,-86.79,Yuri Livshitz,TN,1439177641000,18779992
183602124,Nashville,,1479774747000,36.11,-86.78,Zach Leaver,TN,1482951483000,18779992
