id,city,hometown,joined,lat,lon,name,state,visited,group_id
230817577,Nashville,,1498851811000.0,36.16,-86.79,Abbey Watson,TN,1498851811000.0,18795154
191109173,Nashville,,1439168975000.0,36.18,-86.74,Abrial Solis,TN,1455390702000.0,18795154
205107728,Nashville,,1463316457000.0,36.16,-86.79,Abror Mamatkulov,TN,1463316457000.0,18795154
209052567,Brentwood,,1468553645000.0,36.0,-86.79,Adamo,TN,1468553645000.0,18795154
201442679,Nashville,,1457896770000.0,36.17,-86.78,Ajani Bakari,TN,1457896770000.0,18795154
228653262,Carthage,,1496158292000.0,36.26,-85.99,Alex Bray,TN,1496158292000.0,18795154
220718465,Nashville,,1485390639000.0,36.16,-86.79,Alex Lundy,TN,1485390639000.0,18795154
227526210,Nashville,,1499692491000.0,36.09,-86.82,Alex Rizzutto,TN,1500824063000.0,18795154
235742118,Nashville,,1504650408000.0,36.17,-86.78,Alex S,TN,1504650408000.0,18795154
206301026,Greenville,,1464836698000.0,34.85,-82.4,Alexandria Skyler,SC,1487579954000.0,18795154
231310960,Smithville,,1499457446000.0,35.96,-85.82,Alexis Jaya Cosmikz,TN,1499457446000.0,18795154
189336466,Minneapolis,"Mobile, AL",1454790648000.0,44.96,-93.29,Alison,MN,1454790648000.0,18795154
229592871,Hendersonville,,1497313171000.0,36.3,-86.62,Allen Alexander,TN,1497313171000.0,18795154
238258678,Mount Juliet,,1507309061000.0,36.22,-86.52,Allie Hunter,TN,1507309061000.0,18795154
226791775,Nashville,,1493703470000.0,36.14,-86.74,Allison Russell,TN,1493703470000.0,18795154
101916702,Nashville,,1447736178000.0,36.11,-86.78,Amanda,TN,1447736178000.0,18795154
194599366,Alexandria,Alexandria ,1445748151000.0,36.08,-86.04,Amanda Freehoff,TN,1446858666000.0,18795154
201165678,Murfreesboro,,1480872881000.0,35.78,-86.33,Amanda Shields,TN,1495812627000.0,18795154
201946150,Smyrna,,1458606005000.0,35.97,-86.51,Amanda Vu,TN,1458606005000.0,18795154
203056540,New York,,1460247317000.0,40.75,-73.99,Amber Lamb,NY,1460247317000.0,18795154
194376022,Nashville,,1447527104000.0,36.11,-86.78,Amber Sutphen,TN,1471621427000.0,18795154
235269212,Nashville,,1504127846000.0,36.08,-86.72,Amber Walters,TN,1504127846000.0,18795154
212446158,Nashville,,1473217924000.0,36.17,-86.78,Amelia,TN,1487019768000.0,18795154
155468302,Clarksville,,1455869274000.0,36.49,-87.23,Amily,TN,1455869274000.0,18795154
194478639,Murfreesboro,,1445537081000.0,35.78,-86.33,Amy,TN,1491242593000.0,18795154
203577212,Nashville,,1460990910000.0,36.17,-86.78,Amy,TN,1463247368000.0,18795154
216192762,Hermitage,,1478375327000.0,36.19,-86.6,Amy Holmberg,TN,1485401454000.0,18795154
160845252,Murfreesboro,,1502215371000.0,35.78,-86.33,Andrea Moore,TN,1502215371000.0,18795154
226151366,Antioch,,1492845558000.0,36.04,-86.64,Andy Trujillo,TN,1492845558000.0,18795154
202734070,Hendersonville,,1459793335000.0,36.32,-86.61,Angela,TN,1466246579000.0,18795154
200215452,Nashville,,1456143909000.0,36.17,-86.78,Angie Taylor,TN,1497092183000.0,18795154
201861629,Nashville,,1458494532000.0,36.17,-86.78,Angus Gray,TN,1461027164000.0,18795154
45178062,Nashville,"Columbus, OH",1500944958000.0,36.17,-86.78,Ann,TN,1500944958000.0,18795154
202906416,Nashville,,1460035901000.0,36.15,-86.86,Anna Flautt,TN,1460035901000.0,18795154
198188049,Franklin,,1452964913000.0,35.93,-86.81,Annette,TN,1492156111000.0,18795154
164593582,Hartsville,"Dallas, TX",1505616596000.0,36.39,-86.16,Annette Bales,TN,1505616596000.0,18795154
199233535,Brentwood,,1454723483000.0,36.0,-86.79,Anthony Kiriazes,TN,1458431841000.0,18795154
232461478,Nashville,,1500849098000.0,36.15,-86.72,Anthony Milan,TN,1500849098000.0,18795154
221871047,Nashville,,1486870599000.0,36.13,-86.67,Antonio C.,TN,1500291782000.0,18795154
13758438,Smyrna,Smyrna,1500389806000.0,35.97,-86.51,antony gomes,TN,1500389806000.0,18795154
196547303,Antioch,,1449484658000.0,36.04,-86.64,Aretta Hill,TN,1449484658000.0,18795154
227496236,Nashville,,1494668507000.0,36.08,-86.72,ARi Lyon,TN,1494668507000.0,18795154
164897242,Nashville,,1502768344000.0,36.17,-86.78,Ari Niko Bradshaw,TN,1504582634000.0,18795154
198527598,Franklin,,1453585190000.0,35.92,-86.89,Ariana Greene,TN,1453585190000.0,18795154
197491835,Murfreesboro,,1478798481000.0,35.87,-86.44,ARTY,TN,1478798481000.0,18795154
211378260,Nashville,,1471766509000.0,36.17,-86.78,Ashley Kerssens,TN,1471766509000.0,18795154
233387655,Brentwood,,1501986775000.0,36.03,-86.79,Audrey,TN,1507496646000.0,18795154
197701155,Nashville,,1452087429000.0,36.11,-86.86,Avi,TN,1452087429000.0,18795154
209251847,Nashville,,1468824516000.0,36.06,-86.96,Aziz Nooh,TN,1471116804000.0,18795154
207510824,Nashville,,1466479495000.0,36.09,-86.82,Becca,TN,1483417108000.0,18795154
200860725,Murfreesboro,,1457053959000.0,35.87,-86.34,Becky Mayo,TN,1457053959000.0,18795154
197441319,Hermitage,,1451581678000.0,36.19,-86.6,Beth Cyrus,TN,1451581678000.0,18795154
194009157,Madison,,1444671739000.0,36.26,-86.71,Bill Langford,TN,1444671739000.0,18795154
220250336,Nashville,,1484798153000.0,36.17,-86.72,Billy Toulson,TN,1485037976000.0,18795154
222289339,Nashville,,1487454290000.0,36.17,-86.72,Birtha Street,TN,1487454290000.0,18795154
86235432,Spring Hill,Spring Hill,1452527818000.0,35.76,-86.88,Brandon,TN,1474724341000.0,18795154
234459307,Nashville,,1503205463000.0,36.1,-86.66,Brandon Hurst,TN,1503205463000.0,18795154
208822422,Smyrna,,1471118125000.0,35.97,-86.51,Brandon Lile,TN,1471118125000.0,18795154
219277661,Murfreesboro,,1483576960000.0,35.85,-86.4,Brandon Short,TN,1483576960000.0,18795154
228025718,Nashville,,1495373185000.0,36.08,-86.72,Brandon Tucker,TN,1495373185000.0,18795154
192066062,Murfreesboro,,1441030701000.0,35.78,-86.33,Brandylynn Nichole Smith,TN,1441030701000.0,18795154
133355872,Nashville,,1473982226000.0,36.17,-86.78,Bree,TN,1475079106000.0,18795154
193252503,Smyrna,,1443242672000.0,35.97,-86.51,Brenda Calhoun Shepherd,TN,1443304176000.0,18795154
9188552,Nashville,,1448161615000.0,36.08,-86.72,Brenda Kerr,TN,1503748468000.0,18795154
195570972,Hermitage,,1447538985000.0,36.19,-86.6,Brenda Montague,TN,1448670248000.0,18795154
198143455,Nashville,,1452877713000.0,36.06,-86.96,Brenda Wilson-Lowery,TN,1457125892000.0,18795154
183878494,Nashville,,1471359469000.0,36.17,-86.78,Brett,TN,1471895869000.0,18795154
228547326,Nashville,,1496168559000.0,36.14,-86.8,Brian Arrowood,TN,1497304692000.0,18795154
197677780,Franklin,,1507043752000.0,35.92,-86.89,Brian Emmel,TN,1508593545000.0,18795154
10319436,Nashville,Nashville,1493845803000.0,36.16,-86.79,Brian Szucs,TN,1498869536000.0,18795154
210148614,San Diego,,1470005981000.0,32.72,-117.17,Brittany,CA,1470005981000.0,18795154
205222791,Brentwood,,1463350569000.0,36.0,-86.79,Britteny Watson-Ivey,TN,1463350569000.0,18795154
194013316,Goodlettsville,,1453832052000.0,36.32,-86.72,Brooke Elrod,TN,1453832052000.0,18795154
62051382,Murfreesboro,Murfreesboro,1490211956000.0,35.82,-86.45,Brooke W,TN,1490216609000.0,18795154
215656172,Hendersonville,"Hendersonville, TN",1488419122000.0,36.32,-86.61,Bryan Melcher,TN,1488419122000.0,18795154
29042672,Nashville,,1456304818000.0,36.11,-86.86,Byron Van Buren,TN,1456304818000.0,18795154
221305173,Nashville,,1495732408000.0,36.17,-86.72,CallieC,TN,1495732408000.0,18795154
220934824,Nashville,,1485676227000.0,36.17,-86.77,calvin,TN,1485676227000.0,18795154
20079631,Washington,East Lansing,1459560515000.0,38.91,-77.02,Candace Hines,DC,1468766612000.0,18795154
209663250,Franklin,,1469365922000.0,35.92,-86.89,Candice Moy ,TN,1469365922000.0,18795154
205776213,Lebanon,,1464099400000.0,36.21,-86.31,Carina Sawyer,TN,1464099400000.0,18795154
197902347,Murfreesboro,,1452436378000.0,35.87,-86.34,Carlos ,TN,1469464290000.0,18795154
203201181,Hermitage,,1460449227000.0,36.19,-86.6,Carlton Jenkins,TN,1470503907000.0,18795154
214082062,Murfreesboro,,1475291819000.0,35.87,-86.44,Carol Brandon,TN,1507000530000.0,18795154
208274235,Nashville,,1467536160000.0,36.17,-86.78,Caroline,TN,1474145828000.0,18795154
192624058,Nashville,,1442072718000.0,36.22,-86.86,Carson Taylor Walker LeMaster,TN,1456681085000.0,18795154
205588198,Hermitage,,1463844781000.0,36.19,-86.6,Catie King,TN,1463861401000.0,18795154
191966482,Nashville,Nashville,1461166597000.0,36.22,-86.77,cayala,TN,1461166597000.0,18795154
228626923,Nashville,,1497162608000.0,36.18,-86.74,Chad Kim,TN,1507603281000.0,18795154
193362268,Nashville,,1443458062000.0,36.17,-86.78,Chandra,TN,1459908862000.0,18795154
183854811,Nashville,,1469717967000.0,36.17,-86.72,Chase M,TN,1472918801000.0,18795154
227816832,Nashville,,1495083343000.0,36.11,-86.78,Chauncey Nahsco,TN,1501617896000.0,18795154
231113614,Nashville,,1499214416000.0,36.16,-86.77,Chelsea Kirby,TN,1499214416000.0,18795154
195141820,Nashville,,1446747142000.0,36.08,-86.72,Chelsie Phillips,TN,1446747142000.0,18795154
233167860,Franklin,,1501723435000.0,35.93,-86.84,Cherri Scoggin,TN,1502686011000.0,18795154
221125818,Murfreesboro,,1485908446000.0,35.78,-86.33,Cheryl Smith,TN,1485908446000.0,18795154
208699688,Clarksville,,1468101856000.0,36.53,-87.35,Chevelle Breaux ,TN,1468208550000.0,18795154
207486907,Clarksville,,1498369819000.0,36.49,-87.23,Chris,TN,1505304329000.0,18795154
125442542,Nashville,Nashville,1499663134000.0,36.17,-86.78,Chris Bell,TN,1505092922000.0,18795154
170855672,Franklin,Franklin,1499963205000.0,35.92,-86.89,Chris Roberts,TN,1508758620000.0,18795154
226260361,Nashville,,1492988170000.0,36.16,-86.66,Chris Romero,TN,1492988170000.0,18795154
199319496,Mount Juliet,,1454867964000.0,36.22,-86.52,Christian Sue,TN,1457796255000.0,18795154
192135113,Nashville,,1441151737000.0,36.08,-86.72,Christina ,TN,1471755595000.0,18795154
193393112,Brentwood,,1443500833000.0,36.0,-86.79,Christina Zaragoza,TN,1443500833000.0,18795154
195467795,Murfreesboro,,1447340471000.0,35.85,-86.36,Christopher Warren,TN,1447340471000.0,18795154
201809446,Spring Hill,,1458417326000.0,35.76,-86.88,Cliff,TN,1458417326000.0,18795154
149812022,Nashville,,1498576891000.0,36.13,-86.8,Cody,TN,1501512933000.0,18795154
238597435,Beloit,,1507669602000.0,42.56,-89.09,ColeCase,WI,1507669602000.0,18795154
211357368,Nashville,,1471732828000.0,36.09,-86.82,Collin J Reynolds,TN,1471732828000.0,18795154
192347356,Nashville,,1441564529000.0,36.18,-86.74,Connor,TN,1441564529000.0,18795154
193633239,Readyville,,1443975067000.0,35.82,-86.22,Connor Lewis,TN,1443975067000.0,18795154
123590512,Nashville,"Ojai, CA",1478012064000.0,36.22,-86.77,Cory,TN,1478101017000.0,18795154
232877964,Antioch,,1501364932000.0,36.04,-86.64,creshia Hunt,TN,1501364932000.0,18795154
214402006,Nashville,,1475684631000.0,36.17,-86.78,Daniel Stone,TN,1497905431000.0,18795154
199685371,Murfreesboro,,1455410895000.0,35.78,-86.33,Daniel Wimberley,TN,1455410895000.0,18795154
210983425,Antioch,,1471199704000.0,36.04,-86.64,Danielle Lee Davis,TN,1471199704000.0,18795154
207949658,Nashville,,1467080737000.0,36.09,-86.82,Danielle Slomka,TN,1467080737000.0,18795154
2220997,Fairview,"Fairview, TN",1470706548000.0,35.97,-87.13,Danny,TN,1470706548000.0,18795154
232043973,Nashville,,1500330981000.0,36.18,-86.81,Danny Lozano,TN,1500930271000.0,18795154
195714467,Antioch,,1447806861000.0,36.17,-86.88,darryl cox,TN,1447806861000.0,18795154
231152286,Nashville,,1499269285000.0,36.1,-86.66,David Edward Strayer,TN,1499269285000.0,18795154
202205771,Nashville,,1459016621000.0,36.17,-86.78,David Mead,TN,1459016621000.0,18795154
200939036,Smithville,,1457176909000.0,35.96,-85.82,David Young,TN,1457176909000.0,18795154
192131406,Nashville,,1441145695000.0,36.17,-86.78,davidson hardin,TN,1441145695000.0,18795154
14455848,Murfreesboro,,1478652693000.0,35.82,-86.45,DeAnna,TN,1478652693000.0,18795154
203230216,Nashville,Nashville,1465736678000.0,36.11,-86.78,Debi G,TN,1483707648000.0,18795154
199105883,Nashville,,1454521826000.0,36.17,-86.72,Debra Dimmitt Pepper,TN,1454521826000.0,18795154
234029820,Franklin,,1507679232000.0,35.92,-86.89,Debra Dutcher,TN,1507679232000.0,18795154
217710173,Nashville,,1480883905000.0,36.17,-86.78,Deckard Elder,TN,1480883905000.0,18795154
11049744,Dupont,,1485394517000.0,47.09,-122.64,Dee,WA,1501027713000.0,18795154
210198547,Murfreesboro,,1470075156000.0,35.78,-86.33,Delle N. Griffin,TN,1478576967000.0,18795154
16624181,Nashville,,1442888148000.0,36.16,-86.79,Dennis,TN,1442888148000.0,18795154
185949407,Hermitage,,1469505210000.0,36.19,-86.6,Derek,TN,1505094889000.0,18795154
202053242,Columbia,,1458772080000.0,35.61,-87.05,Dese,TN,1458776349000.0,18795154
201365273,Nashville,,1457983380000.0,36.06,-86.96,Diana D,TN,1464578223000.0,18795154
36480052,Nashville,,1438711101000.0,36.17,-86.78,Dina Capitani,TN,1440246702000.0,18795154
212191797,Hendersonville,,1472886056000.0,36.32,-86.61,Dominic Camany,TN,1472886056000.0,18795154
198062077,Gallatin,,1453237090000.0,36.39,-86.45,Don-Cindy Baughman,TN,1456867393000.0,18795154
30506502,Murfreesboro,"Gulfport, MS",1496124031000.0,35.78,-86.33,Dora,TN,1508027838000.0,18795154
216915574,Ocala,,1479512915000.0,29.03,-82.16,Dorethea Briggs,FL,1486086066000.0,18795154
7445833,Smyrna,"Melbourne, FL",1480173361000.0,35.97,-86.51,Doss,TN,1480173361000.0,18795154
182570117,Antioch,,1491182779000.0,36.17,-86.88,doyi,TN,1491182779000.0,18795154
195455132,Murfreesboro,,1447312193000.0,35.87,-86.44,Drecember,TN,1447312193000.0,18795154
88201422,Nashville,,1481777675000.0,36.18,-86.69,Dustyn Rothenberger,TN,1482205975000.0,18795154
198763296,Nashville,,1453991015000.0,36.17,-86.78,Earice Roberts,TN,1455725845000.0,18795154
200506070,Nashville,,1456544163000.0,36.17,-86.78,Ebony Arnett,TN,1456544163000.0,18795154
192792326,Nashville,,1442373595000.0,36.17,-86.78,Edessa Yousefzadeh,TN,1442392885000.0,18795154
38492382,Clarksville,,1446678932000.0,36.56,-87.41,edith,TN,1480100881000.0,18795154
9373063,Brentwood,Brentwood,1458086114000.0,36.0,-86.79,Eilis Crean,TN,1477432393000.0,18795154
205287362,Madisonville,,1463447997000.0,37.34,-87.5,Eleganta Weddings and Events,KY,1463447997000.0,18795154
207475501,Nashville,,1466444180000.0,36.17,-86.78,elena ,TN,1466444180000.0,18795154
162559442,Nashville,,1481398873000.0,36.16,-86.78,Elizabeth Hope Bradley,TN,1481503082000.0,18795154
39692472,Nashville,,1485801713000.0,36.16,-86.79,Elizabeth Reed,TN,1485801713000.0,18795154
208943190,Woodbury,,1468417346000.0,35.81,-86.07,Ellen Mckeon,TN,1468417346000.0,18795154
192349588,Hendersonville,,1441568165000.0,36.32,-86.61,Ellesquared,TN,1441568165000.0,18795154
196607185,Nashville,,1449592114000.0,36.1,-86.66,Em,TN,1449592114000.0,18795154
81069462,Nashville,,1463436616000.0,36.17,-86.79,Em Sydney,TN,1491879717000.0,18795154
195925846,Spring Hill,,1448220373000.0,35.76,-86.88,Emily B,TN,1452175659000.0,18795154
200924381,Fort Lauderdale,,1457149751000.0,26.12,-80.13,Emily Duckworth,FL,1457149751000.0,18795154
13553126,Nashville,,1439341535000.0,36.17,-86.78,Emily Mansfield,TN,1439341535000.0,18795154
93060442,Nashville,,1446941321000.0,36.17,-86.78,Emily Muro,TN,1468541894000.0,18795154
212306666,Nashville,,1473040298000.0,36.13,-86.8,Emily Rose,TN,1475228269000.0,18795154
220028036,Nashville,,1484536274000.0,36.17,-86.78,Emily V-K,TN,1508179524000.0,18795154
235749797,Murfreesboro,,1504652360000.0,35.87,-86.44,Emily Wilkerson,TN,1504652360000.0,18795154
217242527,La Vergne,,1480072842000.0,35.99,-86.6,Eric Yarbrough,TN,1480072842000.0,18795154
222503814,Nashville,,1487741941000.0,36.08,-86.72,Erin Connors,TN,1487741941000.0,18795154
231849870,Nashville,,1500087434000.0,36.1,-86.66,Esther Niebel,TN,1500087434000.0,18795154
191269883,Antioch,,1439603748000.0,36.04,-86.64,Estrella Whitehurst,TN,1439603748000.0,18795154
204686178,Brandon,,1462602657000.0,32.28,-90.01,Evan Buford,MS,1462602657000.0,18795154
201992890,Nashville,,1458677606000.0,36.13,-86.8,Evan Michael Coniglio,TN,1458677606000.0,18795154
196853630,Nashville,,1450114750000.0,36.17,-86.78,Evelyne G.,TN,1450114750000.0,18795154
210019835,Nashville,,1469831266000.0,36.17,-86.78,Everett Schuster,TN,1469855230000.0,18795154
227354771,Nashville,,1494468526000.0,36.13,-86.8,Fate Melton,TN,1502897153000.0,18795154
229376349,Murfreesboro,,1497047382000.0,35.82,-86.45,Felisha Johnson,TN,1497047382000.0,18795154
9354831,Nashville,,1444188666000.0,36.13,-86.8,Fran E,TN,1489696836000.0,18795154
28608902,Nashville,"Nashville, tn",1439126859000.0,36.11,-86.78,Francesca,TN,1501435791000.0,18795154
9627667,Nashville,,1495666915000.0,36.15,-86.86,Garrett ,TN,1495666915000.0,18795154
213104966,Nashville,,1474092335000.0,36.18,-86.74,Garrett Carr,TN,1474433877000.0,18795154
212449723,Nashville,,1475621254000.0,36.17,-86.78,Garrett G,TN,1476476510000.0,18795154
221845228,Madison,,1486844343000.0,36.26,-86.71,Garry Lyons,TN,1486844343000.0,18795154
201510578,Smithville,,1457985934000.0,35.96,-85.82,Geri,TN,1458401051000.0,18795154
74272472,Mount Juliet,,1464318908000.0,36.21,-86.52,Gerry,TN,1464353811000.0,18795154
209506027,Nashville,Nashville,1475553893000.0,36.11,-86.78,Gerry,TN,1475553893000.0,18795154
232131004,Antioch,,1500432786000.0,36.04,-86.64,Gianna Richardson,TN,1500432786000.0,18795154
191456121,Jamestown,,1439848507000.0,36.41,-84.94,Gina Wright ,TN,1439848507000.0,18795154
14310282,Easthampton,Easthampton,1471794928000.0,42.29,-72.72,Glenn Pettit,MA,1471794928000.0,18795154
196694851,Nashville,,1469475775000.0,36.17,-86.78,Grace,TN,1469591298000.0,18795154
232404689,Nashville,,1500777430000.0,36.16,-86.79,Grace E. Lewis,TN,1502313684000.0,18795154
197271374,Nashville,,1454553050000.0,36.17,-86.78,Grace Gonzalez,TN,1454553050000.0,18795154
198312825,Nashville,,1453183668000.0,36.1,-86.66,H. Marbry,TN,1459796179000.0,18795154
206230171,Franklin,,1464739207000.0,35.99,-86.9,Hayley,TN,1491778477000.0,18795154
230465992,Nashville,,1498419780000.0,36.15,-86.8,Infiniti,TN,1498419780000.0,18795154
5641432,Nashville,,1473602194000.0,36.17,-86.78,ingrid,TN,1473614593000.0,18795154
39780442,Nashville,,1446604875000.0,36.08,-86.72,Ingrid Regen,TN,1446604875000.0,18795154
204036931,Murfreesboro,,1461642032000.0,35.87,-86.34,Ingrid Rogers,TN,1502630812000.0,18795154
59543352,Nashville,,1469391180000.0,36.13,-86.8,Irene Popa,TN,1469391180000.0,18795154
191235421,Lebanon,,1454280887000.0,36.21,-86.31,Isaac Bradford,TN,1454280887000.0,18795154
220887460,Franklin,,1485621481000.0,35.92,-86.89,J Brinker,TN,1486144816000.0,18795154
11626496,Nashville,"New Haven, NS",1459247871000.0,36.14,-86.74,J Wolf,TN,1470490041000.0,18795154
13912713,Nashville,Nashville,1455609758000.0,36.17,-86.78,Jacqueline Scully,TN,1487558795000.0,18795154
219578866,Nashville,,1483964945000.0,36.17,-86.78,Jade,TN,1502127163000.0,18795154
220034281,Nashville,,1484543699000.0,36.14,-86.8,Jake Tudor,TN,1484543699000.0,18795154
227370891,Nashville,,1494495370000.0,36.13,-86.8,james adams,TN,1501755449000.0,18795154
195396018,Murfreesboro,,1447202888000.0,35.78,-86.33,James Logan Hargrove,TN,1447700678000.0,18795154
196024931,Antioch,,1448402272000.0,36.04,-86.64,James Matthew Freeman,TN,1448402272000.0,18795154
209101344,Murfreesboro,,1468624704000.0,35.78,-86.33,Jan,TN,1469922297000.0,18795154
205622298,Nashville,,1463887535000.0,36.18,-86.74,Jane Santiago,TN,1463887535000.0,18795154
232698644,Nashville,,1502585517000.0,36.17,-86.78,Jason Lerner,TN,1502671390000.0,18795154
42509372,Nashville,,1486481346000.0,36.08,-86.72,Jayme E. Gwaltney,TN,1486481346000.0,18795154
183890081,Franklin,,1455902669000.0,35.93,-86.81,JC Morrissey,TN,1485654843000.0,18795154
203609769,Murfreesboro,,1461029523000.0,35.86,-86.37,Jeff Schmidt,TN,1485099472000.0,18795154
214961078,Murfreesboro,,1476503400000.0,35.78,-86.33,Jen,TN,1477450870000.0,18795154
8422570,Franklin,michigan,1482798000000.0,35.93,-86.81,jennette   ,TN,1483068187000.0,18795154
199025560,Smyrna,,1454392122000.0,35.97,-86.51,Jenni,TN,1454392122000.0,18795154
210773467,Nashville,,1470884074000.0,36.17,-86.78,Jennifer ,TN,1472417186000.0,18795154
192967150,Thompsons Station,,1442710437000.0,35.8,-86.9,Jennifer Bass,TN,1442710437000.0,18795154
200072261,Nashville,,1455945151000.0,36.06,-86.96,Jennifer Pettigrew,TN,1455945151000.0,18795154
192442940,Murfreesboro,,1441733468000.0,35.87,-86.34,Jennifer Rhodes,TN,1441733468000.0,18795154
95599772,Nashville,,1471957865000.0,36.1,-86.66,Jenny,TN,1483198394000.0,18795154
202101762,Hendersonville,,1458849149000.0,36.32,-86.61,Jenny Johnson,TN,1488826044000.0,18795154
215906368,Old Hickory,,1477933057000.0,36.25,-86.63,Jeremy H,TN,1478288207000.0,18795154
192127337,Nashville,,1441307929000.0,36.18,-86.74,Jeremy Harmeyer,TN,1441307929000.0,18795154
228229437,Nashville,,1495592703000.0,36.08,-86.72,Jesse Slizoski,TN,1495686893000.0,18795154
235567524,Nashville,,1504470189000.0,36.08,-86.72,Jesse White,TN,1507245578000.0,18795154
38690452,Nashville,Cypress,1447304015000.0,36.11,-86.8,Jessica,TN,1447304015000.0,18795154
232604353,Nashville,,1501018504000.0,36.17,-86.78,Jessica Jones,TN,1501018504000.0,18795154
194733200,Mount Juliet,,1445980188000.0,36.21,-86.52,Jessica Rogers,TN,1445980188000.0,18795154
49060972,Nashville,,1444004757000.0,36.17,-86.78,Jessica Smith,TN,1444181655000.0,18795154
49099642,Nashville,Florida,1449330189000.0,36.14,-86.74,Jessie,TN,1506195143000.0,18795154
210135283,Nashville,"Waterloo, IA",1469998007000.0,36.17,-86.78,Jezebel Hope,TN,1470179802000.0,18795154
206676038,Knoxville,,1465337554000.0,35.96,-83.92,Jill Welch,TN,1466056968000.0,18795154
3380276,Nashville,Nashville/Shelbyville,1461417870000.0,36.11,-86.78,Jim H,TN,1473609125000.0,18795154
195989555,Chattanooga,,1448333681000.0,35.07,-85.31,Jim Ramsey,TN,1448333681000.0,18795154
192375231,Nashville,,1441619049000.0,36.08,-86.72,Jimmy,TN,1441619049000.0,18795154
215556084,Nashville,,1482936253000.0,36.17,-86.78,Jimmy McElravy,TN,1497897346000.0,18795154
13040721,Nashville,,1452196218000.0,36.09,-86.82,Joan Kuykendall,TN,1452196218000.0,18795154
218054797,Nashville,,1481485341000.0,36.16,-86.79,Joann Young,TN,1485392345000.0,18795154
207387957,Saint Louis,,1475967430000.0,38.63,-90.19,Joanne Song,MO,1475967430000.0,18795154
189479551,Nashville,"Damascus, MD",1500863733000.0,36.06,-86.96,Joe Morris,TN,1500863733000.0,18795154
209407174,Franklin,,1469035471000.0,35.92,-86.89,Joel Coady,TN,1502828465000.0,18795154
201778047,Sonora,,1458370069000.0,38.0,-120.33,John ,CA,1458370069000.0,18795154
58941522,Brentwood,Franklin,1485304569000.0,36.0,-86.79,John Arndts,TN,1497230410000.0,18795154
211731429,Bronx,,1472249412000.0,40.81,-73.89,John Babcock,NY,1472249412000.0,18795154
233653297,Murfreesboro,,1502331476000.0,35.78,-86.33,John Bettencourt,TN,1502766601000.0,18795154
223575956,Murfreesboro,,1489265618000.0,35.78,-86.33,John Fitzgerald,TN,1500321945000.0,18795154
14171672,San Antonio,37066,1502670602000.0,29.62,-98.62,John McPherson,TX,1502670602000.0,18795154
198012175,Smyrna,,1453077373000.0,35.97,-86.51,John Primm,TN,1453077373000.0,18795154
192276121,Franklin,,1441423575000.0,35.92,-86.89,Jonathan German,TN,1441423575000.0,18795154
184844188,Nashville,,1438548104000.0,36.1,-86.66,Jonathan Opp,TN,1508599429000.0,18795154
89446912,Franklin,"Franklin, TN",1439142739000.0,35.92,-86.89,Jonathan Oppenheimer,TN,1504568825000.0,18795154
222232854,Nashville,,1487370854000.0,36.14,-86.74,Jorge Albornoz Salazar,TN,1488224067000.0,18795154
209381189,Nashville,,1468982512000.0,36.17,-86.78,Josh Mac,TN,1468982512000.0,18795154
197964186,Murfreesboro,,1452541496000.0,35.82,-86.45,Josh Scalf,TN,1452541496000.0,18795154
216823553,Lebanon,,1479366095000.0,36.21,-86.31,Joshua Foster,TN,1479366095000.0,18795154
192878370,Nashville,,1442539055000.0,36.17,-86.72,Joy,TN,1442539055000.0,18795154
149419532,Franklin,"Chicago, IL",1443475172000.0,35.92,-86.89,Joyce,TN,1443475172000.0,18795154
197452815,Smithville,,1451573860000.0,35.96,-85.82,Joyce,TN,1451573860000.0,18795154
63268142,Nashville,New York,1440737538000.0,36.13,-86.8,Joycelyn V. Thomas,TN,1484002802000.0,18795154
211933176,Hendersonville,,1472524381000.0,36.32,-86.61,Judy Manalastas,TN,1472681573000.0,18795154
229804753,Nashville,,1498380287000.0,36.17,-86.78,Julia,TN,1499546706000.0,18795154
193752364,Thompsons Station,Thompsons Station,1444193774000.0,35.8,-86.9,Julie,TN,1495398960000.0,18795154
203849570,La Vergne,,1461378508000.0,36.01,-86.57,Kai,TN,1462636658000.0,18795154
199008828,Nashville,,1454367404000.0,36.07,-86.73,Kaitlyn,TN,1454367404000.0,18795154
195479654,Nashville,,1469416977000.0,36.08,-86.72,Kara Anderson-Roush,TN,1469416977000.0,18795154
214054857,Nashville,,1475262534000.0,36.13,-86.67,Karen Burke,TN,1475262534000.0,18795154
8126885,Nashville,,1504404378000.0,36.1,-86.66,Karen D.,TN,1507255893000.0,18795154
60670372,Nashville,,1462221753000.0,36.15,-86.86,Karen Daniel,TN,1463952409000.0,18795154
2661540,Brooklyn,Brooklyn,1465522791000.0,40.68,-73.96,Karmen,NY,1479590948000.0,18795154
199397930,Nashville,,1454984075000.0,36.17,-86.78,Kate Stephan,TN,1454984075000.0,18795154
144843312,Jacksonville,,1499176962000.0,30.33,-81.77,Katee Elizabeth,FL,1499176962000.0,18795154
206351586,Nashville,,1464908626000.0,36.11,-86.78,Katherine Marena Munoz,TN,1464908626000.0,18795154
96438392,Nashville,,1498261356000.0,36.06,-86.96,Kathryne,TN,1498426056000.0,18795154
203776998,Gallatin,,1461269737000.0,36.39,-86.45,Kathy B,TN,1461269737000.0,18795154
195609849,Hermitage,,1447615909000.0,36.19,-86.6,Kathy Griffin,TN,1447615909000.0,18795154
86478742,Nashville,,1471965073000.0,36.15,-86.86,Kathy Ranalli,TN,1507010580000.0,18795154
184031704,Mount Juliet,,1440600278000.0,36.22,-86.52,Keeli,TN,1457191340000.0,18795154
186047514,White Bluff,,1461886273000.0,36.12,-87.23,Kelly C.,TN,1461886273000.0,18795154
198507736,Nashville,,1453809436000.0,36.08,-86.72,Kendall Crane,TN,1453809436000.0,18795154
200512114,Murfreesboro,,1456553930000.0,35.78,-86.33,Kenneth Sulkosky,TN,1456553930000.0,18795154
229788618,Madison,Madison,1497568022000.0,36.26,-86.71,Kenny Johnson,TN,1497568022000.0,18795154
210834046,Nashville,,1470973126000.0,36.08,-86.72,Kenny Kidd,TN,1470973126000.0,18795154
212362929,Franklin,,1484656821000.0,35.93,-86.81,Kent Burnside,TN,1499515310000.0,18795154
189601160,Nashville,,,36.24,-86.74,,TN,,18795154
182982296,Washington,,1454621382000.0,38.91,-77.02,Kevin,DC,1455842503000.0,18795154
208914401,Nashville,,1468371492000.0,36.17,-86.72,Kevin Hayes,TN,1468377552000.0,18795154
216209917,Franklin,,1479055302000.0,35.92,-86.89,Kevin Rio Kiper,TN,1479055302000.0,18795154
194455219,La Vergne,,1445495364000.0,36.01,-86.57,Khalil Hyppolite,TN,1449349930000.0,18795154
204303529,Antioch,,1462046084000.0,36.04,-86.64,Kim,TN,1462832004000.0,18795154
232123376,Nashville,,1500424380000.0,36.13,-86.67,Kim Burrell,TN,1503759619000.0,18795154
192294214,Gallatin,,1441464691000.0,36.39,-86.45,Kim Farley,TN,1441464691000.0,18795154
195610764,Nashville,,1447617654000.0,36.1,-86.66,Kimberly Patton ,TN,1447617654000.0,18795154
12532603,Old Hickory,Old Hickory,1438831279000.0,36.25,-86.63,Kirsten,TN,1501638959000.0,18795154
197256918,Antioch,,1451192350000.0,36.04,-86.64,Kiva Carroll,TN,1451192350000.0,18795154
202111278,Nashville,,1458862535000.0,36.17,-86.78,Korey,TN,1477221618000.0,18795154
131177742,Nashville,,1464715395000.0,36.18,-86.81,Korlin Thomas Harrison ,TN,1464715395000.0,18795154
206303155,Mount Juliet,,1464840354000.0,36.21,-86.52,Kris!,TN,1464840354000.0,18795154
33977412,Hixson,Hixson,1454567611000.0,35.16,-85.21,Krissy Ramsey,TN,1495161031000.0,18795154
182662859,Murfreesboro,,1440646081000.0,35.87,-86.34,Kristen Brown,TN,1440646081000.0,18795154
232291730,Murfreesboro,,1500635445000.0,35.78,-86.33,Kristen Fleet,TN,1500635445000.0,18795154
234667357,Franklin,,1503441319000.0,35.92,-86.89,Kristin S,TN,1503441319000.0,18795154
202820440,Whites Creek,,1459905951000.0,36.27,-86.83,Kurt,TN,1459905951000.0,18795154
217974636,Austin,"Austin, TX",1485367998000.0,30.29,-97.63,L. G.,TX,1485367998000.0,18795154
220013933,Madison,,1484519438000.0,36.26,-86.71,LaNeeca Cannon,TN,1484519438000.0,18795154
197467830,Nashville,,1451608607000.0,36.17,-86.78,Lanesha Becton,TN,1466005203000.0,18795154
214938313,Murfreesboro,,1476472094000.0,35.87,-86.34,LaRhonda ,TN,1476472094000.0,18795154
195301232,Clarksville,,1448670675000.0,36.56,-87.41,Larry,TN,1477359244000.0,18795154
226128410,Thompsons Station,thompson station,1495114433000.0,35.8,-86.9,Larry Gooden,TN,1495279214000.0,18795154
219096058,Auburntown,,1483383000000.0,35.99,-86.11,Laura Jennings,TN,1483721810000.0,18795154
211856088,Mount Juliet,,1472422728000.0,36.22,-86.52,Laura Stutzman Stott,TN,1491010929000.0,18795154
211956406,Nashville,,1472561797000.0,36.17,-86.78,Lauren,TN,1472561797000.0,18795154
201251504,Antioch,,1457625723000.0,36.04,-86.64,Lauren,TN,1459730787000.0,18795154
78791602,Murfreesboro,,1483121518000.0,35.82,-86.45,Lauren,TN,1483121518000.0,18795154
196241045,Gallatin,,1448863205000.0,36.39,-86.45,Lauren Cozart,TN,1448863205000.0,18795154
208304104,New York,,1467575486000.0,40.75,-73.99,Lauren Urquhart,NY,1467575486000.0,18795154
220660160,Nashville,,1485317915000.0,36.08,-86.72,Lauren Van Daff,TN,1485317915000.0,18795154
216688422,Clarksville,,1485449429000.0,36.53,-87.35,Laurie Inglis,TN,1485449429000.0,18795154
192460383,Hermitage,,1441760973000.0,36.19,-86.6,Lavetta Cotton,TN,1441760973000.0,18795154
191666776,Nashville,,1464043130000.0,36.11,-86.86,Lee,TN,1496769973000.0,18795154
217507898,Nashville,,1480529629000.0,36.06,-86.96,Leonel Marulanda,TN,1484144499000.0,18795154
222739109,Nashville,,1496157246000.0,36.14,-86.74,Lese Jenea,TN,1502291606000.0,18795154
203036028,Nashville,,1460224891000.0,36.16,-86.66,Levente,TN,1460297968000.0,18795154
195030533,Murfreesboro,,1446530172000.0,35.78,-86.33,Lex ,TN,1446530172000.0,18795154
226756550,Hermitage,,1502837558000.0,36.19,-86.6,Lexi Bolinski,TN,1502837558000.0,18795154
123831102,Madison,,1486557834000.0,36.26,-86.71,Lezlie Knight,TN,1486597437000.0,18795154
227856548,Franklin,,1495136774000.0,35.93,-86.81,Lily Nelsen,TN,1495136774000.0,18795154
90967952,Lebanon,,1469540647000.0,36.21,-86.29,Linda,TN,1496114203000.0,18795154
84855692,Brentwood,Des Moines,1438949354000.0,36.0,-86.79,Lisa,TN,1460732288000.0,18795154
221746937,Hermitage,,1486692303000.0,36.19,-86.6,Lisa Baeza,TN,1486692303000.0,18795154
203227379,Nashville,Nashville,1478482161000.0,36.06,-86.96,Lisa Jennings,TN,1479243393000.0,18795154
70223892,Murfreesboro,Atlanta,1474228637000.0,35.78,-86.33,Lisa L,TN,1474228637000.0,18795154
4883361,Nashville,,1503028468000.0,36.17,-86.78,Liz,TN,1506870569000.0,18795154
203483039,Nashville,,1460853782000.0,36.17,-86.78,Logan,TN,1461437122000.0,18795154
204925959,Nashville,,1463000451000.0,36.17,-86.78,Lone Jaz,TN,1493333189000.0,18795154
83914062,London,,1494613926000.0,51.53,-0.2,Louise,17,1494706568000.0,18795154
237145017,Old Hickory,,1506074816000.0,36.25,-86.63,Lucy,TN,1506074816000.0,18795154
224745903,Franklin,,1490885771000.0,35.92,-86.87,Lydia Rialland,TN,1490885771000.0,18795154
237091692,Nashville,,1506014386000.0,36.08,-86.72,Lyric W,TN,1506014386000.0,18795154
186585423,Murfreesboro,Boston,1503761811000.0,35.82,-86.45,M. E. ,TN,1503761811000.0,18795154
181344122,Spring Hill,"Binghamton, NY",1492540640000.0,35.76,-86.88,Maggie,TN,1492540640000.0,18795154
199047831,Nashville,,1454432703000.0,36.08,-86.72,Mandy,TN,1458263436000.0,18795154
199104094,Albany,,1454519039000.0,42.65,-73.75,Manoj,NY,1469329145000.0,18795154
22510261,Nashville,Milwaukee,1472188755000.0,36.17,-86.79,Marc,TN,1472188755000.0,18795154
236850428,Nashville,,1505762864000.0,36.08,-86.72,Marcel Sauve,TN,1507605431000.0,18795154
231895642,Hermitage,,1500148477000.0,36.19,-86.6,Margaret Raney,TN,1500405525000.0,18795154
210706195,Antioch,,1470787728000.0,36.17,-86.88,Mark,TN,1470787728000.0,18795154
195625137,Murfreesboro,,1447641712000.0,35.78,-86.33,Mark Holmes,TN,1454766754000.0,18795154
191720758,Nashville,,1440365009000.0,36.17,-86.78,Marlo,TN,1440365009000.0,18795154
231435638,Nashville,,1504814064000.0,36.15,-86.86,marquita johnson,TN,1504814064000.0,18795154
41872922,Nashville,,1482992051000.0,36.17,-86.78,martha,TN,1483308029000.0,18795154
184843083,Franklin,,1438705204000.0,35.93,-86.81,Massood Taj,TN,1505600659000.0,18795154
230839591,Nashville,,1498878072000.0,36.11,-86.86,Matt Boyle,TN,1506050648000.0,18795154
191365783,Clarksville,,1439925917000.0,36.53,-87.35,Matt Gochenauer,TN,1439925917000.0,18795154
211421181,Nashville,,1471822445000.0,36.09,-86.82,Matt Smyth,TN,1471822445000.0,18795154
202106678,Nashville,,1458856255000.0,36.18,-86.74,Matthew Austin bell,TN,1458856255000.0,18795154
228614899,Manchester,,1496106352000.0,35.47,-86.11,Matthew B Powers,TN,1496106352000.0,18795154
191607517,Brentwood,,1440139668000.0,36.0,-86.79,Matthew Brajkovich,TN,1440348200000.0,18795154
209231261,Brentwood,,1468793110000.0,36.0,-86.79,Matthew Treadway,TN,1468793110000.0,18795154
84963832,Madison,,1455459743000.0,36.26,-86.71,Matthew Wardle,TN,1455459743000.0,18795154
206556002,Nashville,,1465184106000.0,36.17,-86.78,Maura Rush,TN,1465184106000.0,18795154
192746067,Goodlettsville,,1457652510000.0,36.33,-86.74,Meagan ,TN,1457652510000.0,18795154
3796247,Nashville,Nashville,1466274213000.0,36.08,-86.72,meg,TN,1466274213000.0,18795154
208654146,Clarksville,,1468041240000.0,36.53,-87.35,Megan Smith,TN,1468041240000.0,18795154
206229029,Antioch,,1464737826000.0,36.04,-86.64,Meke Smith,TN,1464737826000.0,18795154
205270580,Nashville,,1463415838000.0,36.07,-86.73,Mel,TN,1465004715000.0,18795154
220901670,Nashville,,1485647245000.0,36.17,-86.78,Mel,TN,1501025727000.0,18795154
198447796,Hendersonville,,1453429166000.0,36.32,-86.61,Melinda DuPree,TN,1453434792000.0,18795154
106022732,Hermitage,"Hermitage, TN",1438914472000.0,36.19,-86.6,Melinda Judy,TN,1506718149000.0,18795154
204676986,Murfreesboro,,1462587817000.0,35.82,-86.45,Melissa C,TN,1462587817000.0,18795154
200156440,Nashville,,1456067993000.0,36.18,-86.74,Melonie Martin,TN,1456067993000.0,18795154
114724422,Nashville,,1457517414000.0,36.17,-86.78,Melvin Turner II,TN,1457517414000.0,18795154
233472336,Nashville,,1502081580000.0,36.08,-86.72,Meredith Rice,TN,1502132871000.0,18795154
226770365,Nashville,,1493675469000.0,36.17,-86.77,Micah LeeAnn,TN,1493675469000.0,18795154
193488416,Little Rock,,1443683362000.0,34.75,-92.28,Michael A Brown,AR,1460524569000.0,18795154
202841783,Franklin,,1459944602000.0,35.92,-86.89,Michael And Shirley Bryant,TN,1459944602000.0,18795154
222211382,Nashville,,1487343854000.0,36.17,-86.78,Michael Bathke,TN,1489238606000.0,18795154
208571752,Brentwood,,1467935088000.0,36.0,-86.79,Michael Frost ,TN,1467935088000.0,18795154
11223668,Nashville,,1438951524000.0,36.18,-86.81,michael holt,TN,1447606015000.0,18795154
232312915,Nashville,,1500662300000.0,36.13,-86.8,Michael Kennedy,TN,1500662300000.0,18795154
130158522,Franklin,"Franklin, TN",1443657834000.0,35.92,-86.89,Michael Stanton,TN,1458709493000.0,18795154
218692365,Shelbyville,,1482755295000.0,35.49,-86.45,Michelle Arianna,TN,1482755295000.0,18795154
46486792,Nashville,,1491147183000.0,36.17,-86.78,Michelle McManus,TN,1491147183000.0,18795154
199615545,Nashville,,1455313523000.0,36.08,-86.72,Michelle Person,TN,1455313523000.0,18795154
193513104,Euless,,1443732284000.0,32.85,-97.09,Mikie Thornton,TX,1443732284000.0,18795154
195651554,Nashville,,1447696130000.0,36.09,-86.82,Mills Korte,TN,1447696130000.0,18795154
211373944,Brentwood,,1471757147000.0,36.0,-86.79,Ming Pichidtammarat,TN,1471757147000.0,18795154
217332807,Nashville,,1480240753000.0,36.08,-86.72,Minnie Murphy,TN,1481577533000.0,18795154
231378327,Nashville,,1499540935000.0,36.17,-86.78,Mo B. McAlpine,TN,1499540935000.0,18795154
81953712,Salt Lake City,"Nashville, TN",1482841717000.0,40.62,-111.82,Monie Sloan,UT,1482841717000.0,18795154
233911212,Nashville,,1502577519000.0,36.17,-86.78,Mr. Mack,TN,1502577519000.0,18795154
214994263,Nashville,,1476557503000.0,36.07,-86.78,Nah Rutledge,TN,1476557503000.0,18795154
206165705,Gladeville,,1464656664000.0,36.19,-86.28,Natalie Adams,TN,1464656664000.0,18795154
206624315,Chapmansboro,,1504849919000.0,36.37,-87.14,Natanyah Faber,TN,1505922628000.0,18795154
228480835,Hermitage,,1495927648000.0,36.19,-86.6,Nate McGuire,TN,1495927648000.0,18795154
196682395,Smyrna,,1449733149000.0,35.97,-86.51,Nathan Valentine,TN,1449733149000.0,18795154
207002769,Nashville,,1465780334000.0,36.17,-86.72,Nathaniel,TN,1507589993000.0,18795154
194634196,Nashville,Los Angeles,1445879108000.0,36.09,-86.82,Neville W. (Bill) Reay,TN,1445879108000.0,18795154
211100586,Nashville,,1471364146000.0,36.17,-86.78,Ngawang Losel,TN,1472654041000.0,18795154
215502931,Hermitage,,1477308148000.0,36.19,-86.6,Nic Leftrick,TN,1477308148000.0,18795154
206412149,Hermitage,,1464993673000.0,36.19,-86.6,Nichelle Ishmon,TN,1464993673000.0,18795154
235840883,Murfreesboro,,1504744735000.0,35.84,-86.39,Nick Price,TN,1504744735000.0,18795154
193778211,Antioch,,1444236400000.0,36.04,-86.64,Nicole Fields ,TN,1444411570000.0,18795154
191140001,Nashville,,1439230326000.0,36.21,-86.72,Nigel Wilson,TN,1439230326000.0,18795154
209377353,Smyrna,,1468974128000.0,35.97,-86.51,Nija,TN,1469152595000.0,18795154
60251672,Nashville,,1473035123000.0,36.17,-86.78,Octavis,TN,1473035123000.0,18795154
234168251,Franklin,,1502888562000.0,35.93,-86.81,Olivia Oetjens,TN,1502888562000.0,18795154
211885518,Antioch,,1472468485000.0,36.04,-86.64,Pa'Shua Mayo,TN,1472468485000.0,18795154
197405351,San Francisco,,1459064728000.0,37.78,-122.42,pamela,CA,1473562080000.0,18795154
192345397,La Vergne,,1441561177000.0,36.01,-86.57,Pamela Gray,TN,1441561177000.0,18795154
98484552,Nashville,,1453650359000.0,36.08,-86.72,Pamela Perry,TN,1453650359000.0,18795154
19560481,Nashville,,1439674196000.0,36.18,-86.74,patrick michael,TN,1458488954000.0,18795154
196718110,Nashville,,1449810696000.0,36.22,-86.77,Paul Benson,TN,1449810696000.0,18795154
212887864,Nashville,,1473801773000.0,36.17,-86.78,Paul Donohoe,TN,1473801773000.0,18795154
207255733,Chicago,,1467238990000.0,41.81,-87.71,Paul Frieh,IL,1467238990000.0,18795154
202616987,Nashville,,1459635699000.0,36.17,-86.78,Peggy woody ,TN,1462938282000.0,18795154
207221919,Hermitage,,1466080135000.0,36.19,-86.6,Perry Dunkling,TN,1466135110000.0,18795154
217888543,Franklin,,1481180160000.0,35.93,-86.81,Peter Donnelly,TN,1481180160000.0,18795154
219349850,Nashville,,1483670035000.0,36.13,-86.67,Peter Evans,TN,1483670035000.0,18795154
203423108,Nashville,,1460768126000.0,36.18,-86.74,PJ Cowan,TN,1462052706000.0,18795154
227267247,Brentwood,,1494353276000.0,36.0,-86.79,pmikel63,TN,1498155871000.0,18795154
145502012,Bangalore,,1441143302000.0,12.97,77.56,prashanth kumar,,1441143302000.0,18795154
194204488,Hendersonville,,1445027636000.0,36.32,-86.61,Preston Stone,TN,1445027636000.0,18795154
210467180,Nashville,,1482773281000.0,36.11,-86.78,Priscilla S,TN,1482773281000.0,18795154
11428300,Nashville,,1464262731000.0,36.17,-86.78,Rachel Browning,TN,1477483160000.0,18795154
11566543,Old Hickory,,1453878525000.0,36.25,-86.63,Rachel Corvi,TN,1471526704000.0,18795154
233512670,Nashville,,1502130751000.0,36.11,-86.67,Rachel Haws,TN,1502130751000.0,18795154
201834912,Murfreesboro,,1458450867000.0,35.78,-86.33,Ramona Davis-Gee,TN,1458450867000.0,18795154
203792480,Nashville,,1461291053000.0,36.17,-86.78,Reanne Emily Christine,TN,1477852260000.0,18795154
204889260,Nashville,,1462900647000.0,36.11,-86.78,Rebecca Rose Moody,TN,1462900647000.0,18795154
25077732,Franklin,,1468032107000.0,35.92,-86.89,Reed Mitchell,TN,1468032107000.0,18795154
11442167,Nashville,Concord CA,1500490716000.0,36.07,-86.78,Reiner,TN,1508693575000.0,18795154
129944172,Murfreesboro,Edmonds,1465009205000.0,35.78,-86.33,Renee Walker,TN,1487048249000.0,18795154
195712751,Nashville,,1447800957000.0,36.22,-86.77,renna,TN,1487616222000.0,18795154
209065530,Nashville,,1468577831000.0,36.07,-86.73,Rese Clark,TN,1468577831000.0,18795154
63094942,Madison,,1451109393000.0,36.26,-86.71,Richard Ramey,TN,1454562825000.0,18795154
222721189,Nashville,,1488051925000.0,36.21,-86.72,RLB,TN,1488051925000.0,18795154
231746363,Nashville,,1499961104000.0,36.17,-86.78,Rob B,TN,1504731831000.0,18795154
139470252,Allen,,1460411515000.0,33.09,-96.62,Robin,TX,1460411515000.0,18795154
34583172,Franklin,,1438961374000.0,35.93,-86.81,Robin Barnes,TN,1479665896000.0,18795154
231180568,Nashville,,1499302322000.0,36.11,-86.78,Robin Martin,TN,1499302322000.0,18795154
237007634,Murfreesboro,,1505921075000.0,35.85,-86.36,Ronnie Leftwich,TN,1505921075000.0,18795154
235288903,Nashville,,1504146946000.0,36.08,-86.72,Rookh McClellan,TN,1504146946000.0,18795154
183013618,Murfreesboro,,1464221697000.0,35.87,-86.44,rosi,TN,1487453082000.0,18795154
232999187,Nashville,,1501521155000.0,36.1,-86.66,Ross Walters,TN,1501521155000.0,18795154
193343063,Murfreesboro,,1443415434000.0,35.78,-86.33,Ruth Kilcrease,TN,1443894652000.0,18795154
193680084,Smyrna,,1444061591000.0,35.97,-86.51,Ryan Hilton,TN,1460772373000.0,18795154
9178731,Nashville,,1498188413000.0,36.13,-86.8,Ryan Koriya,TN,1503021877000.0,18795154
202547619,Nashville,,1459524836000.0,36.18,-86.74,Ryan Terrell,TN,1459524836000.0,18795154
220450179,Seattle,,1485063524000.0,47.61,-122.33,Sabit,WA,1485063524000.0,18795154
191823767,Dimock,,1476765285000.0,41.74,-75.9,Sara Kistner,PA,1476765285000.0,18795154
197885668,Nashville,,1457294869000.0,36.17,-86.78,Sarah Jensen,TN,1457294869000.0,18795154
197743064,Nashville,,1452135399000.0,36.17,-86.78,Sasha,TN,1457479381000.0,18795154
210555722,Nashville,,1470587316000.0,36.16,-86.66,Savanna Court,TN,1470587316000.0,18795154
223721709,Lebanon,,1489460169000.0,36.21,-86.31,Savannah H,TN,1489460169000.0,18795154
230023190,Nolensville,,1497895303000.0,35.94,-86.67,Savannah LaMey,TN,1497895303000.0,18795154
221033289,Madison,,1485800431000.0,36.19,-86.74,Scott Cone,TN,1485800431000.0,18795154
199747255,Antioch,"Cicero, IN",1455500622000.0,36.17,-86.88,Scott Hensler,TN,1460262333000.0,18795154
189310064,Camak,,1480375283000.0,33.46,-82.65,Scott M.,GA,1480375283000.0,18795154
202892648,Nashville,,1460010012000.0,36.08,-86.72,Sean Coleman,TN,1460010012000.0,18795154
193791049,Nashville,,1444267520000.0,36.13,-86.8,Sebastian,TN,1444267520000.0,18795154
204297176,Nashville,,1462037950000.0,36.08,-86.72,Sebastian Motola,TN,1462037950000.0,18795154
211066818,Franklin,,1471953503000.0,35.92,-86.89,Shari,TN,1495566935000.0,18795154
173986732,Smyrna,,1439819467000.0,35.97,-86.51,Sharon Hayden,TN,1489629901000.0,18795154
201557463,Nashville,,1459970134000.0,36.17,-86.78,Shawn Marie Krise,TN,1469906766000.0,18795154
198045295,Nashville,,1452693289000.0,36.13,-86.8,Shay,TN,1453053867000.0,18795154
229454896,Nashville,,1497575240000.0,36.17,-86.78,Shelandria Swiams,TN,1497575240000.0,18795154
214952576,Nashville,,1476490084000.0,36.1,-86.66,Sherrie Williams,TN,1476490084000.0,18795154
199009782,Murfreesboro,,1454368511000.0,35.78,-86.33,Sherry,TN,1454368511000.0,18795154
199820285,Antioch,,1455595992000.0,36.04,-86.64,Shirley Ekpe ,TN,1456627825000.0,18795154
191894431,Mount Juliet,,1440690085000.0,36.22,-86.52,Shon,TN,1440690085000.0,18795154
231415178,Nashville,,1499581840000.0,36.1,-86.66,Shruti Luhach,TN,1499893985000.0,18795154
233632696,Nashville,,1502261350000.0,36.14,-86.74,Skylar Kaburi,TN,1502261350000.0,18795154
201945032,Nashville,,1458604951000.0,36.06,-86.96,sonia ramirez,TN,1458604951000.0,18795154
194650174,Nashville,,1445876381000.0,36.17,-86.78,Spencer Higgins,TN,1446488198000.0,18795154
158280892,Hendersonville,"Nashville, TN",1454021549000.0,36.32,-86.61,stacy,TN,1454021549000.0,18795154
170733682,Nashville,nashville,1459828463000.0,36.16,-86.79,stacy king,TN,1459828463000.0,18795154
236696609,Nashville,,,36.07,-86.73,,TN,,18795154
226313739,Mc Minnville,,1493060189000.0,35.69,-85.78,Stephan Bell,TN,1493060189000.0,18795154
194573109,Nashville,,1445705935000.0,36.17,-86.78,Stephanie Kendrick,TN,1453054198000.0,18795154
208045599,Nashville,,1471922787000.0,36.17,-86.78,Stephen Cupp,TN,1474171237000.0,18795154
106513552,Nashville,"Los Angeles, CA",1488347797000.0,36.22,-86.83,Stephie G.,TN,1488347797000.0,18795154
141610052,Milwaukee,,1439980297000.0,43.04,-87.92,Steve,WI,1493026660000.0,18795154
196096448,Hendersonville,,1448558645000.0,36.32,-86.61,Steve,TN,1448558645000.0,18795154
225563435,Nashville,,1492050709000.0,36.09,-86.82,Stuart Pounders,TN,1508763695000.0,18795154
186398303,Franklin,,1438831485000.0,35.99,-86.9,susie margaret ross,TN,1478453460000.0,18795154
12134295,Nashville,,1464403940000.0,36.15,-86.86,Suzanne,TN,1481096779000.0,18795154
192968716,Dickson,"Boston, MA",1456851302000.0,36.08,-87.43,Suzi,TN,1506528907000.0,18795154
106423822,Nashville,,1469488309000.0,36.11,-86.86,Sylvia Birriel,TN,1469488309000.0,18795154
182882155,Murfreesboro,,1449355989000.0,35.8,-86.41,Tajuana Shantel,TN,1449773650000.0,18795154
209216260,Antioch,nashville,1468778076000.0,36.17,-86.88,Tammy,TN,1479446264000.0,18795154
212881084,Mount Juliet,,1499982122000.0,36.21,-86.52,Tammy,TN,1508594182000.0,18795154
237607481,Nashville,,1506584046000.0,36.13,-86.8,Taylor Wilson,TN,1506584046000.0,18795154
211861206,Nashville,,1472430850000.0,36.11,-86.86,Teal,TN,1472430850000.0,18795154
30404282,Nashville,,1440038855000.0,36.19,-86.75,Teresa L.,TN,1440038855000.0,18795154
205959502,Franklin,,1464365664000.0,35.93,-86.81,Terry Nelson,TN,1464365664000.0,18795154
230758145,Franklin,,1498772540000.0,35.93,-86.84,Thacia Guilherme,TN,1498772540000.0,18795154
210862445,Antioch,,1471021895000.0,36.04,-86.64,TheAllison422 .Andersen,TN,1471021895000.0,18795154
9799039,Nashville,,1484688845000.0,36.14,-86.81,theresa ,TN,1487418324000.0,18795154
6294796,Mount Juliet,,1485218951000.0,36.22,-86.52,Theresia,TN,1485218951000.0,18795154
153239942,Nashville,,1439779471000.0,36.17,-86.72,Thomas House,TN,1441828788000.0,18795154
196382193,Murfreesboro,,1449149163000.0,35.87,-86.44,Tiffany,TN,1449149163000.0,18795154
193889832,Murfreesboro,,1444444656000.0,35.78,-86.33,Tiffany Elder,TN,1444444656000.0,18795154
192397191,Brentwood,Brentwood,1441662888000.0,36.0,-86.79,Tiffany McKenna,TN,1441662888000.0,18795154
8386,Nashville,Nashville,1457717297000.0,36.07,-86.78,Tim,TN,1503944755000.0,18795154
221895011,Antioch,,1486911933000.0,36.04,-86.64,Tim McMullen,TN,1486911933000.0,18795154
198337583,Nashville,,1453231330000.0,36.08,-86.72,TimL,TN,1453231330000.0,18795154
194114483,Columbia,,1444858488000.0,35.61,-87.05,Tom Winters,TN,1463753247000.0,18795154
194553290,Woodbury,,1445666654000.0,35.81,-86.07,Tomer ,TN,1445666654000.0,18795154
225043690,Nashville,,1491314261000.0,36.13,-86.8,Tommy Hart,TN,1491314261000.0,18795154
221635132,Nashville,,1486550186000.0,36.15,-86.86,Tony Hunt,TN,1486550186000.0,18795154
129101322,Seattle,Nashville,1449100041000.0,47.61,-122.33,Tyler,WA,1449100041000.0,18795154
217020755,Murfreesboro,,1479682545000.0,35.82,-86.45,Tyler Cousins,TN,1479682545000.0,18795154
193021348,Cleveland,Woodbury TN,1442965041000.0,41.47,-81.74,Tyler Jacobs,OH,1446263054000.0,18795154
77265792,Fort Campbell,rockledge,1495882088000.0,36.65,-87.46,Tyler Peters,KY,1506550135000.0,18795154
221676174,Nashville,,1486600169000.0,36.06,-86.96,Valerie Carter,TN,1486600169000.0,18795154
102889902,Mount Juliet,,1459978289000.0,36.21,-86.52,Valerie Hoagland,TN,1498365850000.0,18795154
11313885,Nashville,,1457036772000.0,36.13,-86.8,Vaughn Bowie,TN,1457036772000.0,18795154
199428233,Hyde Park,Hyde Park,1455035141000.0,41.78,-73.89,Vince Leggiere,NY,1455035141000.0,18795154
213662941,Nashville,,1474811735000.0,36.17,-86.78,Vinéecia Buchanan,TN,1474811735000.0,18795154
206545047,Nashville,,1498084706000.0,36.08,-86.72,Wayne Alvar,TN,1499920105000.0,18795154
199445069,Franklin,,1455054659000.0,35.92,-86.89,Wendy Shumate,TN,1469730806000.0,18795154
539971,Nashville,,1473637445000.0,36.17,-86.78,Whitney782003,TN,1494453573000.0,18795154
161545972,Nashville,,1451722353000.0,36.18,-86.81,William,TN,1494623953000.0,18795154
221116594,Nashville,,1485899032000.0,36.14,-86.74,willie gordon,TN,1486881606000.0,18795154
91626512,Nashville,Nashville,1451858793000.0,36.1,-86.66,Woodrow Lucas,TN,1474719027000.0,18795154
11216906,Franklin,Atlanta,1502406234000.0,35.87,-86.87,Woods,TN,1502406234000.0,18795154
174031072,Thompsons Station,,1472090548000.0,35.8,-86.9,Yvette,TN,1472090548000.0,18795154
208961442,Nashville,,1468502672000.0,36.17,-86.78,Zach,TN,1469888624000.0,18795154
210930057,Nashville,Murfreesboro,1471127987000.0,36.15,-86.89,Zach,TN,1473530372000.0,18795154
195030614,Hendersonville,,1482004771000.0,36.32,-86.61,Zach Heyde,TN,1483468803000.0,18795154
224618872,Murfreesboro,,1490711079000.0,35.87,-86.44,Zack Galloway,TN,1490711079000.0,18795154
224839003,Hermitage,,1491017341000.0,36.19,-86.6,Zackary Coulter,TN,1491017341000.0,18795154
