id,city,hometown,joined,lat,lon,name,state,visited,group_id
225546676,Nashville,,1494871788000,36.17,-86.78,Aaron Barfoot,TN,1494956323000,19194894
7896426,Nashville,Indianapolis,1503607673000,36.06,-86.96,Aaron Dudenhofer,TN,1503607673000,19194894
212517213,Eagleville,,1473312085000,35.75,-86.64,Aaron Marx,TN,1473312085000,19194894
203295163,Nashville,,1460577597000,36.17,-86.78,Aaron Rosenbury,TN,1460786117000,19194894
7768516,Springfield,"Urbandale, IA",1454626942000,36.52,-86.87,Aaron Webb,TN,1504036124000,19194894
5739275,Mount Juliet,"Clarksville, TN",1473213862000,36.22,-86.52,Aaron West,TN,1498760374000,19194894
198023758,Lewisburg,,1489352050000,35.45,-86.8,Abby Fleming,TN,1503524595000,19194894
235831507,Nashville,,1504735379000,36.16,-86.78,AD Wilson,TN,1504735379000,19194894
50570372,Nashville,Murfreesboro,1490580899000,36.17,-86.78,Adam Benge,TN,1490611711000,19194894
220779084,Nashville,,1485470559000,36.11,-86.78,Adam Herrington,TN,1501687237000,19194894
197133543,Smyrna,,1450791539000,35.97,-86.51,Adam Murray,TN,1505829754000,19194894
135819732,Nashville,,1449968090000,36.17,-86.78,Addisu Taddese,TN,1497906353000,19194894
189288940,Nashville,,1465515743000,36.17,-86.72,Aimee Hale,TN,1465515743000,19194894
89599652,Nashville,Chicago,1476057832000,36.14,-86.74,Aimee Knight,TN,1476057832000,19194894
11872972,Nashville,,1499219480000,36.13,-86.8,Alan,TN,1499219480000,19194894
222769111,Nashville,,1488125598000,36.06,-86.96,Alan Woody Reeves,TN,1488125598000,19194894
7964302,Missouri City,Nashville,1449874235000,29.54,-95.55,Alecia Stringer,TX,1481135518000,19194894
210327595,Nashville,,1470250982000,36.17,-86.78,Alexander Clark,TN,1489587317000,19194894
233054561,Fort Campbell,,1501591318000,36.65,-87.46,Alexander Render,KY,1501591318000,19194894
191819003,Nashville,,1467828822000,36.17,-86.78,Alexander Swensen,TN,1467828822000,19194894
214331812,Goodlettsville,,1475608422000,36.32,-86.72,Alexandria Athena Cain,TN,1475608422000,19194894
225010482,Nashville,,1491261935000,36.17,-86.78,Alicia Bingham,TN,1491261935000,19194894
208084350,Nashville,,1467259720000,36.17,-86.78,Alyssa Meza,TN,1467259720000,19194894
220902681,Nashville,,1485641521000,36.08,-86.72,Alyssa Sidebottom,TN,1485641521000,19194894
217955705,Gilbert,,1481909271000,33.26,-111.72,amanda perez,AZ,1481909271000,19194894
210436933,Franklin,,1486162412000,35.92,-86.89,Amanda Waller,TN,1486162412000,19194894
223492719,Nashville,,1489149189000,36.14,-86.74,Amber Frizzell,TN,1489149189000,19194894
228868819,Nashville,,1496425533000,36.14,-86.74,Amber Kauffman,TN,1496425533000,19194894
205426546,Goodlettsville,,1463611983000,36.33,-86.74,Amine,TN,1463611983000,19194894
187904424,Nashville,,1450189634000,36.15,-86.79,Amos Wood,TN,1453407153000,19194894
204871578,Clarksville,,1462873559000,36.49,-87.23,AnaKatarina Lalonde,TN,1462873559000,19194894
93500692,Nashville,,1475189587000,36.17,-86.78,Andrew,TN,1498834509000,19194894
124370002,Nashville,Memphis,1494388299000,36.06,-86.96,Andrew Ellis,TN,1507529275000,19194894
10400291,Nashville,,1461694650000,36.16,-86.79,Andrew Gerber,TN,1466712104000,19194894
22256281,Anaheim,"Davis, CA",1463973548000,33.84,-117.87,Andrew Harden,CA,1463973548000,19194894
226910368,Nashville,,1493859977000,36.16,-86.79,Andrew Jacobson,TN,1493859977000,19194894
230329804,Franklin,,1498995711000,35.93,-86.84,Andrew Lofton,TN,1503954451000,19194894
195437521,Nashville,,1453996072000,36.17,-86.72,Andrew Sagraves,TN,1453996072000,19194894
232789752,Nashville,,1501253938000,36.1,-86.66,Andrew Wells,TN,1501253938000,19194894
218527943,Nashville,,1482378433000,36.17,-86.78,Angalia Bianca,TN,1482378433000,19194894
73895512,Nashville,,1466152141000,36.17,-86.78,Angela Howard,TN,1466152141000,19194894
220426359,Franklin,,1485033748000,35.92,-86.89,Angela White,TN,1485033748000,19194894
217747795,Nashville,,1480949996000,36.17,-86.78,Angelo Tate,TN,1480949996000,19194894
218869837,Nashville,,1483050806000,36.17,-86.78,Ann Shafer,TN,1485302097000,19194894
209960280,Murfreesboro,,1469745343000,35.78,-86.33,Anthony Byers,TN,1469745343000,19194894
206139786,Nashville,,1464624699000,36.15,-86.86,Anthony Suggs,TN,1464624699000,19194894
205010609,Smyrna,,1463069258000,35.97,-86.51,Anton Coleman,TN,1463069258000,19194894
217825368,Nashville,Franklin,1486663576000,36.18,-86.81,Ashish Gauli,TN,1486663576000,19194894
201309823,Nashville,,1457710800000,36.17,-86.78,Ashleigh,TN,1465570747000,19194894
199120033,Arrington,,1454539458000,35.86,-86.66,Ashley Morgan Seagle,TN,1454539458000,19194894
234717525,Nashville,,1503501568000,36.18,-86.81,Asjah Anthony,TN,1503501568000,19194894
193449589,Franklin,,1489617290000,35.93,-86.81,Av Pinzur,TN,1489617290000,19194894
216800941,Nashville,,1479331533000,36.21,-86.72,Ava Avila,TN,1479331533000,19194894
201493855,Franklin,,1457967323000,35.92,-86.89,Ayesha Davis,TN,1457967323000,19194894
226238090,Nashville,,1492962391000,36.14,-86.74,Babloo Chacko,TN,1492962391000,19194894
214246469,Washington,,1483505183000,38.91,-77.02,Bailey,DC,1483505183000,19194894
233746608,Nashville,,1503901718000,36.17,-86.78,Bassam Lamale,TN,1504204745000,19194894
202920568,Nashville,,1460054505000,36.17,-86.78,Bebo,TN,1460054505000,19194894
184251699,Hendersonville,,1471547637000,36.32,-86.61,ben,TN,1471547637000,19194894
205798116,Nashville,Nashville,1464839551000,36.08,-86.72,Ben,TN,1467260011000,19194894
219105467,Nashville,,1483391543000,36.17,-86.78,Ben Guenther,TN,1483391543000,19194894
196440238,Nolensville,,1451503746000,35.94,-86.67,Benjamin Bledsoe,TN,1485474183000,19194894
209999221,Nashville,,1469805996000,36.17,-86.78,Benny Butler,TN,1469811443000,19194894
186654507,Nolensville,Atlanta,1482269558000,35.94,-86.67,Beth,TN,1487876767000,19194894
227213815,Nashville,,1494279580000,36.17,-86.78,Beth McCart,TN,1494340711000,19194894
225966479,Nashville,,1492594610000,36.17,-86.78,Bianca,TN,1492594610000,19194894
210671780,Nashville,,1470746062000,36.16,-86.79,Bill Lee,TN,1470746062000,19194894
187188675,Bethpage,,1449957636000,36.51,-86.32,Bill Roberson,TN,1454790782000,19194894
228333614,Chattanooga,,1498890300000,35.04,-85.31,Blaise Iradukunda,TN,1498890300000,19194894
216033130,Nashville,,1478122070000,36.14,-86.74,Blake,TN,1478208536000,19194894
220757955,Nashville,,1485448302000,36.19,-86.8,Blake Denzel,TN,1485448302000,19194894
173016802,Fort Worth,,1495062575000,32.76,-97.33,Blake Hankins,TX,1500936989000,19194894
200303216,Spring Hill,Spring Hill,1458676254000,35.76,-86.88,BMShake,TN,1458676254000,19194894
156303492,Nashville,,1457352652000,36.07,-86.78,Bobby,TN,1457352652000,19194894
226836672,Gallatin,,1493762858000,36.39,-86.45,Bobby,TN,1493762858000,19194894
235931355,Nashville,,1504838163000,36.1,-86.66,Bode Alao-Festus,TN,1504838163000,19194894
197345993,Guthrie,,1451340608000,36.7,-87.18,Brach Janney,KY,1451340608000,19194894
219100679,Mount Juliet,,1483387149000,36.21,-86.52,Brad Blankenship,TN,1483387149000,19194894
65949872,Austin,PA,1468695281000,30.27,-97.74,Brad Hertzog,TX,1501727131000,19194894
230102159,Hermitage,,1497981692000,36.19,-86.6,Bradley Lambert,TN,1497981692000,19194894
12657602,Nashville,,1459538886000,36.13,-86.8,Bradley Sapp,TN,1476901138000,19194894
182994341,Hermitage,,1474726748000,36.19,-86.6,Bradley Warren,TN,1474726748000,19194894
14225169,Nashville,"Nashville, TN",1449960280000,36.16,-86.79,Brandon,TN,1487886607000,19194894
206845871,Nashville,nashville tn,1465568431000,36.09,-86.82,BrandonHall,TN,1466780431000,19194894
62418442,Nashville,,1472221168000,36.16,-86.79,Brenda Dillard,TN,1472221168000,19194894
202424309,Nashville,,1483563217000,36.11,-86.78,Brent ,TN,1483563217000,19194894
50979842,Nashville,,1484372208000,36.17,-86.78,Brent Lathrop,TN,1503970625000,19194894
11899008,Columbia,,1454986722000,35.61,-87.05,Brett Adkins,TN,1454986722000,19194894
7643395,Nashville,,1458695200000,36.19,-86.8,Brett Baggott,TN,1458695200000,19194894
225431589,Nashville,,1491869084000,36.17,-86.78,Brian Fenix,TN,1491869084000,19194894
214101952,Nashville,,1475323420000,36.16,-86.79,Brian Reynolds,TN,1475323420000,19194894
164467912,Franklin,Franklin,1464711505000,35.92,-86.89,Brian Wells,TN,1464711505000,19194894
223858171,Nashville,,1489655507000,36.16,-86.79,Brijesh Patel,TN,1489655507000,19194894
231049553,Nashville,,1499137162000,36.1,-86.66,Brittanee' Dixon,TN,1499137162000,19194894
209750091,Franklin,,1469472027000,35.93,-86.81,Bryan DeBoes,TN,1503927540000,19194894
228825955,Murfreesboro,,1496369081000,35.87,-86.44,Bryan Hodge,TN,1498517839000,19194894
139874942,Nashville,,1481142553000,36.13,-86.8,Bryan Irvin,TN,1498775670000,19194894
216141262,Columbia,,1478292492000,35.61,-87.05,Bryan Prince,TN,1478292492000,19194894
210199341,Nashville,,1470076134000,36.17,-86.78,Bryce,TN,1470076134000,19194894
187130741,Hendersonville,,1452698399000,36.32,-86.61,Bryce Embry,TN,1463860686000,19194894
229298316,Nashville,,1496948926000,36.14,-86.74,C. Ashley Enders,TN,1496948926000,19194894
230688809,Nashville,,1498685594000,36.17,-86.78,Caleb Bates,TN,1498685594000,19194894
233534591,Nashville,,1502152657000,36.08,-86.72,Caleb Mckenney,TN,1505160415000,19194894
218500568,Nashville,,1482330796000,36.17,-86.78,Camden Dykes,TN,1482330796000,19194894
152606552,Brentwood,,1469769367000,36.0,-86.79,Cameron,TN,1469769367000,19194894
206265300,Nashville,,1464794228000,36.17,-86.72,Cami Brasher,TN,1464794228000,19194894
219325449,Nashville,,1483643282000,36.11,-86.78,Carl Wilson,TN,1483643282000,19194894
207138814,Murfreesboro,,1465957209000,35.82,-86.45,Carrie,TN,1469241027000,19194894
4128698,Saint Louis,St Louis,1458321471000,38.66,-90.46,Carrie Jeffries,MO,1500144111000,19194894
198261490,Murfreesboro,,1474738015000,35.78,-86.33,Casey Landis,TN,1474738015000,19194894
74063382,Nashville,,1466716576000,36.17,-86.78,Chad,TN,1466716576000,19194894
235319872,Smyrna,,1504188003000,35.97,-86.51,Chad Mattingly,TN,1504188003000,19194894
4324273,São Paulo,Sherman Oaks,1459137009000,-23.53,-46.63,Chance Glasco,,1459379726000,19194894
64087012,Brentwood,New York,1450385751000,36.0,-86.79,ChanWoo Park,TN,1452876858000,19194894
222957474,Brentwood,,1488386534000,36.0,-86.79,Charles Paik,TN,1488386534000,19194894
219910245,Pegram,,1484387114000,36.12,-87.03,Charlie,TN,1484387114000,19194894
224321685,Nashville,,1490296609000,36.17,-86.78,Chase Brookshire,TN,1490296609000,19194894
37053602,Brentwood,Nashville,1464723352000,36.0,-86.79,Chelsea,TN,1464723352000,19194894
191426144,Nashville,,1474402454000,36.17,-86.78,Chip Carnes,TN,1498318387000,19194894
206208531,Nashville,,1464714230000,36.14,-86.74,Chris,TN,1472061724000,19194894
199006708,Nashville,,1460495802000,36.07,-86.78,Chris Anderson,TN,1462826474000,19194894
96005092,San Francisco,,1485897508000,37.8,-122.44,Chris Armas,CA,1491844860000,19194894
193181718,Dallas,,1449603621000,33.0,-96.78,Chris Armas,TX,1450882537000,19194894
215179218,Nashville,,1476816227000,36.17,-86.78,Chris Burton,TN,1476816227000,19194894
227699345,Franklin,,1494945693000,35.92,-86.89,Chris Highfield,TN,1495157875000,19194894
236578093,Nashville,,1505483313000,36.21,-86.72,Chris Mellor,TN,1505483313000,19194894
184185824,Nashville,Nashville,1450110631000,36.08,-86.72,Chris Newman,TN,1466704217000,19194894
208898002,Nashville,,1468353126000,36.14,-86.74,Chris Smith,TN,1468353126000,19194894
222300882,La Vergne,,1487468737000,36.01,-86.57,Chris Talley,TN,1487468737000,19194894
97898882,Spring Hill,Nashville,1453810742000,35.76,-86.88,Chris Taylor,TN,1471356094000,19194894
217718410,Hermitage,,1480896173000,36.19,-86.6,Chris Thomas,TN,1480896173000,19194894
227014606,Nashville,,1504289314000,36.17,-86.78,Chris Vandenberg,TN,1504289314000,19194894
216943926,Huntsville,Nashville,1479564491000,34.78,-86.61,Chris Watson,AL,1479564491000,19194894
14051018,Pompano Beach,"Lynchburg, VA",1502157395000,26.31,-80.19,Chris Wyatt,FL,1502157395000,19194894
198562752,Brentwood,,1457816620000,36.0,-86.79,Christopher Coleman,TN,1477424514000,19194894
196785186,Nashville,,1449962093000,36.17,-86.78,Christopher Michael Fisher,TN,1449962093000,19194894
213073439,Nashville,,1474053106000,36.16,-86.79,Christopher Sundar,TN,1485386341000,19194894
202079157,Mount Juliet,,1458814056000,36.22,-86.52,Chuck Benson,TN,1503708836000,19194894
6030033,Nashville,Nashville,1449875631000,36.11,-86.86,Clifford Anderson,TN,1453925467000,19194894
214145544,Nashville,,1475373143000,36.22,-86.86,Clifton Neal,TN,1475373143000,19194894
208855609,Nashville,,1479843212000,36.17,-86.78,Cody Hutchins,TN,1497535137000,19194894
227652032,Nashville,,1494881788000,36.14,-86.81,Cody Travis,TN,1494881788000,19194894
216312077,Nashville,,1478554787000,36.14,-86.74,Craig Behnke,TN,1478554787000,19194894
98471122,Murfreesboro,Murfreesboro ,1504009060000,35.87,-86.44,Craig Capurso,TN,1504009060000,19194894
207349199,Thompsons Station,,1466263488000,35.8,-86.9,Craig Cooper,TN,1466263488000,19194894
63930892,Nashville,,1503541336000,36.17,-86.78,Craig Oaks,TN,1504127424000,19194894
196422415,Franklin,,1449872043000,35.92,-86.89,Craig Stevens,TN,1449872043000,19194894
224621080,Nashville,,1490713572000,36.21,-86.72,Crystal Brown,TN,1490713572000,19194894
172470772,Antioch,Nashville,1496695003000,36.04,-86.64,ctaylorgraphics,TN,1497292146000,19194894
210392442,Nashville,,1470346962000,36.17,-86.78,Curtis Crawford,TN,1485458214000,19194894
3412057,Nashville,"Spartanburg, SC",1449888544000,36.17,-86.78,Dan,TN,1464285144000,19194894
163831022,La Vergne,,1490339907000,36.04,-86.56,Dan,TN,1490339907000,19194894
232105953,Nashville,,1500759218000,36.17,-86.78,Dana,TN,1500759218000,19194894
228804310,Nashville,,1497381947000,36.17,-86.78,Dane Titsworth,TN,1497381947000,19194894
212969358,Franklin,,1473906183000,35.92,-86.89,Daniel Hofmeister,TN,1473906183000,19194894
219659867,Nashville,,1484063126000,36.18,-86.81,Daniel Judy,TN,1486404290000,19194894
236928040,Nashville,,1505835459000,36.17,-86.78,Daniel Nalbach,TN,1505835459000,19194894
9363105,Nashville,,1459917470000,36.11,-86.78,danielle duer,TN,1477712194000,19194894
206240756,Murfreesboro,,1491335701000,35.87,-86.44,Dara,TN,1503411144000,19194894
233078642,Nashville,,1501616852000,36.08,-86.72,Darnell Billups,TN,1501616852000,19194894
201894511,Murfreesboro,,1459856409000,35.87,-86.34,Darren Hayes,TN,1496844985000,19194894
391708,Nashville,Nashville,1457816652000,36.09,-86.82,Dave,TN,1457816652000,19194894
228344388,Thompsons Station,,1495742466000,35.8,-86.9,Dave Hansen,TN,1495742466000,19194894
201446209,Nashville,,1457901023000,36.09,-86.82,Dave Harms,TN,1484023393000,19194894
209338328,Franklin,,1468931489000,35.92,-86.89,David Allen,TN,1468931489000,19194894
228661743,Nashville,,1496166707000,36.17,-86.78,David Austin Conner,TN,1496166707000,19194894
221839928,Unionville,,1486832748000,35.62,-86.57,david hazlett,TN,1486832748000,19194894
210230702,Cottontown,,1470111845000,36.49,-86.59,David Keller,TN,1470111845000,19194894
132813132,Milford,Cincinnati,1471620506000,39.18,-84.25,David Loock,OH,1492703456000,19194894
13760492,Birmingham,"Dallas, TX",1459261840000,33.36,-86.79,David Lormor,AL,1465755280000,19194894
134073882,Nashville,,1458958576000,36.17,-86.78,David Prochaska,TN,1467863785000,19194894
220174036,Gallatin,Gallatin,1484708147000,36.39,-86.45,David River,TN,1484708147000,19194894
144256692,Nashville,,1476412262000,36.15,-86.86,David VanWie,TN,1481238647000,19194894
235105301,Cottontown,,1503953359000,36.49,-86.59,David Whitefield Gould,TN,1503953359000,19194894
228533008,West Palm Beach,West Palm Beach,1496002655000,26.66,-80.26,Davy Yue,FL,1496002655000,19194894
202621573,Nashville,,1459632244000,36.15,-86.81,Dawei Li,TN,1469455326000,19194894
121723022,Spring Hill,,1484864673000,35.75,-86.88,Dayne Wright,TN,1484864673000,19194894
160864182,Clarksville,,1471727075000,36.53,-87.35,Dayquan Julienne,TN,1471727075000,19194894
200947632,Nashville,,1457189956000,36.11,-86.86,Deanna Loveland,TN,1457189956000,19194894
179364462,Antioch,,1498765585000,36.17,-86.88,Debra Barfield,TN,1498765585000,19194894
223325043,Nashville,,1488907205000,36.17,-86.78,Declan McGarry,TN,1488907205000,19194894
198718480,La Vergne,,1453918158000,36.01,-86.57,Denisha Vazquez,TN,1453918158000,19194894
200903545,Nashville,Nashville,1457122318000,36.16,-86.79,Derell L. Stinson,TN,1459365528000,19194894
219675852,Nashville,,1484080108000,36.17,-86.78,Derrick Strode,TN,1484080108000,19194894
176366962,Nashville,,1449876377000,36.17,-86.78,Devon Tuitt,TN,1450054969000,19194894
209837245,Nashville,,1488843338000,36.17,-86.78,Dimetric Johnson,TN,1488843338000,19194894
227992888,Murfreesboro,,1495321172000,35.78,-86.33,Dimitriy Petrov,TN,1495321172000,19194894
204041879,Franklin,,1461650445000,35.92,-86.89,Dino,TN,1463806112000,19194894
215122778,White House,,1476739923000,36.48,-86.69,Divina Hernandez,TN,1476739923000,19194894
16915,Aliso Viejo,"Winchester, Virginia",1460683731000,33.58,-117.74,DJ Chuang,CA,1461017307000,19194894
212191797,Hendersonville,,1472886055000,36.32,-86.61,Dominic Camany,TN,1472886055000,19194894
185902150,Franklin,"Orlando, FL",1454966401000,35.99,-86.9,Don Cline,TN,1496405163000,19194894
202042803,Mount Juliet,,1459195286000,36.22,-86.52,Don White,TN,1462823146000,19194894
225901215,Nashville,,1492608783000,36.17,-86.78,Donelson ,TN,1492608783000,19194894
8391748,Nashville,,1477187038000,36.18,-86.74,Doris Marks,TN,1477187038000,19194894
12025198,Brentwood,"Portland, OR",1450443882000,36.0,-86.79,Doug Smith,TN,1484417005000,19194894
229185810,Nashville,,1496804235000,36.17,-86.78,Doug Triplett,TN,1496804235000,19194894
193746516,Nashville,,1494412594000,36.15,-86.86,Drew Nichol,TN,1494412594000,19194894
14584394,Nashville,Nashville,1485283699000,36.18,-86.74,Drew Straton,TN,1499229034000,19194894
196254365,Nashville,,1450102022000,36.17,-86.78,Dustin Dorsey,TN,1450102022000,19194894
198763296,Nashville,,1453991015000,36.17,-86.78,Earice Roberts,TN,1453991015000,19194894
191001581,Franklin,,1461096616000,35.93,-86.81,Ebin,TN,1500049787000,19194894
4634755,Nashville,,1450137960000,36.13,-86.8,Ed Dodds,TN,1484845540000,19194894
211501851,Nashville,,1471928425000,36.06,-86.96,Edward,TN,1471928425000,19194894
183214627,Louisville,,1486502678000,38.26,-85.7,Edward Turner Farrar,KY,1487876448000,19194894
211244106,Nashville,,1471564639000,36.17,-86.78,Elder Howard C. Young III,TN,1471564639000,19194894
220595441,Nashville,,1485243267000,36.17,-86.78,ELHILALY  EHIMIR,TN,1485243267000,19194894
215137849,Brentwood,,1476755236000,36.0,-86.79,Elizabeth Ortlieb,TN,1476755236000,19194894
215635038,Nashville,,1481547173000,36.17,-86.78,Emily Ashby,TN,1505501495000,19194894
214973487,Nashville,,1476558406000,36.17,-86.78,Emmanuel Ogunkoya,TN,1476558406000,19194894
219952884,Clarksville,,1484439439000,36.49,-87.23,eric dimon,TN,1484439439000,19194894
6294785,Brentwood,Brentwood,1483978855000,36.0,-86.79,Eric Moore,TN,1483985569000,19194894
195603509,Franklin,,1473175307000,35.93,-86.81,Eric Pan,TN,1508461977000,19194894
202723967,Atlanta,,1460270920000,33.79,-84.39,Eric Stephan,GA,1460270920000,19194894
194047958,Nashville,,1486053325000,36.17,-86.78,Eric Tarr,TN,1505146332000,19194894
100513112,Nashville,,1488030269000,36.17,-86.78,Erica Johnson,TN,1497422405000,19194894
209637148,Nashville,,1469324510000,36.17,-86.78,Erick Kigen,TN,1469324510000,19194894
208108581,Mount Juliet,,1467300751000,36.21,-86.52,Erik Bock,TN,1467300751000,19194894
209624517,Nashville,,1469310124000,36.06,-86.96,Ethan,TN,1500832083000,19194894
238135613,Nashville,,1507178121000,36.14,-86.74,Ethan Post,TN,1507178121000,19194894
218721101,Nashville,,1482801004000,36.17,-86.78,Felicity Gewalt Strunce,TN,1482801004000,19194894
197236690,Nashville,,1451092913000,36.17,-86.78,Felipe,TN,1451092913000,19194894
46679722,Nashville,,1495588767000,36.15,-86.86,Fernando Muñoz,TN,1495588767000,19194894
107626512,Austin,,1461306115000,30.27,-97.74,Fletcher Mann,TX,1461306115000,19194894
198899515,Nashville,,1454202725000,36.18,-86.74,Flor,TN,1454202725000,19194894
220101752,Nashville,,1503064796000,36.17,-86.78,Fred Weigel,TN,1503064796000,19194894
232595107,Nashville,,1501008874000,36.11,-86.78,Freddie,TN,1501008874000,19194894
223058708,Nashville,,1488518485000,36.17,-86.78,Gabby M,TN,1488518485000,19194894
233089457,Pleasant View,,1502509728000,36.38,-87.04,Gabriel Chastain,TN,1502509728000,19194894
218395158,Clarksville,,1482124758000,36.53,-87.34,Garland Cain,TN,1482124758000,19194894
9627667,Nashville,,1472313316000,36.15,-86.86,Garrett ,TN,1472313316000,19194894
200811651,Hendersonville,,1456977891000,36.32,-86.61,Garrett Thomas Fowler,TN,1456977891000,19194894
216075835,Nashville,,1478191621000,36.14,-86.74,Gary Bradshaw,TN,1478191621000,19194894
192658902,Nashville,,1456377479000,36.17,-86.72,Gary Daunis,TN,1456377479000,19194894
185227421,Antioch,,1485068863000,36.04,-86.64,Gary Duncan,TN,1493204853000,19194894
1746239,Nashville,,1449877449000,36.17,-86.78,George Cooksey,TN,1476872761000,19194894
93428882,La Vergne,La Vergne,1481305660000,36.01,-86.57,Gilbert Diaz,TN,1481405113000,19194894
163558932,Nashville,,1462744700000,36.17,-86.78,Grayson Miller,TN,1462744700000,19194894
211071375,Nashville,,1471317706000,36.17,-86.72,greenspacecowboy,TN,1471317706000,19194894
209243381,Nashville,,1470449513000,36.17,-86.78,Greg Glenn,TN,1476542220000,19194894
225417797,Nashville,,1491914205000,36.17,-86.78,Gregg ,TN,1491914205000,19194894
235415089,Murfreesboro,,1504294544000,35.78,-86.33,Gregory Lemons,TN,1504294544000,19194894
212569310,Nashville,,1477531538000,36.21,-86.72,Hannah Hall,TN,1503606399000,19194894
182584694,Murfreesboro,"Murfreesboro, TN",1505022148000,35.87,-86.34,Hannah Leigh Wiser,TN,1505022148000,19194894
222989966,Nashville,,1488426370000,36.07,-86.73,Hannah Webb,TN,1488426370000,19194894
208107909,Gallatin,,1485100812000,36.39,-86.45,Harry Elberson,TN,1485100812000,19194894
226185646,Nashville,,1492889383000,36.16,-86.79,Hawi,TN,1492889383000,19194894
197778153,Nashville,,1452202064000,36.16,-86.79,heather,TN,1452202064000,19194894
199062457,Mount Juliet,,1454451616000,36.22,-86.52,Heather Palmer,TN,1454451616000,19194894
199382699,Lithia Springs,,1454965510000,33.77,-84.64,Hugo N,GA,1454965510000,19194894
209870904,Nashville,,1469629122000,36.13,-86.8,Hunter Hagewood,TN,1469629122000,19194894
223197372,Mount Juliet,,1488740797000,36.22,-86.52,Hunter McKelvey,TN,1488740797000,19194894
226442309,Grand Rapids,,1493225268000,43.0,-85.74,Hunter Mitchem,MI,1493225268000,19194894
234043750,Nashville,,1502741429000,36.16,-86.79,IB Sobayo,TN,1502741429000,19194894
197306275,Madison,,1451259233000,36.26,-86.71,Iggy,TN,1451259233000,19194894
199321351,Nashville,,1454954645000,36.22,-86.77,Ike,TN,1496757869000,19194894
199597935,Franklin,Florence,1485365974000,35.92,-86.89,Isaac Simon,TN,1501690874000,19194894
214418310,Hermitage,,1475700915000,36.19,-86.6,J Allen,TN,1475700915000,19194894
5300858,Hendersonville,,1470252429000,36.32,-86.61,Jacob,TN,1470252429000,19194894
11007702,Los Angeles,,1491365033000,33.99,-118.43,Jacob Nguyen,CA,1491365033000,19194894
7915902,Nashville,Nashville,1501230096000,36.22,-86.77,Jacque Lewis,TN,1501230096000,19194894
235048532,Nashville,,1503884236000,36.1,-86.66,Jaelyn Wilson,TN,1503884236000,19194894
204700330,Nashville,,1464649303000,36.17,-86.78,James Lauderdale Jr,TN,1464649303000,19194894
207188429,Nashville,,1466028368000,36.09,-86.82,James Laurie,TN,1466028368000,19194894
183355392,Nashville,,1453726892000,36.14,-86.74,James Lemmons,TN,1507910675000,19194894
233829651,Dickson,,1502479684000,36.08,-87.38,James Nelson,TN,1502479684000,19194894
200963976,Murfreesboro,,1457210468000,35.78,-86.33,JAMES RAY DAVENPORT JR,TN,1457210468000,19194894
196926001,Nashville,,1469543048000,36.09,-86.82,James Rengier,TN,1484577247000,19194894
184316944,Nashville,,1450682395000,36.16,-86.66,Jamie B,TN,1450682395000,19194894
222899804,Nashville,,1488302935000,36.17,-86.78,Jaquelin,TN,1488302935000,19194894
206300712,Nashville,,1464838047000,36.08,-86.72,Jared DeLong,TN,1464838047000,19194894
208631635,Nashville,Nashville,1468012209000,36.17,-86.78,Jared Romano,TN,1477716592000,19194894
215821418,Nashville,,1477794126000,36.14,-86.74,Jarvis B. Puckett,TN,1477794126000,19194894
7428497,Miami,,1500674360000,25.78,-80.2,Jason Calleiro,FL,1500674360000,19194894
215017334,Murfreesboro,,1476586801000,35.78,-86.33,Jason Cline,TN,1476586801000,19194894
4611657,Nashville,Nashville,1454001414000,36.11,-86.86,Jason Weakley,TN,1506357697000,19194894
232504138,Fort Campbell,,1500906062000,36.65,-87.46,Jayson Rich,KY,1500906062000,19194894
221181978,Chapmansboro,,1485983094000,36.37,-87.14,Jc Martinez,TN,1485983094000,19194894
76688702,Nashville,Nashville,1457710880000,36.08,-86.72,Jeff Byington,TN,1464095959000,19194894
194153351,Nashville,,1464284356000,36.15,-86.79,Jeff Deskins,TN,1483998413000,19194894
53191892,Franklin,,1472036316000,35.92,-86.89,Jeff Finley,TN,1472169801000,19194894
5048026,Franklin,Nashville,1457630945000,35.93,-86.81,jeff mikres,TN,1488921036000,19194894
8273538,Nashville,Nashville,1467592214000,36.11,-86.86,Jennifer ,TN,1492740844000,19194894
34833342,Altamonte Springs,"Nashville, TN",1456806089000,28.66,-81.37,Jennifer Christian,FL,1466611438000,19194894
203774784,Minneapolis,,1461266519000,44.94,-93.25,Jenny Marvin,MN,1461266519000,19194894
205234414,Nashville,,1463363668000,36.17,-86.78,Jeremy Brading,TN,1463363668000,19194894
116842472,Nashville,,1453936161000,36.17,-86.78,Jeremy Grondahl,TN,1455056127000,19194894
208482210,Nashville,,1467812879000,36.18,-86.74,Jeremy L. Bolls,TN,1467812879000,19194894
135159662,Nashville,,1459872759000,36.16,-86.79,Jeremy Pinnix,TN,1459872759000,19194894
219673476,Nashville,,1484077416000,36.16,-86.79,Jeremy Pitt,TN,1484077416000,19194894
222619342,Mount Juliet,,1487900759000,36.22,-86.52,Jeremy Rollefson,TN,1487900759000,19194894
110147912,Nashville,San Francisco,1495489527000,36.22,-86.77,Jesse,TN,1495489527000,19194894
220017864,Nashville,,1484523723000,36.16,-86.66,Jesse Kellerman,TN,1484523723000,19194894
224870972,Woodbury,,1491360564000,35.81,-86.07,Jessee Burke,TN,1491360564000,19194894
197431615,Gallatin,,1451519552000,36.39,-86.45,Jessica Johnson,TN,1451519552000,19194894
210769280,Nashville,,1470878539000,36.18,-86.74,jessicakilby,TN,1501725307000,19194894
222517314,Nashville,Nashville,1488049471000,36.09,-86.82,Jessie,TN,1492910558000,19194894
232376470,Nashville,,1500744417000,36.17,-86.78,Jessie Valentino,TN,1500744417000,19194894
96894542,Hendersonville,"Tipp City, OH",1478974970000,36.32,-86.61,Jill Nesbitt,TN,1488844736000,19194894
232100489,Nashville,,1500400792000,36.1,-86.66,Jillian Pichocki,TN,1500400792000,19194894
182682136,Nashville,,1461638670000,36.17,-86.78,Jim Byers,TN,1498704474000,19194894
3380276,Nashville,Nashville/Shelbyville,1455663602000,36.11,-86.78,Jim H,TN,1462822244000,19194894
185368652,Nashville,,1469806994000,36.17,-86.72,Jodee LaVoie,TN,1469806994000,19194894
223633806,Hendersonville,,1489348954000,36.32,-86.61,Joe Scaria,TN,1489348954000,19194894
224983379,Franklin,,1500073704000,35.92,-86.89,Joe Stanfill,TN,1504652841000,19194894
33016112,Buffalo,,1500749971000,42.9,-78.88,Joel,NY,1500749971000,19194894
222255719,Spring Hill,,1487405304000,35.76,-86.88,Joel Bellis,TN,1487405304000,19194894
209407174,Franklin,,1469020064000,35.92,-86.89,Joel Coady,TN,1492914521000,19194894
221644534,Old Hickory,,1486566926000,36.25,-86.63,Joel Grimes,TN,1488568039000,19194894
193848950,Nashville,,1449965998000,36.17,-86.78,Joel Richardson,TN,1468254208000,19194894
209743821,Smyrna,,1469465092000,35.97,-86.51,Joey,TN,1469465092000,19194894
114279782,Nashville,Doylestown,1473948425000,36.16,-86.79,John,TN,1473948425000,19194894
180722412,Gallatin,Gallatin,1449959649000,36.39,-86.45,John Henderson,TN,1498313531000,19194894
40009172,Nashville,,1469501224000,36.09,-86.82,John Jastrow,TN,1484616306000,19194894
82390132,Nashville,,1452272228000,36.18,-86.74,John Kellar,TN,1459455870000,19194894
198334785,Bon Aqua,,1488870699000,35.93,-87.25,John Mayberry,TN,1488870699000,19194894
161054102,Franklin,Franklin,1498869728000,35.93,-86.81,john omahen,TN,1498869728000,19194894
223814582,Nashville,,1497906730000,36.17,-86.78,John Peitzman,TN,1498241754000,19194894
230632203,Franklin,,1498615789000,35.92,-86.89,Jon,TN,1507583701000,19194894
198637939,Smyrna,,1453783519000,35.97,-86.51,Jonathan Burton,TN,1453783519000,19194894
26657712,Franklin,Franklin,1452009491000,35.93,-86.81,Jonathan Field,TN,1456149318000,19194894
231958249,Brentwood,,1500229692000,36.0,-86.79,Jonathan Goode,TN,1500229692000,19194894
227291297,Brentwood,,1494382480000,36.0,-86.79,Jonathan Kelly,TN,1496919839000,19194894
217778176,Murfreesboro,,1480992430000,35.82,-86.45,Jonathan Rafael,TN,1480992430000,19194894
197731853,Nashville,,1452116185000,36.08,-86.72,Jordan Shear,TN,1453824033000,19194894
231339783,Nashville,,1499490049000,36.07,-86.73,Jordon Washington,TN,1499490049000,19194894
202540096,Marietta,,1461007525000,33.94,-84.61,Joseph King,GA,1469235800000,19194894
199612482,Spring Hill,,1459211084000,35.76,-86.88,Josh,TN,1459211084000,19194894
14168341,Nashville,,1474733194000,36.1,-86.66,Josh Hayes,TN,1479835918000,19194894
233650311,Hendersonville,,1503433612000,36.32,-86.61,Josh O'Rourke,TN,1507330554000,19194894
8736052,Brentwood,"Nashville, TN",1449874117000,36.0,-86.79,Joshua,TN,1449874117000,19194894
198156822,Lebanon,,1454560795000,36.21,-86.31,Joy Briggs,TN,1457194346000,19194894
157248622,Nashville,,1449968343000,36.16,-86.79,Juan Job,TN,1454624006000,19194894
82838762,Murfreesboro,Cabo Rojo,1494981092000,35.83,-86.45,Juan R Gomez Hoyos,TN,1494981092000,19194894
229572913,Nashville,,1497293646000,36.17,-86.78,Jules Sepulveda,TN,1497293646000,19194894
217127827,Nashville,,1479850016000,36.14,-86.74,Julia Christina Rowe,TN,1479850016000,19194894
13783999,Nashville,,1466042824000,36.15,-86.86,Julian Bankston,TN,1471652960000,19194894
8051753,Hermitage,,1492050502000,36.19,-86.6,Julie Hamilton,TN,1492050502000,19194894
225335017,Antioch,Antioch,1491740099000,36.04,-86.64,Just Askme,TN,1491740099000,19194894
211250128,Spring Hill,"spring hill, tn",1500852190000,35.76,-86.88,Justin Boltz,TN,1507041149000,19194894
76808422,Hendersonville,,1456631204000,36.32,-86.61,Justin Clark,TN,1458451105000,19194894
73151432,Murfreesboro,,1451918256000,35.82,-86.45,Justin Leggett,TN,1506703132000,19194894
118758382,Nashville,,1495926539000,36.17,-86.78,Justin Mabee,TN,1496263338000,19194894
200498013,Nashville,,1456533235000,36.17,-86.72,Kaley ,TN,1456533235000,19194894
199170789,Franklin,,1454628488000,35.93,-86.81,Karel Lukas,TN,1454628488000,19194894
218802654,Nashville,,1482961570000,36.17,-86.72,Karie Blalock,TN,1482961570000,19194894
207223958,Nashville,,1466083566000,36.17,-86.78,Karyn Walker,TN,1486643934000,19194894
145759352,Goodlettsville,,1464384336000,36.33,-86.74,Kate,TN,1485126486000,19194894
188672121,Nashville,,1450021012000,36.16,-86.79,Kate C,TN,1450021012000,19194894
22987411,Brentwood,,1466778091000,36.0,-86.79,Kate Duplessis,TN,1466778091000,19194894
205864072,Nashville,,1464300806000,36.13,-86.8,Kate Webster,TN,1484004558000,19194894
205714812,Nashville,,1464017689000,36.11,-86.86,Katherine Parker,TN,1464017689000,19194894
224815299,Nashville,,1490985562000,36.17,-86.78,Kathleen Allen,TN,1499711513000,19194894
203222189,Franklin,,1460478703000,35.99,-86.9,Kathy Rainey,TN,1460478703000,19194894
211341962,Nashville,,1471714062000,36.06,-86.96,Keegan,TN,1471714062000,19194894
41571912,Spring Hill,,1460404645000,35.76,-86.88,Keith Brawner,TN,1460404645000,19194894
233247962,Nashville,,1501822327000,36.06,-86.96,Kellee Cunningham López,TN,1501822327000,19194894
201257487,Nashville,,1457633584000,36.06,-86.96,Kelly Burns,TN,1457633584000,19194894
93407332,Nashville,Antioch,1450157567000,36.1,-86.66,Kelly Marie,TN,1450580879000,19194894
119285082,Murfreesboro,"Homestead, PA",1504839389000,35.87,-86.44,Ken Hreha,TN,1504839389000,19194894
224557218,Nashville,,1493137907000,36.16,-86.79,Kendall Johnston-Legg,TN,1493137907000,19194894
221247512,Nashville,,1486061756000,36.18,-86.81,Kenneth Kell,TN,1486061756000,19194894
9535687,Nashville,,1450046427000,36.21,-86.72,Kerry B.,TN,1456169930000,19194894
201474725,Brentwood,,1457935676000,36.0,-86.79,Kervins Guerrier,TN,1457935676000,19194894
200625715,Nashville,,1456712269000,36.17,-86.78,Kevin,TN,1460342225000,19194894
182982296,Washington,,1450494698000,38.91,-77.02,Kevin,DC,1455802276000,19194894
196834661,Franklin,,1471290110000,35.93,-86.81,Kevin A.,TN,1471290110000,19194894
70794642,Nashville,,1466620742000,36.08,-86.72,Kevin Derkits,TN,1472835356000,19194894
170209812,Nashville,Nashville,1484581655000,36.1,-86.66,Kevin Godsey,TN,1501858978000,19194894
13368161,Franklin,"Kenmare, ND",1450057347000,35.92,-86.89,Kevin Gustavson,TN,1466624703000,19194894
204614028,Nashville,,1471561580000,36.09,-86.82,Kevin Kersten,TN,1493331080000,19194894
10083866,Nashville,,1449957569000,36.18,-86.74,Kevin Old,TN,1488896956000,19194894
199056574,Nashville,,1454444094000,36.17,-86.78,Kim,TN,1454444094000,19194894
3016909,Nashville,Nashville,1461593259000,36.15,-86.86,Kim L.,TN,1502386167000,19194894
231245525,Spring Hill,,1499377267000,35.76,-86.88,Kirk O'Connor,TN,1499377267000,19194894
205535019,Antioch,"Nashville, TN",1465368175000,36.17,-86.88,Kirolos Shahat,TN,1466907099000,19194894
227938424,Antioch,,1495244186000,36.04,-86.64,Kitan/Emmanuel Ogunkoya,TN,1495244186000,19194894
206303155,Mount Juliet,,1464840353000,36.21,-86.52,Kris!,TN,1466661812000,19194894
214274115,Nashville,,1475536795000,36.17,-86.72,Kristina Whitlow,TN,1475536795000,19194894
6939340,Chattanooga,"Chattanooga, TN",1504718830000,35.07,-85.31,kristy,TN,1504801098000,19194894
92701572,Franklin,,1490965613000,35.92,-86.89,Kyle Aebischer,TN,1490965613000,19194894
201517240,Murfreesboro,,1457992165000,35.82,-86.45,Kyle Cravens,TN,1457992165000,19194894
203282391,Nashville,,1473962450000,36.09,-86.82,Kyle Prins,TN,1473962450000,19194894
224837802,Mount Juliet,,1491015280000,36.21,-86.52,Lakesha Walker,TN,1491015280000,19194894
196746795,Franklin,,1449875252000,35.92,-86.89,Lamont TURNER,TN,1449875252000,19194894
193220585,Oakland,,1462546912000,35.21,-89.54,Landon Clay,TN,1462546912000,19194894
204589981,Nashville,,1462460627000,36.13,-86.8,Lane Harbin,TN,1462460627000,19194894
228998284,Clarksville,,1496588661000,36.53,-87.35,Larry Mervine,TN,1496588661000,19194894
205166604,Lafayette,"Jonesboro, AR",1463275958000,30.24,-92.01,Lauren Shaye,LA,1463275958000,19194894
176164622,Nashville,,1465989482000,36.17,-86.78,Lawren Lelko,TN,1472049087000,19194894
214042373,Nashville,,1475251077000,36.16,-86.79,Lee F,TN,1475251077000,19194894
217052463,Orlando,,1503883043000,28.54,-81.37,Leigh,FL,1503883043000,19194894
232753450,Nashville,,1501202536000,36.08,-86.72,Leticia Rojano,TN,1501202536000,19194894
211131914,Nashville,,1471401360000,36.22,-86.77,Lindsey Thornton,TN,1471401360000,19194894
235835957,Nashville,,1504739554000,36.13,-86.8,Lisa,TN,1504739554000,19194894
204446330,Hendersonville,,1462247262000,36.32,-86.61,Lisa Blaylock,TN,1462247262000,19194894
148906982,Nashville,,1451843765000,36.17,-86.78,Lisa Kaye LeVan,TN,1467258661000,19194894
223015434,Nashville,,1488470074000,36.16,-86.79,Lori Barratt,TN,1488470074000,19194894
189360661,Albuquerque,,1449607646000,35.14,-106.64,LouAnn Hunt,NM,1453415863000,19194894
183750106,Nashville,,1454600961000,36.16,-86.79,Luke Lancaster,TN,1461005831000,19194894
56462312,Nashville,,1473350328000,36.17,-86.78,Lynelle,TN,1473350328000,19194894
198746078,La Vergne,,1453957069000,36.01,-86.57,Lynise,TN,1455944894000,19194894
210232269,Nashville,,1470114658000,36.17,-86.78,Lynn Jackson Conklin,TN,1470114658000,19194894
201647608,Clarksville,"Wahiawa, HI",1460558238000,36.53,-87.35,Maiya,TN,1461177033000,19194894
199047831,Nashville,,1454432644000,36.08,-86.72,Mandy,TN,1454432644000,19194894
210822534,Nashville,,1470958841000,36.17,-86.78,Mandy Lopez,TN,1470958841000,19194894
75871012,Nashville,,1463358254000,36.16,-86.79,Marc,TN,1505511614000,19194894
3823248,San Jose,,1449621967000,37.39,-121.9,Marc Krejci,CA,1492070906000,19194894
209234911,New York,,1468798067000,40.75,-73.99,Maria,NY,1468798067000,19194894
217949379,Nashville,,1481295045000,36.17,-86.78,Maria,TN,1481295045000,19194894
210096250,Fosterville,,1469933874000,35.75,-86.39,Mario Allen,TN,1470363988000,19194894
235695658,Franklin,,1504605180000,35.93,-86.84,Marjorie Morris,TN,1504605180000,19194894
202310551,Thompsons Station,,1459180221000,35.8,-86.9,mark,TN,1459180221000,19194894
219659495,Nashville,,1484062275000,36.14,-86.74,Mark Ciraulo,TN,1484062275000,19194894
209373088,La Vergne,,1468969670000,36.01,-86.57,Martin Aleman,TN,1468969670000,19194894
221212756,Nashville,,1486023160000,36.17,-86.78,Martynas Šustavi?ius,TN,1486023160000,19194894
163173352,Nashville,Nashville,1454960954000,36.11,-86.86,Marybeth Snodgrass,TN,1454960954000,19194894
59916552,Brentwood,Knoxville,1449959639000,36.0,-86.79,Matt,TN,1485239404000,19194894
223186343,Murfreesboro,,1488727590000,35.78,-86.33,Matt,TN,1488727590000,19194894
227770295,Nashville,,1495030414000,36.17,-86.78,Matt Reed,TN,1495119022000,19194894
208138348,Nashville,,1467338114000,36.15,-86.86,Matt Rigsby,TN,1471900756000,19194894
107598392,Nashville,,1450100501000,36.17,-86.78,Matt Spell,TN,1450100501000,19194894
123269472,Nashville,,1460047539000,36.11,-86.86,Matt Walkley,TN,1460047539000,19194894
207193520,Murfreesboro,,1490826537000,35.78,-86.33,Matthew Cotter,TN,1490826537000,19194894
85552772,Nashville,,1461068484000,36.13,-86.8,Matthew Eshleman,TN,1472229283000,19194894
199436996,Nashville,,1455831596000,36.17,-86.72,Matthew Hays,TN,1455831596000,19194894
220421489,Nashville,,1485027596000,36.14,-86.74,Matthew McGarvey,TN,1503837725000,19194894
185156659,Nashville,,1466692255000,36.17,-86.72,Matthew Smart,TN,1468439298000,19194894
214899373,Nashville,,1488891453000,36.16,-86.77,Matti Gilmore,TN,1488891453000,19194894
197135773,Nashville,,1461209987000,36.17,-86.78,Max Gurley,TN,1497928846000,19194894
225224730,Nashville,,1491576735000,36.17,-86.78,Maynard Friend,TN,1491576735000,19194894
237619095,Nashville,,1506600683000,36.17,-86.78,McCauley Warren,TN,1506727715000,19194894
222503242,Nashville,,1487741195000,36.08,-86.72,Megan Dickinson,TN,1487741195000,19194894
206229029,Antioch,,1464737825000,36.04,-86.64,Meke Smith,TN,1464737825000,19194894
218938385,Murfreesboro,,1483140840000,35.85,-86.36,Melissa Flowers,TN,1501813207000,19194894
199262904,Murfreesboro,,1454777597000,35.82,-86.45,MH,TN,1454777597000,19194894
2256087,Nashville,Seattle,1468338291000,36.17,-86.78,Micah Redding,TN,1499992073000,19194894
14638667,Nashville,,1462408550000,36.17,-86.78,Michael,TN,1463579605000,19194894
4159371,Nashville,Huntsville,1464284885000,36.08,-86.72,Michael Arnold,TN,1484845724000,19194894
200552637,Fairview,,1459121515000,35.97,-87.13,Michael Bruso,TN,1503585475000,19194894
220346993,Ridgetop,,1484929132000,36.4,-86.77,Michael Capps,TN,1484953767000,19194894
113263012,Nashville,,1449871660000,36.17,-86.72,Michael Crayton,TN,1449871660000,19194894
227911690,Nashville,,1496932682000,36.17,-86.78,Michael Egan,TN,1498564055000,19194894
208571752,Brentwood,,1467931480000,36.0,-86.79,Michael Frost ,TN,1467931480000,19194894
195145042,Franklin,,1480807498000,35.92,-86.89,Michael Roberts,TN,1480807498000,19194894
198492955,College Grove,,1453517933000,35.77,-86.71,Michael Shaw,TN,1453517933000,19194894
99326292,Nashville,,1450157792000,36.17,-86.78,Michael Shaw,TN,1450157792000,19194894
235855132,Gallatin,,1504759680000,36.39,-86.45,Michael Shawn Braswell,TN,1504759680000,19194894
196677945,Nashville,,1449722203000,36.17,-86.78,Michele Crater,TN,1449722203000,19194894
106902342,Nashville,,1449872183000,36.08,-86.72,Michelle Price-Johnson,TN,1459385514000,19194894
196685224,Hermitage,,1449742133000,36.19,-86.6,Miller Hogan,TN,1449742133000,19194894
213408276,Nashville,,1480473099000,36.14,-86.74,Mitch Meiss,TN,1488296154000,19194894
232801954,Nashville,,1501268095000,36.17,-86.78,Morgan,TN,1501268095000,19194894
217113701,Nashville,,1479831216000,36.17,-86.72,Mrz Kennetha Patterson,TN,1479831216000,19194894
191059701,Nashville,,1454285153000,36.17,-86.78,Nathan Baldwin,TN,1455839199000,19194894
147690502,Mc Ewen,,1450890958000,36.14,-87.66,Nathan Davis,TN,1450890958000,19194894
200320245,Nashville,,1456277848000,36.09,-86.82,Nathan Johnson,TN,1481139387000,19194894
225192460,Nashville,,1491522750000,36.17,-86.78,Nathan Ketsdever,TN,1491522750000,19194894
196682395,Smyrna,,1449732989000,35.97,-86.51,Nathan Valentine,TN,1449732989000,19194894
189770400,Antioch,,1455016133000,36.17,-86.88,Nathaniel oboh,TN,1455016133000,19194894
201161632,Nashville,,1487813695000,36.08,-86.72,Nechole Thompson,TN,1487813695000,19194894
231369633,Brentwood,,1499530495000,36.0,-86.79,Nicholas Atkins,TN,1499530495000,19194894
197487551,Nashville,,1451663119000,36.07,-86.73,Nick,TN,1451663119000,19194894
223318393,Nashville,,1493182735000,36.17,-86.78,Nick Nash,TN,1493182735000,19194894
218042027,Nashville,,1483521827000,36.17,-86.78,Nick Sherron,TN,1485460272000,19194894
230079946,Clarksville,,1497960656000,36.53,-87.35,Nigel Plummer,TN,1497960656000,19194894
209578349,Nashville,,1469244521000,36.16,-86.79,Oleksii Tkachuk,TN,1469244521000,19194894
234168251,Franklin,,1502887997000,35.93,-86.81,Olivia Oetjens,TN,1502887997000,19194894
229664502,Nashville,,1497401599000,36.07,-86.73,orane mclean,TN,1497401599000,19194894
156895842,Nashville,,1449874176000,36.16,-86.79,Paden Pierry,TN,1452959625000,19194894
185576959,Brookside,Brookside,1485198345000,40.8,-74.57,Paige Alexandra,NJ,1485198345000,19194894
219751653,Nashville,,1484174874000,36.16,-86.78,Papy Bopili,TN,1498329447000,19194894
182697438,Nashville,,1457436528000,36.1,-86.66,Patricia Waters,TN,1492975965000,19194894
229838766,Nashville,,1497638442000,36.14,-86.74,Patrick Artrip,TN,1497638442000,19194894
205095793,Nashville,,1463182880000,36.08,-86.72,Patrick Duteau,TN,1463182880000,19194894
196718110,Nashville,,1449810544000,36.22,-86.77,Paul Benson,TN,1449810544000,19194894
187277518,Nashville,"Huntington, WV",1454629989000,36.16,-86.79,Paul L. McNeely,TN,1504219442000,19194894
9800543,Nashville,,1499810564000,36.08,-86.72,Paul Shearer,TN,1503846916000,19194894
103592332,Brentwood,"Nashville, TN",1469496195000,36.0,-86.79,Peter Shave,TN,1469496195000,19194894
1921821,Franklin,"Franklin, TN",1457837100000,35.92,-86.89,Phil Harvey,TN,1461718694000,19194894
212031972,Nashville,,1472661259000,36.17,-86.78,Philip Paul Beyer,TN,1472842884000,19194894
162419382,Nashville,Nashville,1470941887000,36.16,-86.79,Philip Teagle,TN,1485381290000,19194894
198393616,Nashville,,1457816679000,36.08,-86.72,Phillip Glidewell,TN,1493326596000,19194894
199130686,Smyrna,,1461166268000,35.97,-86.51,Preston Sparks,TN,1461197228000,19194894
214548728,Clarksville,,1475888808000,36.53,-87.35,RA Blair,TN,1475888808000,19194894
199490593,Nashville,,1487430509000,36.17,-86.78,Rachel deJong,TN,1487430509000,19194894
215080094,Nashville,,1476675852000,36.17,-86.78,Randall Smith,TN,1477961681000,19194894
209165872,Clarksville,,1468712283000,36.53,-87.35,Ray Watkins,TN,1469676033000,19194894
219727625,Nashville,,1494532125000,36.17,-86.78,Rebecca (Ruthie) Wilkerson,TN,1494532125000,19194894
91981922,Hendersonville,Nashville,1451961937000,36.32,-86.61,Rebecca Taylor,TN,1484212923000,19194894
189938513,Brentwood,,1451351795000,36.0,-86.79,Rebekah,TN,1451351795000,19194894
229460350,Antioch,,1497156896000,36.04,-86.64,Reese Johnson,TN,1497156896000,19194894
188816818,Los Angeles,,1501241081000,33.97,-118.24,Reginald Grant,CA,1501241081000,19194894
10108476,Nashville,,1466278386000,36.17,-86.72,Renata ,TN,1496449389000,19194894
221161925,Clarksville,,1485961049000,36.56,-87.41,Renee Palicia,TN,1485961049000,19194894
211849132,Hermitage,,1472415892000,36.19,-86.6,Richard and Donna Varno,TN,1472415892000,19194894
211537538,Nashville,,1471978151000,36.1,-86.66,Rick Carmona,TN,1503880410000,19194894
191655607,Nashville,"Knoxville, TN",1484089009000,36.09,-86.82,Rick Kuhlman,TN,1484089009000,19194894
183744670,Nashville,,1493312630000,36.17,-86.78,Rick Love,TN,1493312630000,19194894
71851852,Franklin,,1450048634000,35.92,-86.89,Rick Murdock,TN,1507736160000,19194894
144553372,Franklin,,1472331812000,35.93,-86.81,Rick Peyton,TN,1504188330000,19194894
222837116,Nashville,,1488221929000,36.17,-86.78,Rita,TN,1488221929000,19194894
225139423,Nashville,,1491952298000,36.14,-86.8,RiTech,TN,1493313884000,19194894
184066993,Nashville,Evansville,1502115300000,36.17,-86.78,Rob Wilson,TN,1506367501000,19194894
56031802,San Antonio,San Antonio,1454298978000,29.59,-98.4,Robert Ayers,TX,1486566130000,19194894
11729281,Saratoga Springs,Saratoga Springs,1452183091000,43.08,-73.77,Robert Braathe,NY,1452183091000,19194894
222890080,Franklin,,1488291365000,35.92,-86.89,Robert English,TN,1489934617000,19194894
204911282,Bentonville,,1464739289000,36.38,-94.21,Rodney Vincent Truitt Jr.,AR,1464739289000,19194894
197157910,Nashville,,1450849191000,36.21,-86.72,Roy West,TN,1450849191000,19194894
201857441,Nashville,,1458489643000,36.11,-86.78,Ryan,TN,1459435014000,19194894
208813186,Nashville,"Nashville, TN",1472215988000,36.16,-86.79,Ryan Armstrong,TN,1492523987000,19194894
141933022,Mount Juliet,,1454690340000,36.21,-86.52,Sabrina,TN,1454690340000,19194894
222617819,Franklin,,1487898538000,35.92,-86.89,Sam Lax,TN,1487898538000,19194894
214515949,Franklin,,1489359817000,35.92,-86.89,Samuel,TN,1502189777000,19194894
174951522,Murfreesboro,,1471808907000,35.78,-86.33,Sandy Blevins,TN,1471808907000,19194894
102344122,Antioch,,1477602023000,36.04,-86.64,Sandy Brewer Jones,TN,1504204962000,19194894
231588335,Nashville,,1499784377000,36.18,-86.81,Sarah Harris,TN,1499971838000,19194894
214590028,Nashville,,1475954917000,36.18,-86.81,Sarai Corea,TN,1475954917000,19194894
223721709,Lebanon,,1489460028000,36.21,-86.31,Savannah H,TN,1489460028000,19194894
194665246,Gallatin,,1462457763000,36.39,-86.45,Scot ,TN,1462457763000,19194894
42767962,Nashville,USA,1485279665000,36.17,-86.78,Scott,TN,1485279665000,19194894
225225948,Franklin,,1491578553000,35.92,-86.89,Scott Dickson,TN,1491578553000,19194894
12176751,Nashville,,1449872392000,36.17,-86.78,Scott Fernandez,TN,1455735839000,19194894
231623289,Mount Juliet,,1499817526000,36.22,-86.52,Scott Moore,TN,1499817526000,19194894
73329392,Lebanon,,1455689174000,36.15,-86.32,ScottandGeneva Winslow,TN,1492449286000,19194894
6954389,Altoona,,1463717565000,40.52,-78.4,sean hunter,PA,1463717565000,19194894
200407318,Nashville,"Lima, PE",1467744967000,36.17,-86.78,Sebastián Alegre,TN,1467744967000,19194894
9003361,Franklin,,1455669399000,35.93,-86.81,seppy NYANG'ORO,TN,1455669399000,19194894
235541488,Nashville,,1504444911000,36.07,-86.73,Sergio Bello,TN,1504444911000,19194894
9648429,Nashville,New York City,1492866979000,36.15,-86.86,Seth Alexander,TN,1503109482000,19194894
183011220,Lebanon,,1467233887000,36.15,-86.32,Seth Lowrey,TN,1467233887000,19194894
43740162,Collierville,,1450369681000,35.05,-89.68,shamichael,TN,1455058367000,19194894
204412550,Murfreesboro,,1485203086000,35.87,-86.44,Shaun Willis,TN,1487880634000,19194894
231083258,Nashville,,1499182481000,36.17,-86.72,Shekinah Christian,TN,1499182481000,19194894
199274196,Nashville,,1461107907000,36.09,-86.82,Shiva,TN,1461179222000,19194894
231415178,Nashville,,1499581839000,36.1,-86.66,Shruti Luhach,TN,1499581839000,19194894
211523160,Nashville,,1471962329000,36.17,-86.78,Spencer Smith,TN,1471962329000,19194894
232897749,Antioch,,1503870373000,36.17,-86.88,Stephanie P.,TN,1503870373000,19194894
182492777,Nashville,,1487254630000,36.13,-86.8,Stephen Bussard,TN,1498423093000,19194894
213166134,Nashville,,1474635037000,36.14,-86.74,Stephen Webb,TN,1474635037000,19194894
206722517,Franklin,,1492622808000,35.92,-86.89,Steve Dykstra,TN,1494364371000,19194894
196176929,Hermitage,,1485455915000,36.19,-86.6,Steve Kozy,TN,1485455915000,19194894
195581088,Nashville,,1483978046000,36.17,-86.78,Steve Welch,TN,1483978046000,19194894
199469476,Nashville,,1455090292000,36.16,-86.79,Steven Goss,TN,1455649055000,19194894
217378572,Nashville,,1484254106000,36.17,-86.78,Steven Holmes,TN,1493147151000,19194894
176128392,Nashville,,1449989184000,36.17,-86.78,Steven Wilcox,TN,1461357738000,19194894
229114345,Franklin,,1496716894000,35.92,-86.89,Sue Manley Lombardo,TN,1496716894000,19194894
214185043,Nashville,,1475428357000,36.17,-86.78,Sundar Kuppuswamy,TN,1475428357000,19194894
205818653,Antioch,,1464150633000,36.04,-86.64,Sunday Akinsete,TN,1464150633000,19194894
182997429,Nashville,,1480625997000,36.16,-86.78,Susan Cagna,TN,1480625997000,19194894
218144684,Nashville,,1481650713000,36.17,-86.78,Susan Smith,TN,1481650713000,19194894
12134295,Nashville,,1477378181000,36.15,-86.86,Suzanne,TN,1485485416000,19194894
216364877,Nashville,,1503605246000,36.06,-86.96,Sydney Elizabeth,TN,1503605246000,19194894
217775215,Murfreesboro,,1480987390000,35.82,-86.45,T. James Carmichael,TN,1480987390000,19194894
203289756,Knoxville,,1460571435000,35.96,-83.92,Tabitha Sue Smith,TN,1461279968000,19194894
194262645,Nashville,,1450047328000,36.13,-86.8,Tammy Thomas,TN,1450047328000,19194894
184331073,Nashville,Nashville,1485408559000,36.16,-86.79,Tanner Hirstine,TN,1485408559000,19194894
222065087,Nashville,,1487134636000,36.14,-86.74,Tarekegn Sisay,TN,1487134636000,19194894
206428101,Nashville,,1473737552000,36.17,-86.78,Tasha,TN,1487790628000,19194894
219181828,Nashville,,1483469822000,36.17,-86.78,Taylor Perkins,TN,1497303088000,19194894
213392064,Smyrna,,1474450073000,35.97,-86.51,Tc,TN,1474450073000,19194894
126525082,Nashville,,1498352431000,36.13,-86.8,TeamLockhart,TN,1498352431000,19194894
197928971,Franklin,,1465568223000,35.92,-86.89,Ted,TN,1469740549000,19194894
222495708,Nashville,,1487734081000,36.1,-86.66,Teresa Vasquez,TN,1487734081000,19194894
200862670,Nashville,,1459110477000,36.16,-86.79,Tiffany,TN,1483995383000,19194894
201697542,Franklin,,1458251572000,35.92,-86.89,Tiger Webster,TN,1459453635000,19194894
187828500,Franklin,,1449967107000,35.92,-86.89,Tim,TN,1449967107000,19194894
76842942,Nashville,,1450036495000,36.17,-86.78,Tim Catchim,TN,1477947443000,19194894
121418902,Brentwood,,1473263085000,36.0,-86.79,Tim Jones,TN,1496869132000,19194894
226828140,Brentwood,,1493752935000,36.0,-86.79,Tim Metzger,TN,1493752935000,19194894
189568188,Springfield,Springfield,1449871320000,36.52,-86.87,Timothy Haley,TN,1449871320000,19194894
186776816,Mount Juliet,,1506914020000,36.21,-86.52,Timothy Thompson II,TN,1506914020000,19194894
196687395,Brentwood,,1449749565000,36.0,-86.79,Todd Buchanan,TN,1449749565000,19194894
233144972,Franklin,,1501698782000,35.93,-86.81,Tommy Vieira,TN,1501698782000,19194894
11970957,Youngstown,,1457145261000,41.11,-80.7,Tony,OH,1482590646000,19194894
12442442,Hendersonville,,1450196238000,36.32,-86.61,Tony Person,TN,1450196238000,19194894
186111235,Nashville,"Bellingham, WA",1489951093000,36.07,-86.78,Tony-Tones,TN,1503511939000,19194894
232504296,Nashville,,1500906584000,36.06,-86.96,Torrie Washington ,TN,1500906584000,19194894
192906571,Simpsonville,,1449606685000,34.72,-82.27,Tracey,SC,1472060827000,19194894
125666432,Nashville,"Nashville, TN",1453941122000,36.16,-86.79,Tracy Gilliam,TN,1502422709000,19194894
230262594,Nashville,Mount Juliet,1498163011000,36.19,-86.8,Tracy Sullivan,TN,1500560459000,19194894
220511573,Nashville,,1485139812000,36.18,-86.74,Trent Baldwin (TrueRoyaltyEnt),TN,1485139812000,19194894
221180409,Nashville,,1485981656000,36.18,-86.81,Trevor Boren,TN,1485981656000,19194894
202340913,Franklin,,1459214220000,35.92,-86.87,Tyler Welker,TN,1459214220000,19194894
211675625,Nashville,,1472169491000,36.17,-86.78,udi ijomanta,TN,1472169491000,19194894
201835998,Nashville,,1458453450000,36.02,-86.66,Ulo,TN,1458453450000,19194894
6932365,Franklin,Nashville,1483574781000,35.93,-86.81,Vicki Lea,TN,1483574781000,19194894
214729620,Nashville,,1476173964000,36.17,-86.78,Vickie Woods,TN,1499822878000,19194894
230870575,Antioch,,1498920999000,36.04,-86.64,victor thomas,TN,1498920999000,19194894
120681332,Nashville,,1460490069000,36.13,-86.8,Vincent Taylor,TN,1487808890000,19194894
226290953,Franklin,,1493034518000,35.92,-86.89,Walker Morrow,TN,1493034518000,19194894
189596556,Nashville,,1450061849000,36.17,-86.78,Wayne Hutchinson,TN,1464199788000,19194894
8925798,Nashville,,1449873857000,36.17,-86.78,Wendy Williams,TN,1449873857000,19194894
210822363,Nashville,,1470956424000,36.17,-86.78,Wes Burrell,TN,1470956424000,19194894
53991012,Nashville,Nashville,1459619297000,36.06,-86.96,Wes Nelson,TN,1493091694000,19194894
223983684,Nashville,,1489840318000,36.18,-86.74,Whitney Burrel Davis,TN,1489840318000,19194894
207314813,Nashville,,1466210737000,36.17,-86.78,Wiley Chandler,TN,1466210737000,19194894
195696513,Murfreesboro,,1451933423000,35.87,-86.34,Will Bray,TN,1451933423000,19194894
205389919,Nashville,,1505178517000,36.13,-86.67,Will Davis,TN,1505178517000,19194894
195150281,Mount Juliet,Mount Juliet,1456795582000,36.21,-86.52,William Etcetera,TN,1506260323000,19194894
222928536,Nashville,,1488338187000,36.22,-86.86,William Webb III,TN,1488338187000,19194894
150950742,Nashville,,1456622179000,36.17,-86.78,willkotheimer,TN,1468438797000,19194894
14434014,Nashville,Memphis,1501725740000,36.09,-86.82,Witt Allen,TN,1503988568000,19194894
210921083,Nashville,,1471109775000,36.16,-86.79,You Zhou,TN,1471109775000,19194894
221454263,Antioch,,1486320338000,36.04,-86.64,Yusuf Yusuf,TN,1486320338000,19194894
217667178,Nashville,"Brooklyn, NY",1501124424000,36.17,-86.79,Yusuff Alabi-Ajidagba ,TN,1501124424000,19194894
213351719,New York,,1474396949000,40.75,-73.99,Zac Gallagher,NY,1478114666000,19194894
198657470,Nashville,,1453823563000,36.17,-86.72,Zach Casebolt,TN,1453823563000,19194894
97356192,Nashville,Nashville,1457565660000,36.13,-86.8,Zach Schimenz,TN,1457565660000,19194894
224618872,Murfreesboro,,1490711079000,35.87,-86.44,Zack Galloway,TN,1490711079000,19194894
17686511,Nashville,,1470238422000,36.14,-86.74,Zack Register,TN,1470238422000,19194894
212434954,Nashville,,1473203857000,36.14,-86.74,Zakk George,TN,1473203857000,19194894
223847954,Nashville,,1489934598000,36.17,-86.78,Zarina,TN,1489934598000,19194894
