id,city,hometown,joined,lat,lon,name,state,visited,group_id
217135553,Sevierville,,1487196855000,35.87,-83.53,Aaron Traylor,TN,1487358827000,19416348
221168980,Nashville,Nashville,1485972745000,36.15,-86.86,Accent Bellevue,TN,1486138614000,19416348
223404192,Nashville,,1489014473000,36.06,-86.96,Ad Robins,TN,1491279991000,19416348
222769111,Nashville,,1492528520000,36.06,-86.96,Alan Woody Reeves,TN,1492994174000,19416348
59789362,Nashville,,1453731165000,36.15,-86.86,Ali McAtee,TN,1453731165000,19416348
82028462,Nashville,Chincoteague,1506108432000,36.17,-86.78,Alicia Thompson,TN,1507596384000,19416348
196784803,Nashville,,1453921879000,36.14,-86.74,Amanda ,TN,1453921879000,19416348
85390722,Nashville,Nashville,1453922550000,36.15,-86.86,Amanda Jay,TN,1505967370000,19416348
198688476,Nashville,,1453866745000,36.11,-86.86,Amber Malatino Jennings,TN,1453866745000,19416348
200791482,Nashville,,1456951499000,36.17,-86.78,Amy Napoli,TN,1481378689000,19416348
211409871,Nashville,,1471809062000,36.17,-86.78,Amy Page,TN,1471809062000,19416348
204871578,Clarksville,,1462873716000,36.49,-87.23,AnaKatarina Lalonde,TN,1462873716000,19416348
200609336,Pegram,,1456692761000,36.12,-87.03,Andrea Mercer,TN,1456719942000,19416348
229669257,Franklin,,1497407074000,35.92,-86.89,Andrew Schweiger,TN,1497407074000,19416348
9589158,Nashville,,1487038954000,36.13,-86.8,Andy Buford,TN,1487038954000,19416348
180878792,Brentwood,,1463074988000,36.0,-86.79,Angela Mink,TN,1470330064000,19416348
235803660,Nashville,,1504711285000,36.06,-86.96,Angelia Burgess Young,TN,1504711285000,19416348
198610938,Nashville,,1453741105000,36.17,-86.78,Ann Miller,TN,1466102738000,19416348
217763669,Franklin,,1480971697000,35.93,-86.81,Anna Hastings,TN,1480971697000,19416348
183609420,Jackson,,1507058579000,35.61,-88.82,Antwaun,TN,1507327477000,19416348
225540072,Portland,,1492019676000,36.57,-86.49,April High,TN,1492019676000,19416348
202489608,Nashville,,1459437480000,36.15,-86.86,April Jones,TN,1489417326000,19416348
202865816,Mercer Island,,1459972757000,47.56,-122.23,Archana Soy,WA,1459972757000,19416348
224450416,Nashville,Nashville,1495662846000,36.15,-86.86,Barbara McGinty,TN,1499347877000,19416348
228022854,Nashville,,1495368747000,36.06,-86.96,Beatrice Arriviste,TN,1495368747000,19416348
216311844,Nashville,,1478554223000,36.13,-86.8,Beth Barnard,TN,1480431752000,19416348
189865755,Nashville,Nashville,1453757548000,36.06,-86.96,Beth Smith,TN,1485540566000,19416348
200973565,Nashville,,1457279324000,36.06,-86.96,Betsi moody,TN,1457279324000,19416348
37016152,Nashville,,1459826409000,36.17,-86.79,Bill Bernstein,TN,1471431890000,19416348
9882159,Nashville,Nashville,1487607015000,36.08,-86.72,Bill Conte,TN,1500578971000,19416348
203909824,Orlando,,1487884697000,28.54,-81.37,BRAD B,FL,1487884697000,19416348
221184268,Nashville,,1485985549000,36.06,-86.96,Brandi Robertson,TN,1495828274000,19416348
203650086,Nashville,,1461089234000,36.09,-86.82,Brandon Layne Parker,TN,1467754391000,19416348
223839735,Nashville,,1489625609000,36.15,-86.86,Brandy Jones,TN,1489625609000,19416348
7631008,Spring Hill,,1496358487000,35.76,-86.88,Brenda,TN,1496901876000,19416348
203726910,Nashville,,1461193896000,36.06,-86.96,Brett Leehans,TN,1461193896000,19416348
202427079,Nashville,,1459344813000,36.06,-86.96,Brian Bailey,TN,1459344813000,19416348
188706868,Nashville,,1465914468000,36.17,-86.78,Brian Harris,TN,1465914468000,19416348
211808252,Nashville,,1488320623000,36.17,-86.78,Brian Laird,TN,1488320623000,19416348
73578712,Nashville,Nashville,1455297952000,36.11,-86.86,brian schlanger,TN,1504648656000,19416348
233171899,Nashville,,1501728931000,36.17,-86.78,briandu,TN,1501728931000,19416348
209884444,Nashville,,1469644202000,36.17,-86.78,Bridget,TN,1469644202000,19416348
223858171,Nashville,,1489655422000,36.16,-86.79,Brijesh Patel,TN,1489655422000,19416348
202376732,Brentwood,,1459269009000,36.0,-86.79,Broderick Tye,TN,1459269009000,19416348
148010152,Goodlettsville,Goodlettsville,1472768519000,36.33,-86.74,Bruce Smith,TN,1472768519000,19416348
213753582,Nashville,,1474919315000,36.06,-86.96,Carlos Alvarez,TN,1474919315000,19416348
215365962,Murfreesboro,,1477094089000,35.87,-86.44,Carlos Carranza,TN,1477094089000,19416348
187871471,Nashville,,1484945202000,36.15,-86.86,Carmen Jones,TN,1484945202000,19416348
225877104,Nashville,,1492481309000,36.06,-86.96,Carol Plemons,TN,1496254892000,19416348
196892203,Nashville,,1453930355000,36.06,-86.96,Caroline Bollinger,TN,1457021280000,19416348
220768796,Nashville,,1487187917000,36.17,-86.78,Casey Czerpak,TN,1501259219000,19416348
205457646,Nashville,,1463659432000,36.06,-86.96,Chad Clark,TN,1485951302000,19416348
198723144,Nashville,,1453923946000,36.06,-86.96,Chad Weems,TN,1454536644000,19416348
219594150,Nashville,,1483984510000,36.08,-86.72,Chandler Keel,TN,1483984510000,19416348
190214254,Nashville,Nashville,1457455494000,36.09,-86.82,Charles Herron,TN,1483629895000,19416348
236940499,Nashville,,1505843727000,36.06,-86.96,Cheryl Taylor,TN,1505843727000,19416348
214873016,Nashville,,1476377075000,36.15,-86.86,Chip Ward,TN,1484827229000,19416348
226052576,Nashville,,1500494059000,36.17,-86.78,Chris Cassar,TN,1508359125000,19416348
198625761,Franklin,,1453764507000,35.93,-86.81,Chris Lamb,TN,1472523257000,19416348
7839717,Nashville,Nashville,1453822405000,36.06,-86.96,Chris Ogle,TN,1466034060000,19416348
206142566,Nashville,,1464641908000,36.15,-86.86,Christine,TN,1483341077000,19416348
190266279,Nashville,,1456067722000,36.22,-86.77,Christy Gifford,TN,1475584907000,19416348
209423268,Nashville,,1508038030000,36.17,-86.78,Clay Hodges,TN,1508038030000,19416348
215083227,Nashville,,1476680919000,36.06,-86.96,Collins ,TN,1476680919000,19416348
181746382,Nashville,,1453918192000,36.17,-86.78,Corey Campbell,TN,1454094325000,19416348
76557592,Brentwood,"Chicago, IL",1454174547000,36.0,-86.79,CORY BEAL SR,TN,1467037146000,19416348
201881589,New York,,1458517698000,40.75,-73.99,Cuejo Dodd,NY,1458522538000,19416348
216451511,Nashville,,1478795095000,36.11,-86.78,Dan O'Rourke,TN,1478795095000,19416348
215970680,Nashville,,1478029615000,36.17,-86.78,Dan Stolldorf,TN,1478037104000,19416348
217896753,Nashville,,1481205586000,36.17,-86.78,Dan Zellars,TN,1488499439000,19416348
125152722,Nashville,,1453944496000,36.17,-86.78,Danyelle Keahey,TN,1469922856000,19416348
186774643,Nashville,Nashville,1494358875000,36.06,-86.96,Darren,TN,1508419344000,19416348
239324409,Nashville,,1508554834000,36.18,-86.74,Daton Hall,TN,1508554834000,19416348
191776415,Nashville,,1455462353000,36.17,-86.79,David Andrew Johnson,TN,1508348856000,19416348
229583026,Franklin,,1497302485000,35.93,-86.81,David Constantine,TN,1497302485000,19416348
144256692,Nashville,,1476412904000,36.15,-86.86,David VanWie,TN,1478108288000,19416348
75681792,Brentwood,"Nashville, TN",1489633950000,35.95,-86.83,David W. Hill,TN,1496323943000,19416348
12766895,Nashville,"Toronto, Ontario, Canada",1454036328000,36.11,-86.86,Debby Hill,TN,1483466121000,19416348
204791771,Nashville,,1465500708000,36.17,-86.78,Deidre Lilly,TN,1466513189000,19416348
188348741,Fayetteville,,1458667407000,35.18,-86.57,Don,TN,1470097343000,19416348
53308352,Nashville,,1453978744000,36.17,-86.78,Donna Butler,TN,1453978744000,19416348
198716655,Hendersonville,"Jackson, TN",1456366244000,36.32,-86.61,Dr. Brittany McMillen,TN,1460341501000,19416348
206523256,Antioch,,1465174462000,36.17,-86.88,duane johnson,TN,1468701084000,19416348
198763296,Nashville,,1454599799000,36.17,-86.78,Earice Roberts,TN,1457666341000,19416348
216366125,Brentwood,,1478639165000,36.0,-86.79,Eddie C Cribbs,TN,1478639165000,19416348
10460196,Franklin,,1453830846000,35.92,-86.89,Ellen Krizman,TN,1507384286000,19416348
198609191,Nashville,,1453738595000,36.17,-86.78,Emily Learned ,TN,1488986603000,19416348
201074513,Nashville,,1457490103000,36.17,-86.78,Erika Forth,TN,1467772169000,19416348
210015978,Nashville,,1469826868000,36.17,-86.78,Fawaz ,TN,1469826868000,19416348
218941484,Portland,,1483145598000,36.57,-86.49,Garry Lueng,TN,1483145598000,19416348
235250797,New York,Austria ,1504487711000,40.71,-74.01,George Edwards,NY,1504487711000,19416348
1124238,Nashville,,1453865095000,36.18,-86.74,Gloria,TN,1465861042000,19416348
31072572,Nashville,"Wilmington, NC",1506973270000,36.11,-86.86,Greg,TN,1506973270000,19416348
30687102,Nashville,"London, England",1457914167000,36.17,-86.78,Hassan,TN,1500554983000,19416348
201703958,Greenbrier,,1458328267000,36.43,-86.8,Heather Bach,TN,1460417313000,19416348
198610007,Nashville,,1453739648000,36.17,-86.78,Heather O'Riley,TN,1453739648000,19416348
61461832,Nashville,,1462486401000,36.17,-86.78,Helen McLean,TN,1462486401000,19416348
231189362,Nashville,,1499307896000,36.06,-86.96,Henry Mahasi,TN,1499348269000,19416348
199001185,Nashville,,1454357645000,36.17,-86.78,Hillary Breitenstein ,TN,1454357645000,19416348
205274144,Nashville,Nashville,1463419846000,36.06,-86.96,Houston Hickey,TN,1498136500000,19416348
5985520,Nashville,,1454015182000,36.16,-86.79,Hugh,TN,1508004870000,19416348
233080915,Franklin,,1501619833000,35.93,-86.81,Jake Richards,TN,1501619833000,19416348
231316095,Murfreesboro,,1499463819000,35.82,-86.45,James Duncan,TN,1499463819000,19416348
25719992,Murfreesboro,,1454294272000,35.87,-86.34,James R. Wirshing,TN,1502879173000,19416348
142336972,Nashville,,1485930090000,36.17,-86.78,Jamie Parker,TN,1496342370000,19416348
130952122,Nashville,,1485943232000,36.16,-86.79,Jamie Winn Harris,TN,1500468039000,19416348
24641662,Nashville,,1465596792000,36.06,-86.96,Jan Volk,TN,1471480992000,19416348
215263730,Nashville,,1476934989000,36.17,-86.78,Jane Pierce,TN,1476934989000,19416348
7296520,Nashville,Nashville,1483726005000,36.06,-86.96,janeen,TN,1488428481000,19416348
223477548,Nashville,,1489121342000,36.06,-86.96,"Janet ""Coco"" Montgomery",TN,1497742741000,19416348
119562002,Franklin,,1500501996000,35.92,-86.89,Janie levin,TN,1500661590000,19416348
214709916,Nashville,,1476134893000,36.21,-86.72,Javier Greene,TN,1476316862000,19416348
217750876,Franklin,,1480954580000,35.92,-86.89,Jeb Bell,TN,1480954580000,19416348
23379931,Nashville,,1484798910000,36.13,-86.8,Jeff Haupt,TN,1506702260000,19416348
210057201,Nashville,,1469887845000,36.08,-86.72,Jeffrey Bryan,TN,1469887845000,19416348
210307472,Rockvale,,1470225108000,35.76,-86.55,Jeffrey Dillard,TN,1470225108000,19416348
190317525,Nashville,,1453829359000,36.15,-86.86,Jen Barone,TN,1478116381000,19416348
237104741,Nashville,,1506025403000,36.08,-86.72,Jenni Hargrove,TN,1506025403000,19416348
226509004,Nashville,,1493314359000,36.06,-86.96,Jenni Hargrove,TN,1493314359000,19416348
200369160,Nashville,,1456348287000,36.11,-86.86,Jennifer Price,TN,1456348287000,19416348
223394348,Murfreesboro,,1489003295000,35.87,-86.44,Jeremy Adams,TN,1489003295000,19416348
200794129,Nashville,,1456955245000,36.06,-86.96,Jeremy Isaac,TN,1459354018000,19416348
38690452,Nashville,Cypress,1454263402000,36.11,-86.8,Jessica,TN,1487252080000,19416348
184029284,Brentwood,,1484359597000,36.0,-86.79,Jessica McRoy O'Brien,TN,1490726134000,19416348
221960678,Nashville,,1487689579000,36.17,-86.78,Jill Kennedy,TN,1495076070000,19416348
223496927,Nashville,,1489155369000,36.06,-86.96,Jill Roberts-Davis,TN,1489155369000,19416348
7446578,Nashville,Nashville,1508292330000,36.11,-86.86,John,TN,1508292330000,19416348
49293072,Nashville,Brentwood TN,1465265830000,36.09,-86.82,John Griffin,TN,1500348992000,19416348
200987264,Fairview,,1457239047000,35.97,-87.13,John L White,TN,1457239047000,19416348
196861168,Nashville,,1453924586000,36.16,-86.79,John Lafferty,TN,1495079918000,19416348
125145522,Nashville,Nashville,1483491932000,36.06,-86.96,John MaGuirk,TN,1502895360000,19416348
101697662,Nashville,Franklin,1498612338000,36.15,-86.79,Jonathan Davis,TN,1498612338000,19416348
225830646,Nashville,,1492426126000,36.16,-86.72,Jordan Freer,TN,1493749955000,19416348
9090284,Nashville,Red Bluff,1466867882000,36.22,-86.77,Joseph Graves,TN,1508165407000,19416348
189718080,Murfreesboro,,1455639294000,35.78,-86.33,Joseph Kathmann,TN,1456771650000,19416348
134837882,Nashville,,1461131719000,36.17,-86.72,Julie McIntyre,TN,1507163584000,19416348
200612671,Murfreesboro,,1486379369000,35.82,-86.45,Junie George,TN,1486379369000,19416348
199435049,Nashville,,1459832349000,36.06,-86.96,Justin Gilliam,TN,1459832349000,19416348
223389856,Murfreesboro,,1488997858000,35.87,-86.44,Kaitlyn Mobley,TN,1488997858000,19416348
11596419,Franklin,"Louisville, KY",1455029119000,35.92,-86.89,Karen Delk,TN,1480346670000,19416348
219085305,Nashville,,1483374227000,36.17,-86.78,Karina On Demand,TN,1488748212000,19416348
231623537,Franklin,,1499817992000,35.92,-86.89,Katerina Harrington,TN,1499817992000,19416348
131392622,Nashville,,1471970243000,36.18,-86.81,Katherine,TN,1471970243000,19416348
1720391,Nashville,Nashville,1454015182000,36.17,-86.78,Kathryn,TN,1504305119000,19416348
237701801,Nashville,,1506695023000,36.06,-86.96,Katie ,TN,1506695023000,19416348
34689372,Nashville,,1504791816000,36.16,-86.79,Katie Rushton,TN,1505915257000,19416348
14247202,Nashville,"Great Falls, MT",1461811249000,36.09,-86.82,Katy,TN,1508366144000,19416348
56997982,Nashville,"Springfield, IL",1483566791000,36.08,-86.72,Keegan Singh,TN,1483566791000,19416348
206909475,Nashville,,1465657853000,36.15,-86.86,Keith Corliss,TN,1465657853000,19416348
197616731,Brentwood,,1455318454000,36.0,-86.79,Keith Smith,TN,1457449569000,19416348
201257487,Nashville,,1457633446000,36.06,-86.96,Kelly Burns,TN,1459279593000,19416348
83272622,Nashville,,1453516300000,36.06,-86.96,Kelly Kormos,TN,1500985884000,19416348
200625715,Nashville,,1457184809000,36.17,-86.78,Kevin,TN,1457184809000,19416348
199911173,Nashville,Ashland City,1485789435000,36.09,-86.82,Kevin Davenport,TN,1485789435000,19416348
13293891,Salt Lake City,,1457021253000,40.77,-111.84,Kim,UT,1458148176000,19416348
49816142,Nashville,,1478167560000,36.13,-86.8,Kim Higdon,TN,1495051041000,19416348
3016909,Nashville,Nashville,1478193595000,36.15,-86.86,Kim L.,TN,1480368958000,19416348
185302342,Hendersonville,,1461966942000,36.32,-86.61,Kim Musgrove,TN,1472671441000,19416348
199210862,Nashville,,1454690552000,36.06,-86.96,Kim Parker,TN,1507926839000,19416348
18171511,Franklin,,1485946357000,35.99,-86.9,Kimberly Feld Kaplan,TN,1501665038000,19416348
222612144,Nashville,,1488747788000,36.17,-86.78,Kimberly Maiers,TN,1507181495000,19416348
8667049,Nashville,Nashville,1456883686000,36.06,-86.96,Kristi G,TN,1490152249000,19416348
11601672,Spring Hill,"Spring Hill, TN",1488443185000,35.76,-86.88,Kristy,TN,1494038302000,19416348
204921928,Fort Campbell,,1462936962000,36.65,-87.46,Kumare Hamed,KY,1462936962000,19416348
120187692,Nashville,Nashville,1489001689000,36.11,-86.86,Laura Gimpelson,TN,1491017423000,19416348
212981554,Nashville,,1488318112000,36.17,-86.78,Laura Larson,TN,1488318112000,19416348
139967112,Nashville,,1467903922000,36.17,-86.78,Laura T,TN,1476469790000,19416348
212934412,Nashville,,1479217108000,36.17,-86.78,Lauren ,TN,1479217108000,19416348
202383180,Nashville,,1460080310000,36.11,-86.86,Lauren Kiproff,TN,1470417612000,19416348
198610644,Nashville,,1453744016000,36.17,-86.78,Lauri Gregoire,TN,1453924255000,19416348
210349975,Nashville,,1470280345000,36.17,-86.78,Laurie Lee Sisk,TN,1470280345000,19416348
198683835,Nashville,,1453860299000,36.06,-86.96,Laurie Oakes,TN,1453860299000,19416348
198017878,Brentwood,,1453834748000,36.0,-86.79,Lewis Dunn,TN,1459271078000,19416348
198014322,Nashville,,1453933353000,36.09,-86.82,Linda Bogach,TN,1498576471000,19416348
203227379,Nashville,Nashville,1460484281000,36.06,-86.96,Lisa Jennings,TN,1478481544000,19416348
210619142,Nashville,,1485798609000,36.17,-86.78,Lloyd McDonald,TN,1485806092000,19416348
223015434,Nashville,,1488470189000,36.16,-86.79,Lori Barratt,TN,1495582754000,19416348
199846451,Nashville,,1455637506000,36.06,-86.96,Lori Donaldson Knerr,TN,1493850062000,19416348
187700521,Nashville,,1486494060000,36.08,-86.72,Lu Xiong,TN,1486494060000,19416348
208279999,Vanleer,,1467546411000,36.22,-87.46,Mack Munro,TN,1467678820000,19416348
223379179,Nashville,,1488984650000,36.06,-86.96,Madelyn Gregath,TN,1508728719000,19416348
184285705,Seattle,,1490567483000,47.61,-122.34,Maggie,WA,1491859181000,19416348
193367888,Nashville,,1458580481000,36.16,-86.79,Maggie Ashworth,TN,1458580481000,19416348
197641121,Nashville,,1453940156000,36.15,-86.86,Marge Janiak,TN,1484562109000,19416348
232653214,Nashville,Nashville,1501332531000,36.17,-86.78,Margie Sweeney,TN,1501459495000,19416348
130371442,Nashville,,1453871871000,36.18,-86.81,Maria Brannon,TN,1453932726000,19416348
192925601,Nashville,,1493743773000,36.09,-86.93,Mariah M.,TN,1493783077000,19416348
198639587,Nashville,,1453786076000,36.17,-86.78,Marie D.,TN,1471770495000,19416348
74872702,Nashville,,1453831366000,36.06,-86.96,mark,TN,1477606091000,19416348
207606292,Nashville,,1466609376000,36.17,-86.78,Marla Daye Vinsant,TN,1469805624000,19416348
230738598,Nashville,,1501876450000,36.17,-86.78,Marshall M Munoz,TN,1502081290000,19416348
186222730,Nashville,,1457620255000,36.06,-86.96,Martha Lupai,TN,1472515175000,19416348
14155370,Nashville,Nashville,1488400637000,36.11,-86.86,Martine Sanders,TN,1492531814000,19416348
238859932,Clarksville,,1507977042000,36.53,-87.35,Masalu Jacob,TN,1507977042000,19416348
188530638,Nashville,,1453863260000,36.17,-86.78,Matt Brown,TN,1501731458000,19416348
215291693,Nashville,Nashville ,1476987132000,36.06,-86.96,Matt Gale,TN,1496237676000,19416348
188968060,Nashville,Nashville TN,1489072400000,36.06,-86.96,Matthew Loftus,TN,1489667653000,19416348
188658942,Nashville,Little Rock,1454018726000,36.06,-86.96,Melissa,TN,1454084930000,19416348
90418072,Dallas,,1460432492000,32.93,-96.82,Menashe Lapin,TX,1483481784000,19416348
217762423,Nashville,,1480969982000,36.16,-86.79,Michael Umenta,TN,1480969982000,19416348
152506842,Nashville,,1508358553000,36.17,-86.78,Michele Stans,TN,1508358553000,19416348
209029398,Nashville,,1468526482000,36.16,-86.79,Michelle Olson,TN,1468526482000,19416348
188397685,Nashville,,1460475327000,36.17,-86.78,Mike Glenn,TN,1460999088000,19416348
201387186,Nashville,,1457819892000,36.06,-86.96,Misti Goff,TN,1457819892000,19416348
208551828,Waynesville,,1467905527000,35.5,-83.0,Mona Sherak- Binda,NC,1475588846000,19416348
162147582,Nashville,,1492438776000,36.06,-86.96,Monica,TN,1498413041000,19416348
228261135,Nashville,,1499804860000,36.09,-86.82,Monica Beere,TN,1500063151000,19416348
199903439,Nashville,,1455714678000,36.06,-86.96,musicitygal,TN,1471495811000,19416348
237750744,Nashville,,1507099817000,36.17,-86.78,Nadja Dowell,TN,1507345553000,19416348
212383183,Nashville,Nashville,1487194164000,36.06,-86.96,Nancy C.,TN,1487743913000,19416348
8369051,Nashville,Nashville,1483481173000,36.06,-86.96,Nanette Peraino,TN,1484920927000,19416348
4389320,Nashville,Charlotte,1484270919000,36.17,-86.78,Nat,TN,1484270919000,19416348
185333784,Nashville,"Rector, AR",1453861184000,36.17,-86.78,Nathan stallcup,TN,1459442823000,19416348
234168251,Franklin,,1502888732000,35.93,-86.81,Olivia Oetjens,TN,1502888732000,19416348
198604494,Nashville,,1453731002000,36.15,-86.86,Pamela Crouch Walden,TN,1459441685000,19416348
198725221,Nashville,,1453926765000,36.06,-86.96,Pamela Hughes,TN,1453926765000,19416348
85195372,Nashville,,1493553352000,36.16,-86.79,Paul ,TN,1499553322000,19416348
213690484,Nashville,,1474840336000,36.16,-86.79,Paula,TN,1475597386000,19416348
199004255,Mount Juliet,,1455198862000,36.22,-86.52,Pete Mills,TN,1455297188000,19416348
53121132,Nashville,"Knights Landing, CA",1453920278000,36.17,-86.78,Peter Leiser,TN,1453920278000,19416348
237185045,Nashville,,1506116888000,36.06,-86.96,Phillip Kirk,TN,1506116888000,19416348
217829442,Nashville,,1483117882000,36.09,-86.82,Phillip Turner,TN,1487358301000,19416348
222185553,Nashville,,1492475338000,36.06,-86.96,Phillip Turner,TN,1506013510000,19416348
236930399,Nashville,,1505836489000,36.06,-86.96,Rabin Nimmo,TN,1505836489000,19416348
214435980,Nashville,,1475722078000,36.17,-86.78,Rabo Garba,TN,1475722078000,19416348
187620191,Vancouver,Ladner,1460603450000,49.28,-123.04,Raj Opal,BC,1482600800000,19416348
198767454,Nashville,,1454015182000,36.17,-86.78,Regina Fernandez,TN,1507205113000,19416348
221161925,Clarksville,,1485961073000,36.56,-87.41,Renee Palicia,TN,1485961073000,19416348
152960022,Brentwood,,1456955585000,36.0,-86.79,Rich,TN,1508099338000,19416348
6229160,Nashville,Nashville,1458146604000,36.09,-86.82,Riley Knight,TN,1479167830000,19416348
198610142,Nashville,,1453739770000,36.06,-86.96,Riz Riz,TN,1459970418000,19416348
153009482,Nashville,,1453907678000,36.16,-86.79,Robert Allensworth,TN,1495454162000,19416348
207599308,Nashville,,1466602448000,36.17,-86.78,Robyn Bigelow,TN,1466702879000,19416348
9105503,Kingston Springs,,1470011073000,36.09,-87.12,Roddyf,TN,1502721752000,19416348
138673662,Madison,,1470606841000,36.26,-86.71,sabrina,TN,1470606841000,19416348
34139052,Franklin,,1455033645000,35.93,-86.81,Sally Slayden-Berry,TN,1455033645000,19416348
232058086,Nashville,"Chicago, IL",1500346151000,36.06,-86.96,Sam Szabo,TN,1500521340000,19416348
199547576,Nashville,,1455211748000,36.17,-86.72,Sandy Brothers,TN,1456444607000,19416348
222466775,Nashville,,1504712585000,36.17,-86.78,Sara Hutchison,TN,1506017955000,19416348
9915676,Nashville,Nashville,1456806913000,36.06,-86.96,Sarah Castellon,TN,1457112654000,19416348
44374922,Salt Lake City,,1504709903000,40.7,-111.86,Sarah Payne,UT,1504709903000,19416348
223422355,Nashville,,1489040936000,36.11,-86.86,Sarah Robinson,TN,1489627940000,19416348
198665726,Nashville,,1456872932000,36.15,-86.86,Savannah Jewell Jones,TN,1459276678000,19416348
199213612,Nashville,,1454696514000,36.06,-86.96,sawyerdsmom,TN,1454696514000,19416348
12176751,Nashville,,1495824722000,36.17,-86.78,Scott Fernandez,TN,1501257228000,19416348
188011010,Nashville,,1492480831000,36.06,-86.96,Scott Jones,TN,1505945611000,19416348
8539046,Nashville,,1488919801000,36.13,-86.8,Shalini,TN,1492648024000,19416348
11778333,Hendersonville,Los Angeles,1496927530000,36.32,-86.61,Shanna,TN,1496927530000,19416348
10884374,Nashville,,1453829190000,36.16,-86.79,Sharon ,TN,1503329161000,19416348
19658701,Nashville,Minnesota,1478473347000,36.06,-86.96,Shatona Groves,TN,1508326006000,19416348
210184157,Nashville,,1470058238000,36.06,-86.96,Sheila A Martin-Wade,TN,1472403213000,19416348
160414092,Nashville,,1453988719000,36.17,-86.78,Shelley Haynes Heile,TN,1457987569000,19416348
187474670,Nashville,,1458356470000,36.21,-86.72,Shunda,TN,1462861094000,19416348
236868023,Nashville,,1505775713000,36.06,-86.96,Silvia Marcela Téllez,TN,1505775713000,19416348
225932176,Nashville,,1492550429000,36.06,-86.96,Stacey Garrett Koju,TN,1494882883000,19416348
199231699,Franklin,,1454721608000,35.99,-86.9,Steph,TN,1460750227000,19416348
209940338,Nashville,,1469721476000,36.06,-86.96,Stephane Carpenter,TN,1471978742000,19416348
198721771,Nashville,,1453922098000,36.06,-86.96,Stephanie Knight,TN,1458175860000,19416348
186660109,Brentwood,,1453908653000,36.0,-86.79,Steve Blume,TN,1507162232000,19416348
67930102,Nashville,,1453837575000,36.06,-86.96,Sue Ogg,TN,1487028456000,19416348
235876373,Nashville,,1504787208000,36.06,-86.96,Susan Randall,TN,1506790970000,19416348
155813632,Nashville,,1493777605000,36.06,-86.96,Susan Southerland Fouche,TN,1494881888000,19416348
211926506,Nashville,,1472517341000,36.17,-86.72,Sushant,TN,1472517341000,19416348
224761699,Nashville,,1490905568000,36.06,-86.96,Suzie Hamilton-Roberts,TN,1502922986000,19416348
53452882,Nashville,,1453843321000,36.08,-86.72,Tammy LaPoint-O'Brien,TN,1463571791000,19416348
215491339,Nashville,,1477285468000,36.17,-86.78,Tammy Winston,TN,1489459454000,19416348
213768028,Oak Grove,,1474935816000,36.68,-87.45,Tarshena Rodriguez,KY,1474935816000,19416348
189921731,Nashville,,1454177752000,36.15,-86.86,Taylor Wesley,TN,1454712059000,19416348
227806705,Franklin,,1495071023000,35.99,-86.9,Theodore Brittan,TN,1495071023000,19416348
9470306,Nashville,,1488772484000,36.11,-86.86,Tim Cummings,TN,1504742225000,19416348
57398582,Franklin,,1489723422000,35.92,-86.89,Tom,TN,1502315915000,19416348
170853742,Nashville,,1454462897000,36.17,-86.72,Tonya Jackson,TN,1456446606000,19416348
129590192,Smyrna,,1463442043000,35.97,-86.51,Torria Prince,TN,1463442043000,19416348
225209150,Nashville,,1491551162000,36.17,-86.78,Tosh Mccoy,TN,1491985849000,19416348
184332334,Nashville,,1492624118000,36.17,-86.78,Tremaine James,TN,1492624118000,19416348
230572932,Antioch,,1500651990000,36.04,-86.64,Trent McPhearson,TN,1501711362000,19416348
184552625,Nashville,,1453730443000,36.06,-86.96,Trina,TN,1460379856000,19416348
36167202,Nashville,Nashville,1500655008000,36.06,-86.96,Ty Hamilton,TN,1500655008000,19416348
205779550,Nashville,,1478188913000,36.17,-86.78,Tyler Hinkson,TN,1480522240000,19416348
235884686,Nashville,,1504795020000,36.06,-86.96,Veronica Perry,TN,1507220162000,19416348
198733304,Nashville,,1485930734000,36.08,-86.72,Vicki W,TN,1501598404000,19416348
150144022,Nashville,,1503446877000,36.09,-86.82,Victoria McClaran,TN,1503446877000,19416348
13810373,Nashville,,1486584491000,36.16,-86.79,Vincent Giannattasio,TN,1486584491000,19416348
198997128,Nashville,,1470328362000,36.17,-86.78,Virginia Ricketts,TN,1472816559000,19416348
78946752,Nashville,,1454352713000,36.06,-86.96,Virginia Ricketts    Salon Ajavi,TN,1508194254000,19416348
198496093,Nashville,,1458776592000,36.17,-86.78,Wayne Kelley,TN,1477841778000,19416348
64772492,Fairview,"Ft. Lauderdale, FL",1463365813000,35.97,-87.13,Wendy,TN,1507732524000,19416348
208551719,Nashville,,1467904449000,36.17,-86.78,Wendy Spira,TN,1475593197000,19416348
233064607,Nashville,,1501602172000,36.06,-86.96,Wenonah,TN,1502857201000,19416348
206748135,Nashville,,1476730991000,36.17,-86.78,Whit Joseph,TN,1491484819000,19416348
99621502,Lebanon,"Houston, TX",1461640902000,36.21,-86.31,Wil,TN,1461818900000,19416348
200736499,Nashville,,1456869439000,36.17,-86.78,william Wilson,TN,1456869439000,19416348
198744539,Nashville,,1453954081000,36.06,-86.96,Windy Jones,TN,1453954081000,19416348
229702960,Nashville,,1497458992000,36.18,-86.74,Yevette Smith-Hill,TN,1497458992000,19416348
93478092,Nashville,Nashville,1455902943000,36.13,-86.8,Zach Blume,TN,1455902943000,19416348
152819372,Nashville,,1456251347000,36.17,-86.78,Zoe,TN,1461762957000,19416348
38477222,Nashville,,1453918156000,36.17,-86.78,Zuzana Neamtu,TN,1453991873000,19416348
