id,city,hometown,joined,lat,lon,name,state,visited,group_id
205030771,Gallatin,,1463094498000,36.39,-86.45,A-Ray,TN,1463094498000,19680612
223343566,Antioch,Nashville,1488929353000,36.04,-86.64,Aaron Banks,TN,1488929353000,19680612
138261612,Nashville,,1474244751000,36.17,-86.78,Abdiel Santiago,TN,1474244751000,19680612
206140074,Nashville,,1464624714000,36.16,-86.79,Adam Ikner,TN,1464624714000,19680612
238204023,Nashville,,1507245458000,36.06,-86.96,Adam Strifler,TN,1507245458000,19680612
204173902,Nashville,,1473700578000,36.08,-86.72,Afton Crumitie,TN,1473700578000,19680612
206617724,Nashville,,1465265605000,36.13,-86.8,Ainsley Messina,TN,1465265605000,19680612
208144494,Nashville,,1467346931000,36.17,-86.78,Alejandra Shah,TN,1467346931000,19680612
227526210,Nashville,,1499692495000,36.09,-86.82,Alex Rizzutto,TN,1500218194000,19680612
211286424,Spring Hill,,1471631108000,35.76,-86.88,Alix ,TN,1471631108000,19680612
212568688,Nashville,,1473886158000,36.17,-86.78,Allie Burnett,TN,1473886158000,19680612
213437717,Nashville,,1474504762000,36.07,-86.73,Allyson,TN,1474504762000,19680612
42628092,Nashville,naples,1460492799000,36.17,-86.78,Alyse Flick,TN,1460492799000,19680612
211507203,Nashville,,1471938208000,36.17,-86.78,Amber Baker,TN,1471938208000,19680612
237666212,Nashville,,1506648435000,36.06,-86.96,Amber Brantley,TN,1506648435000,19680612
212874528,Fort Campbell,,1473902077000,36.65,-87.46,Amber M. Trendowicz,KY,1473902077000,19680612
203577212,Nashville,,1460990910000,36.17,-86.78,Amy,TN,1475867169000,19680612
207721781,Clarksville,,1466775368000,36.56,-87.41,Amy Crowe,TN,1466775368000,19680612
9825050,Nashville,,1461271483000,36.16,-86.79,Amy Hu,TN,1461271483000,19680612
209214717,Clarksville,,1468775976000,36.56,-87.41,Ana Carver,TN,1468775976000,19680612
207729386,Tullahoma,,1480190938000,35.37,-86.21,Andrew Milam,TN,1480190938000,19680612
210017294,Nashville,,1469827581000,36.08,-86.72,Andrew Tkaczyk,TN,1469827581000,19680612
201286804,Clarksville,,1457671412000,36.56,-87.41,Androus Hall,TN,1457671412000,19680612
213634263,Nashville,,1475973125000,36.08,-86.72,Angela Garcia,TN,1481320425000,19680612
230543579,Nashville,,1498587945000,36.08,-86.72,Angela Grimes,TN,1498587945000,19680612
214325046,Nashville,,1490904211000,36.18,-86.81,Angela Loomis,TN,1490904211000,19680612
211335825,Nashville,,1476766658000,36.13,-86.8,Angela Shi,TN,1483930116000,19680612
199499388,Mount Juliet,,1457847515000,36.22,-86.52,Angie Groves Rowe,TN,1460134877000,19680612
189926569,Hermitage,Nashville TN ,1457728018000,36.19,-86.6,Anita Walls,TN,1483771989000,19680612
99924752,Nashville,,1483961711000,36.17,-86.78,Ann Caudill,TN,1483961711000,19680612
208453489,Nashville,,1467770452000,36.17,-86.78,April Meador,TN,1467770452000,19680612
217429206,Lebanon,,1480395267000,36.21,-86.31,Aprilia Hestya Alam,TN,1480395267000,19680612
211277827,Nashville,,1481473076000,36.17,-86.78,Arun Khatri,TN,1508606357000,19680612
205361764,Madison,,1463527163000,36.26,-86.71,Ashleigh,TN,1463527163000,19680612
214804758,Portland,,1476281568000,36.57,-86.49,Ashley Lund,TN,1476281568000,19680612
201972592,Nashville,,1458654781000,36.08,-86.72,Ayana Adams,TN,1459553905000,19680612
209251847,Nashville,,1468824714000,36.06,-86.96,Aziz Nooh,TN,1483917827000,19680612
205411733,Hendersonville,,1463617722000,36.32,-86.61,Barbara,TN,1463617722000,19680612
205744179,Franklin,,1464051289000,35.92,-86.89,Becca,TN,1464051289000,19680612
214543029,Dickson,,1475880605000,36.08,-87.43,Becca Marie,TN,1475880605000,19680612
211723729,El Cerrito,,1472239832000,37.92,-122.3,Bella Lowery,CA,1472239832000,19680612
12610214,Nashville,,1457722857000,36.06,-86.96,beth,TN,1457722857000,19680612
13777225,Hermitage,,1457910070000,36.19,-86.6,Bethany Kent,TN,1457910070000,19680612
206861874,Murfreesboro,,1465587434000,35.87,-86.44,Beverly Boyd,TN,1465587434000,19680612
237553990,Nashville,,1506529140000,36.17,-86.78,Bianca Grant,TN,1506529140000,19680612
222092186,Nashville,,1487178191000,36.07,-86.78,Bill Smith,TN,1487178191000,19680612
208454128,Nashville,,1467770068000,36.08,-86.72,Blake Salmons,TN,1467770068000,19680612
182520013,Lebanon,"Tlapa, MX",1465402199000,36.21,-86.31,Blanca Barrera,TN,1489355887000,19680612
226836672,Gallatin,,1493763170000,36.39,-86.45,Bobby,TN,1493763170000,19680612
202820949,Nashville,,1459906207000,36.17,-86.78,Brandian Prime,TN,1459906207000,19680612
234459307,Nashville,,1503205463000,36.1,-86.66,Brandon Hurst,TN,1503205463000,19680612
238830329,Nashville,,1507937356000,36.08,-86.72,Brandon Pylant,TN,1507937356000,19680612
214554892,Reynoldsburg,,1502094486000,39.96,-82.78,Brennan Wills,OH,1502094486000,19680612
212990008,Nashville,,1473977866000,36.08,-86.72,Brett Hudson,TN,1473977866000,19680612
204430016,Madison,,1462233441000,36.26,-86.71,Brian,TN,1489370805000,19680612
230220310,Nashville,,1498106893000,36.08,-86.72,Britt Todd,TN,1501151037000,19680612
201478494,Nashville,,1457942463000,36.16,-86.79,Brittney Johns,TN,1457942463000,19680612
207559236,Nashville,,1484155781000,36.18,-86.74,Brittney Wilcox,TN,1484155781000,19680612
129122472,Antioch,,1484147323000,36.17,-86.88,Bryan Overbey,TN,1484696153000,19680612
135964952,Nashville,,1494994311000,36.11,-86.82,Brynn,TN,1494994311000,19680612
227143825,Nashville,,1494188720000,36.17,-86.78,Caitlin,TN,1501121281000,19680612
213137897,Hendersonville,,1495325351000,36.32,-86.61,Cale Freeman,TN,1495325351000,19680612
203599109,White House,,1461019856000,36.48,-86.69,Cameron Peters,TN,1461019856000,19680612
212537923,Nashville,,1473351038000,36.21,-86.69,Carissa,TN,1473351038000,19680612
203201181,Hermitage,,1460447424000,36.19,-86.6,Carlton Jenkins,TN,1460447424000,19680612
214888981,Franklin,,1476396012000,35.99,-86.9,Caroline Short,TN,1477672402000,19680612
5914717,Franklin,San Jose,1479821958000,35.92,-86.89,Carolyn,TN,1501155502000,19680612
212769389,Murfreesboro,,1473652378000,35.82,-86.45,Carrie Lykins,TN,1473652378000,19680612
208624858,Nashville,,1471288059000,36.17,-86.78,Cathy,TN,1471972141000,19680612
198105085,Nashville,,1464012091000,36.08,-86.72,Celtson Toote,TN,1465308822000,19680612
2901938,Antioch,,1457722679000,36.04,-86.64,Charlie Rose,TN,1458001610000,19680612
208622202,Nashville,,1468000992000,36.15,-86.86,Chenille Bonin,TN,1468000992000,19680612
11232462,Nashville,"Russell, KY",1457757231000,36.08,-86.72,Cherie,TN,1457757231000,19680612
221125818,Murfreesboro,,1485909446000,35.78,-86.33,Cheryl Smith,TN,1485909446000,19680612
223906227,Nashville,,1489717291000,36.18,-86.74,Chris Hardy,TN,1489717291000,19680612
7718909,Antioch,"Vernon, NY",1471361155000,36.17,-86.88,Chris Polson,TN,1471361155000,19680612
226260361,Nashville,,1492992232000,36.16,-86.66,Chris Romero,TN,1493686793000,19680612
219250310,Nashville,,1495355256000,36.08,-86.72,Christian Spear,TN,1495355256000,19680612
211130804,Dickson,,1471402314000,36.08,-87.43,christie phillips,TN,1471402314000,19680612
229515491,Tullahoma,,1497230931000,35.37,-86.21,Christina Bartelt,TN,1497230931000,19680612
225019561,Spring Hill,,1491274160000,35.76,-86.88,Christopher Walker,TN,1491274160000,19680612
42954682,Nashville,,1457791604000,36.17,-86.78,Christy Hunt,TN,1470653098000,19680612
234739848,Nashville,,1503520843000,36.06,-86.96,Christy Welch,TN,1503520843000,19680612
227157943,Nashville,,1494207073000,36.17,-86.78,Chuck Henry,TN,1494207073000,19680612
226789173,Nashville,,1493697551000,36.17,-86.78,Cindy Boyd,TN,1493697551000,19680612
201992373,Nashville,,1458677280000,36.18,-86.74,Cindy Pageler,TN,1458677280000,19680612
197974986,Smyrna,,1480313643000,35.97,-86.51,Clara Torrealba,TN,1481437905000,19680612
210628882,Nashville,,1470684173000,36.07,-86.78,Clay Curtis,TN,1470684173000,19680612
236854156,Murfreesboro,,1508006159000,35.82,-86.45,Clayton Breen,TN,1508006159000,19680612
224461910,Nashville,,1490493795000,36.18,-86.81,Colleen Daw,TN,1490493795000,19680612
206457912,Nashville,,1465059337000,36.08,-86.72,Collin Honeycutt,TN,1465059337000,19680612
215083227,Nashville,,1476680679000,36.06,-86.96,Collins ,TN,1476680679000,19680612
116014512,Hendersonville,,1460683634000,36.32,-86.61,Connie Sperko,TN,1477336845000,19680612
198403977,Nashville,,1479867851000,36.17,-86.78,Corey White,TN,1479867851000,19680612
23170211,Nashville,Nashville,1459060946000,36.11,-86.86,Cory B. Clay,TN,1459060946000,19680612
204439144,Murfreesboro,,1462240396000,35.82,-86.45,Crystal Molina,TN,1481306616000,19680612
207052131,Franklin,,1465848257000,35.92,-86.89,CS0803,TN,1465848257000,19680612
217994976,Nashville,,1489626801000,36.17,-86.78,CT Davidson,TN,1489626801000,19680612
214605910,Nashville,,1475977599000,36.14,-86.74,Curtis Mosher ,TN,1475977599000,19680612
227022356,Nashville,,1494014805000,36.18,-86.74,Damon Williams,TN,1496268069000,19680612
36384622,Clarksville,,1458456441000,36.53,-87.35,Daniel Cortez,TN,1458456441000,19680612
187271983,Franklin,"Franklin, TN",1457743107000,35.99,-86.9,Daniel Payne,TN,1460323518000,19680612
226890077,Nashville,,1493835923000,36.17,-86.78,Dashawn Davis,TN,1493835923000,19680612
205103309,Nashville,,1463192271000,36.17,-86.78,David,TN,1475293537000,19680612
230760188,Nashville,,1498775426000,36.21,-86.72,David Netherly,TN,1498775426000,19680612
216092618,Murfreesboro,,1480121166000,35.85,-86.36,David Palomeque,TN,1480121166000,19680612
208833953,Nashville,,1505341469000,36.17,-86.78,Deanna Allman,TN,1505341469000,19680612
188701267,Franklin,,1457910426000,35.93,-86.81,Debbie Daniels,TN,1500912148000,19680612
217710173,Nashville,,1480883905000,36.17,-86.78,Deckard Elder,TN,1480883905000,19680612
11049744,Dupont,,1485394503000,47.09,-122.64,Dee,WA,1485394503000,19680612
210198547,Murfreesboro,,1470075275000,35.78,-86.33,Delle N. Griffin,TN,1470685382000,19680612
206493473,Manchester,,1465103152000,35.47,-86.08,Denise,TN,1483780008000,19680612
222625364,Nashville,,1487908970000,36.06,-86.96,Derbin Baldi,TN,1494672578000,19680612
64445472,Nashville,,1476378512000,36.11,-86.78,Dessica,TN,1476378512000,19680612
201684605,Franklin,,1458233192000,35.93,-86.81,Devona Matthews,TN,1461149940000,19680612
45298022,Murfreesboro,,1463953726000,35.87,-86.44,Diane G.,TN,1463953726000,19680612
222736534,Nashville,,1488071202000,36.07,-86.73,Dillon Morris,TN,1488306926000,19680612
195301990,Nashville,,1460750811000,36.17,-86.78,DJ Big K,TN,1501109343000,19680612
226433416,Nolensville,,1493214921000,35.94,-86.67,Dj Jensen,TN,1493214921000,19680612
212191797,Hendersonville,,1472886057000,36.32,-86.61,Dominic Camany,TN,1472886057000,19680612
6134511,Nashville,Austin,1458883451000,36.1,-86.66,Dominique,TN,1466217552000,19680612
222981893,Goodlettsville,,1490630325000,36.32,-86.72,Dominique SALANDRE,TN,1492296261000,19680612
212294808,Murfreesboro,,1473025592000,35.87,-86.44,Don Sledge,TN,1473025592000,19680612
203281152,Franklin,,1460562311000,35.93,-86.81,Donna S.,TN,1460562311000,19680612
12459962,Gallatin,"Bloomfield, IA",1493763815000,36.39,-86.45,Donnie,TN,1493763815000,19680612
216715772,Brentwood,,1479203605000,36.0,-86.79,Doug Blanchard,TN,1487047607000,19680612
218871003,Antioch,,1483061160000,36.04,-86.64,E'Xavier Barrios,TN,1483061160000,19680612
207475501,Nashville,,1466444206000,36.17,-86.78,elena ,TN,1466444206000,19680612
211835233,Nashville,,1472399455000,36.16,-86.79,Elizabeth Browne,TN,1472399455000,19680612
162559442,Nashville,,1481398604000,36.16,-86.78,Elizabeth Hope Bradley,TN,1484918265000,19680612
203574206,Nashville,Nashville,1462982726000,36.1,-86.66,Elizabeth Zoeller,TN,1462982726000,19680612
205603267,Pleasant View,,1463862659000,36.38,-87.04,Elizah Warren,TN,1463862659000,19680612
208269332,Nashville,,1467535270000,36.17,-86.78,Elvin,TN,1467535270000,19680612
59387862,Nashville,Nashville,1470656624000,36.17,-86.78,Emily,TN,1478729591000,19680612
220859635,Nashville,,1485576489000,36.06,-86.96,Emily White,TN,1485576489000,19680612
215057946,Nashville,,1476647589000,36.15,-86.86,emmanuel,TN,1476647589000,19680612
214973487,Nashville,,1476558632000,36.17,-86.78,Emmanuel Ogunkoya,TN,1476558632000,19680612
211777421,Nashville,,1472317605000,36.17,-86.72,Evan Ludin,TN,1475106403000,19680612
59187032,Brooklyn,Nashville,1479594245000,40.67,-73.99,F.A.,NY,1494887954000,19680612
223411633,Hendersonville,,1489024545000,36.3,-86.62,Gema Romero,TN,1489024545000,19680612
214243916,Nashville,,1475505092000,36.17,-86.78,Geoff Moseley,TN,1475505092000,19680612
223615271,Pegram,,1489326408000,36.12,-87.03,Ginger Ohlman,TN,1489326408000,19680612
196694851,Nashville,,1458305200000,36.17,-86.78,Grace,TN,1471993660000,19680612
10635706,Folsom,,1468391996000,38.68,-121.16,Greg Rankin,CA,1468391996000,19680612
106814302,Nashville,,1491492075000,36.17,-86.78,Guy,TN,1491492075000,19680612
184995132,Hermitage,,1467677650000,36.19,-86.6,Gwen Marie,TN,1467677650000,19680612
209105164,Nashville,,1477235024000,36.17,-86.78,Hampton,TN,1477235024000,19680612
204667463,Murfreesboro,,1462574465000,35.87,-86.44,Hannah Clevenger,TN,1462574465000,19680612
206230171,Franklin,,1464739207000,35.99,-86.9,Hayley,TN,1464739207000,19680612
211435150,Nashville,,1471840676000,36.09,-86.82,Hayley Clifford,TN,1471840676000,19680612
203452801,Antioch,"Clinton, MS",1460820495000,36.04,-86.64,Heather S,TN,1460820495000,19680612
227420324,Nashville,,1494562111000,36.09,-86.82,Hojin Jang,TN,1508214137000,19680612
198037972,Brentwood,,1457719351000,36.0,-86.79,Holly Morgan Calhoun,TN,1457726248000,19680612
235088735,Nashville,Y.S.,1503946906000,36.16,-86.78,hopesdreams,TN,1508440932000,19680612
213671587,Nashville,,1474821181000,36.17,-86.78,Houston,TN,1474821181000,19680612
234510088,Nashville,,1503263632000,36.06,-86.96,Isabella,TN,1503263632000,19680612
220887460,Franklin,,1485621266000,35.92,-86.89,J Brinker,TN,1485621266000,19680612
201890857,Nashville,,1458529588000,36.13,-86.8,Jack Simon,TN,1458529588000,19680612
218552197,Nashville,,1482431486000,36.17,-86.78,Jaehoon Kim,TN,1482446017000,19680612
206910892,Johnstown,,1465658721000,40.34,-104.96,Jake Tomlinson,CO,1465658721000,19680612
211182285,Clarksville,,1471474229000,36.56,-87.41,James,TN,1471474229000,19680612
216023098,Franklin,,1478110318000,35.92,-86.89,James Mitchell,TN,1479411595000,19680612
214954905,Nashville,,1476493568000,36.11,-86.86,James Rich,TN,1476493568000,19680612
206055085,Fort Campbell,,1494469850000,36.64,-87.38,Jane,KY,1498275012000,19680612
205622298,Nashville,,1463887599000,36.18,-86.74,Jane Santiago,TN,1463887599000,19680612
233855889,Ridgetop,,1502508748000,36.4,-86.77,Janet Brewster,TN,1502508748000,19680612
203256623,Antioch,,1460520499000,36.04,-86.64,Janetta Williams,TN,1460520499000,19680612
219318320,Dickson,,1483635037000,36.08,-87.43,Jarad Johnson,TN,1483640083000,19680612
9813044,Hendersonville,,1457830240000,36.32,-86.61,Jas Faulkner,TN,1475715132000,19680612
208700564,Nashville,,1468103450000,36.07,-86.73,Jasmine,TN,1468103450000,19680612
204544588,Smyrna,,1463088862000,35.97,-86.51,Jasmine M,TN,1467140236000,19680612
206340673,Murfreesboro,,1464896742000,35.87,-86.44,Jason R. Thompson,TN,1464896742000,19680612
183890081,Franklin,,1460770032000,35.93,-86.81,JC Morrissey,TN,1481245566000,19680612
204414102,Tampa,,1462207839000,27.99,-82.47,Jenn Macios,FL,1462207839000,19680612
217759088,Murfreesboro,,1480966441000,35.85,-86.36,Jenna Lucente,TN,1480966441000,19680612
208489590,Hendersonville,,1471655081000,36.32,-86.61,Jennifer,TN,1471655081000,19680612
208678123,Springfield,"San Angelo, TX",1468081612000,36.52,-86.87,Jennifer JT,TN,1468081612000,19680612
233752750,Nashville,,1502394561000,36.17,-86.78,Jenny Dyer Vinson,TN,1502394561000,19680612
191383775,Columbia,,1470844425000,35.61,-87.05,Jenny Kay,TN,1470844425000,19680612
229430692,Nashville,,1497129125000,36.07,-86.73,Jerami Matlock,TN,1501461407000,19680612
215906368,Old Hickory,,1477933262000,36.25,-86.63,Jeremy H,TN,1484077597000,19680612
213204090,Nashville,,1474219987000,36.18,-86.74,Jessi Rae Braswell,TN,1474219987000,19680612
206376091,Nashville,,1464946763000,36.17,-86.78,Jessica,TN,1464946763000,19680612
204123170,Franklin,,1461774075000,35.99,-86.9,Jessica,TN,1461774075000,19680612
189159974,Nashville,,1478151904000,36.06,-86.96,Jessica Joy,TN,1478151904000,19680612
208783674,Nashville,,1468208893000,36.17,-86.72,Jill,TN,1468208893000,19680612
223111665,Nashville,,1488596790000,36.08,-86.72,Jim Brown,TN,1488596790000,19680612
237413887,Franklin,,1506374956000,35.92,-86.89,JJ,TN,1506374956000,19680612
225132513,Clarksville,,1491433916000,36.53,-87.35,Jo Russell,TN,1491433916000,19680612
218054797,Nashville,,1481485551000,36.16,-86.79,Joann Young,TN,1481485551000,19680612
207387957,Saint Louis,,1475967430000,38.63,-90.19,Joanne Song,MO,1475967430000,19680612
225531247,Franklin,,1492052412000,35.92,-86.89,Jody Elston,TN,1492052412000,19680612
212732588,Antioch,,1484439044000,36.04,-86.64,Joe Fiumara,TN,1484439044000,19680612
190672293,Hendersonville,,1485100658000,36.32,-86.61,Joe Ren,TN,1485843676000,19680612
204771901,Murfreesboro,,1462733066000,35.82,-86.45,Joe Staatz,TN,1462733066000,19680612
209743821,Smyrna,,1469465092000,35.97,-86.51,Joey,TN,1469465092000,19680612
207751368,Murfreesboro,,1468467395000,35.78,-86.33,Johannis Dough,TN,1472441524000,19680612
68610562,Nashville,Nashville,1458012597000,36.08,-86.72,John,TN,1458012597000,19680612
208221003,Madison,,1467466539000,36.26,-86.71,John Grigg,TN,1467466539000,19680612
216569150,Nashville,,1479662479000,36.17,-86.78,John Guillaume,TN,1479662479000,19680612
184870684,Nashville,,1479845885000,36.16,-86.79,Jose Moreno,TN,1479845885000,19680612
195529583,Nashville,,1474217545000,36.17,-86.78,Joselyn,TN,1474217545000,19680612
210314876,Dickson,,1470235552000,36.08,-87.43,Josh,TN,1470239298000,19680612
209381189,Nashville,,1468982548000,36.17,-86.78,Josh Mac,TN,1468982548000,19680612
58860632,Fairview,,1488042208000,35.96,-87.12,Josh Marshall,TN,1488078031000,19680612
188647652,New York,,1496459380000,40.8,-73.97,Josh Tacca,NY,1496459380000,19680612
209930803,Nashville,,1469710187000,36.07,-86.73,Joshua,TN,1469710187000,19680612
238711343,Dickson,,1507800529000,36.08,-87.38,Joshua Doncouse,TN,1507800529000,19680612
237772183,Nashville,,1506780705000,36.08,-86.72,Joshua Dunham,TN,1507847345000,19680612
11849288,Nashville,,1457807747000,36.17,-86.72,Juanita,TN,1457807747000,19680612
201134776,Nashville,,1457455577000,36.06,-86.96,Jubilee Church,TN,1506437774000,19680612
201409431,Nashville,,1457849283000,36.17,-86.78,Julianne,TN,1457849283000,19680612
203313430,Brentwood,,1460601630000,36.0,-86.79,Julie,TN,1460601630000,19680612
197492262,Clarksville,,1479792895000,36.53,-87.35,Julie,TN,1479792895000,19680612
208064791,Nashville,,1467235925000,36.16,-86.79,Julie Sites,TN,1467235925000,19680612
225335017,Antioch,Antioch,1491740242000,36.04,-86.64,Just Askme,TN,1491740242000,19680612
28803812,Nashville,,1457726301000,36.17,-86.78,Justin Tarr,TN,1463120994000,19680612
227744019,Shelbyville,,1494992471000,35.48,-86.47,Kaitlyn Williford,TN,1494992471000,19680612
212442533,Nashville,,1473213096000,36.07,-86.73,Kanika Mehta Rankin,TN,1473213096000,19680612
106885952,Nashville,,1461248541000,36.06,-86.96,Karen Sliwowski,TN,1461248541000,19680612
2661540,Brooklyn,Brooklyn,1464866495000,40.68,-73.96,Karmen,NY,1479478467000,19680612
206747330,Nashville,,1465426585000,36.06,-86.96,Karmendi Martin,TN,1465426585000,19680612
212296870,Peru,,1473028168000,41.33,-89.13,Katee Johnson,IL,1475443481000,19680612
206351586,Nashville,,1464908627000,36.11,-86.78,Katherine Marena Munoz,TN,1464908627000,19680612
214998978,Nashville,,1476562401000,36.17,-86.78,Kathleen,TN,1484078805000,19680612
194352109,Columbia,,1497886865000,35.61,-87.05,Kathleen Williams,TN,1497886865000,19680612
212225415,Nashville,,1472933146000,36.17,-86.78,Kathryn Newman,TN,1472933146000,19680612
7890896,Nashville,Trenton,1457850190000,36.13,-86.8,Katie,TN,1462233431000,19680612
59892862,Nashville,,1464663161000,36.13,-86.8,Kayla Bruyn,TN,1464663161000,19680612
213842436,Nashville,,1475030006000,36.11,-86.86,Kayla Bushey,TN,1475030006000,19680612
208915157,Franklin,,1468372243000,36.73,-86.57,Kayla Renee,KY,1468372243000,19680612
67396312,Nashville,,1457751847000,36.17,-86.78,Keefer D.,TN,1458336016000,19680612
56997982,Nashville,"Springfield, IL",1483661509000,36.08,-86.72,Keegan Singh,TN,1483661509000,19680612
202440108,Grapevine,,1459361089000,32.93,-97.1,Keeley Maroney,TX,1459361089000,19680612
230021730,Nashville,,1502590834000,36.17,-86.78,Keeto,TN,1502590834000,19680612
230178550,Nashville,,1498067823000,36.06,-86.96,Kelci Northcutt,TN,1498067823000,19680612
226532277,Nashville,,1493341734000,36.06,-86.96,Kelli Kitchens,TN,1493341734000,19680612
183560521,Franklin,"Austin, TX",1496702494000,35.92,-86.89,Kelly,TN,1496702494000,19680612
7908284,Nashville,"nashville, tn",1499572050000,36.15,-86.86,kelly,TN,1499572050000,19680612
229873547,Nashville,,1497705391000,36.17,-86.78,Kelly Chaffin,TN,1497705391000,19680612
204643559,Franklin,,1462542759000,35.92,-86.89,Kelly Shannon Goldiez,TN,1462542759000,19680612
206681509,Clarksville,,1465343053000,36.53,-87.35,Ken Neeley,TN,1465343053000,19680612
198120174,Madison,,1457927799000,36.26,-86.71,Kendra Black,TN,1459981449000,19680612
225314758,Nashville,,1495864776000,36.17,-86.78,Kennadee Ray,TN,1495864776000,19680612
213056101,Lebanon,,1474036480000,36.21,-86.31,Kenneth Banks,TN,1490551121000,19680612
229788618,Madison,Madison,1497568088000,36.26,-86.71,Kenny Johnson,TN,1497568088000,19680612
44025552,Nashville,,1475876731000,36.17,-86.79,Kenya,TN,1475938533000,19680612
209682120,Nashville,,1469390105000,36.17,-86.78,Kerry Sujilida,TN,1508020645000,19680612
140777172,Orlando,,1457759638000,28.54,-81.37,Kevin,FL,1492924893000,19680612
163500592,Nashville,,1457807372000,36.06,-86.96,Kevin Beachus,TN,1458749211000,19680612
111933162,Ashland City,Cromwell,1477797994000,36.28,-87.07,Kevin Gedenberg,TN,1477797994000,19680612
202224239,Nashville,,1459041450000,36.15,-86.86,Kevin Liu,TN,1484021065000,19680612
187837953,Fosterville,,1493581520000,35.75,-86.39,Kevin Odain,TN,1493581520000,19680612
123362442,Nashville,,1457725513000,36.06,-86.96,Key Howard,TN,1457725513000,19680612
216627343,Nashville,,1506952806000,36.22,-86.77,Khalia Taylor,TN,1506952806000,19680612
224684372,Nashville,,1490800095000,36.06,-86.96,Kiely Brown,TN,1490800095000,19680612
202165348,Spring Hill,,1458948224000,35.76,-86.88,Kim Johnson,TN,1459263378000,19680612
218288823,Madison,,1481920557000,36.26,-86.71,kirsten,TN,1481920557000,19680612
219020160,Nashville,,1483386525000,36.17,-86.78,kita,TN,1483386525000,19680612
206303155,Mount Juliet,,1464840355000,36.21,-86.52,Kris!,TN,1464840355000,19680612
206735625,Nashville,,1465425915000,36.08,-86.71,Krish,TN,1479682316000,19680612
15939991,Murfreesboro,Murfreesboro,1457811939000,35.78,-86.33,Kristen Spears,TN,1457838679000,19680612
231038200,Nashville,,1499124155000,36.06,-86.96,Kristi W,TN,1499124155000,19680612
11028407,Nashville,,1496141751000,36.18,-86.74,Kristin McKinney,TN,1496141751000,19680612
225498014,Nashville,,1491955987000,36.08,-86.72,Kristin Viscione,TN,1491955987000,19680612
227837574,Nashville,,1495115922000,36.17,-86.78,Krystle,TN,1495115922000,19680612
217974636,Austin,"Austin, TX",1485367441000,30.29,-97.63,L. G.,TX,1485367441000,19680612
173879692,Nashville,Nashville,1461339279000,36.07,-86.78,Lacie Daye,TN,1461339279000,19680612
207960722,Nashville,,1467096902000,36.13,-86.8,Lalita,TN,1467096902000,19680612
10716469,Nashville,Abilene ,1482809853000,36.17,-86.78,Lane Hollingsworth,TN,1489261217000,19680612
223104498,Murfreesboro,,1488589713000,35.78,-86.33,LaTonya Reed,TN,1488589713000,19680612
207619180,Spring Hill,,1466623967000,35.76,-86.88,Lauren Anderson,TN,1466623967000,19680612
223340119,New York,,1489625380000,40.77,-73.99,Lauren Collins,NY,1489625380000,19680612
238423198,Smyrna,,1507494435000,35.97,-86.51,Lauren Cootes,TN,1507520723000,19680612
201280164,Nashville,,1457662345000,36.17,-86.72,Lauren Joelle,TN,1458070988000,19680612
220660160,Nashville,,1485318268000,36.08,-86.72,Lauren Van Daff,TN,1485318268000,19680612
210018340,Nashville,,1469830408000,36.17,-86.78,Layla,TN,1469830408000,19680612
201032094,Nashville,,1457720308000,36.18,-86.74,Leah Simmons,TN,1457720308000,19680612
212668087,Nashville,,1473524387000,36.17,-86.78,Leigh2001,TN,1473524387000,19680612
230198347,Franklin,,1498089822000,35.99,-86.9,Lexie Clayton,TN,1498089822000,19680612
123831102,Madison,,1486557259000,36.26,-86.71,Lezlie Knight,TN,1486557259000,19680612
213809009,Nashville,,1474993444000,36.18,-86.81,Liam von Elbe,TN,1474993444000,19680612
227856548,Franklin,,1495136775000,35.93,-86.81,Lily Nelsen,TN,1498452566000,19680612
203719306,Brentwood,,1461184251000,36.0,-86.79,Liming Wang,TN,1493919918000,19680612
14421014,Franklin,,1469672054000,35.92,-86.89,Lindsay  Chapman,TN,1470528177000,19680612
202234238,Lebanon,,1459058241000,36.15,-86.32,Lisa,TN,1459058241000,19680612
203059873,Old Hickory,Old Hickory,1460252094000,36.25,-86.63,Lisa,TN,1474554071000,19680612
218062154,Nashville,,1484139407000,36.08,-86.72,Lisa D,TN,1484347636000,19680612
7028351,Mount Juliet,Mt. Juliet,1507314812000,36.22,-86.52,Lisa Dretchen,TN,1507314812000,19680612
236715254,Nashville,,1505627482000,36.17,-86.78,Liz Anderson,TN,1505627482000,19680612
10795709,Chicago,,1467256091000,41.9,-87.67,Lizzi Gordon,IL,1485802258000,19680612
190836392,Nashville,,1489553441000,36.14,-86.74,LJ,TN,1492398296000,19680612
204925959,Nashville,,1463000451000,36.17,-86.78,Lone Jaz,TN,1466576482000,19680612
207538791,Nashville,,1466522036000,36.17,-86.78,Louis Lourie,TN,1466522036000,19680612
13170962,Nashville,,1497406338000,36.17,-86.78,LuLu ,TN,1497406338000,19680612
200750517,Nashville,,1471755383000,36.16,-86.79,M Bri Wyatt,TN,1475966228000,19680612
224518294,Nashville,,1490574127000,36.11,-86.86,Madison Anderson,TN,1490574127000,19680612
6259039,Murfreesboro,Shizuoka,1484180458000,35.87,-86.34,Makoto,TN,1501157217000,19680612
197554401,Dallas,,1493731117000,32.87,-96.78,Malia Williams,TX,1493731117000,19680612
216371152,Nashville,,1478647264000,36.16,-86.79,Mandy Robinson Walley,TN,1478647264000,19680612
210406980,Smyrna,,1497360086000,35.97,-86.51,Manuel Cáder,TN,1505964323000,19680612
208257693,Nashville,,1467524173000,36.16,-86.79,Marci Vallario,TN,1467524173000,19680612
170539182,Kingston Springs,,1472090581000,36.09,-87.12,Marcia Lara,TN,1472090581000,19680612
209140525,Columbia,,1468683152000,35.61,-87.05,Marcus Dilmore,TN,1468683152000,19680612
206423756,Mount Juliet,,1465008039000,36.22,-86.52,Marcus Kasel,TN,1465008039000,19680612
237866839,Brentwood,,1506885150000,36.0,-86.79,Margaret Callahan,TN,1506885150000,19680612
210189290,Nashville,,1470065192000,36.17,-86.78,Marian Rushdy,TN,1475869076000,19680612
6716693,Nashville,,1459175896000,36.17,-86.72,Marilyn ,TN,1459363392000,19680612
197353404,Columbia,,1467397770000,35.61,-87.05,Marissa King,TN,1467397770000,19680612
151552972,Franklin,,1500574403000,35.93,-86.81,Mark A. DeMaio,TN,1500574403000,19680612
231058677,Franklin,,1499150347000,35.92,-86.87,Mark Bogard,TN,1499150347000,19680612
236629892,Nashville,,1505531565000,36.08,-86.72,Mark Grizer,TN,1505531565000,19680612
153813452,Nashville,"Fontana, CA",1457718313000,36.04,-86.97,Mary Elizabeth,TN,1460853378000,19680612
212023438,Old Hickory,,1472650951000,36.25,-86.63,Mary Koch Brandt,TN,1472650951000,19680612
206639176,Clarksville,,1465299721000,36.56,-87.41,Mason Delatour,TN,1465299721000,19680612
216414549,Nashville,,1479837043000,36.17,-86.78,Matt,TN,1490645391000,19680612
230839591,Nashville,,1498878073000,36.11,-86.86,Matt Boyle,TN,1498878073000,19680612
208556028,Thompsons Station,,1467908854000,35.8,-86.9,MatthewA,TN,1467908854000,19680612
235346322,Nashville,,1504214479000,36.07,-86.78,Meagan & Eric ,TN,1504214479000,19680612
208654146,Clarksville,,1468041240000,36.53,-87.35,Megan Smith,TN,1468041240000,19680612
221469278,Nashville,,1486521529000,36.17,-86.72,Meghan Marvinny,TN,1486521529000,19680612
13352314,Nashville,,1462914548000,36.16,-86.79,Melanie,TN,1462914548000,19680612
111624082,Selbyville,,1479047356000,38.47,-75.15,Melissa Alesi,DE,1479047356000,19680612
229828869,Nashville,,1497627551000,36.17,-86.78,Melissa Bledsoe,TN,1497627551000,19680612
226770365,Nashville,,1493698769000,36.17,-86.77,Micah LeeAnn,TN,1493698769000,19680612
207448191,Spring Hill,,1466398516000,35.76,-86.88,Michael,TN,1466398516000,19680612
202841783,Franklin,,1459944602000,35.92,-86.89,Michael And Shirley Bryant,TN,1487776912000,19680612
67666832,Goodlettsville,Pataskala ,1458315851000,36.32,-86.72,Michael Monnin,TN,1458315851000,19680612
216046052,Gallatin,,1478139537000,36.39,-86.45,Michael Walton,TN,1478139537000,19680612
8625444,San Francisco,Nashville,1460025667000,37.78,-122.42,Michelle - TheTraveler,CA,1487215567000,19680612
218692365,Shelbyville,,1482755296000,35.49,-86.45,Michelle Arianna,TN,1482755296000,19680612
209545350,Franklin,,1474974250000,35.92,-86.89,Michelle Hines,TN,1489555938000,19680612
46486792,Nashville,,1459398365000,36.17,-86.78,Michelle McManus,TN,1465261815000,19680612
204086025,Nashville,,1461713585000,36.17,-86.78,Mickey Sanker,TN,1463608538000,19680612
218560507,Antioch,,1482451228000,36.04,-86.64,Micouri Aranea Silva,TN,1482451228000,19680612
210754759,Hermitage,,1470935184000,36.19,-86.6,Mike,TN,1475858856000,19680612
201225063,Franklin,,1483566194000,35.92,-86.89,Mike Alexander,TN,1484379156000,19680612
203606143,Thompsons Station,,1461024601000,35.8,-86.9,Mike Jones - For my son Kyle,TN,1461118325000,19680612
206814216,Nashville,,1465517388000,36.17,-86.78,Mina,TN,1465517388000,19680612
217332807,Nashville,,1480241062000,36.08,-86.72,Minnie Murphy,TN,1480241062000,19680612
194110160,Franklin,,1457922354000,36.01,-86.89,Miriam,TN,1501113244000,19680612
206996484,Studio City,,1465771829000,34.14,-118.39,Myah Naomi Lipscomb,CA,1465771829000,19680612
203999616,Nolensville,,1461598160000,35.94,-86.67,Nancy Kirby,TN,1461598160000,19680612
22062221,Nashville,"Annapolis, MD",1483978176000,36.17,-86.72,Natalie,TN,1483978176000,19680612
206290873,Brooksville,,1464824081000,28.57,-82.38,Natalie,FL,1464824081000,19680612
236970081,Nashville,,1505872335000,36.14,-86.8,Natalie Quevedo,TN,1505872335000,19680612
84397362,Nashville,,1475068650000,36.17,-86.78,Nate Phillips,TN,1475288215000,19680612
206164472,Tullahoma,,1464652138000,35.37,-86.21,Nazek Shabayek,TN,1464652138000,19680612
229802061,Franklin,,1497584847000,35.92,-86.89,Nick,TN,1497584847000,19680612
221068280,Clarksville,,1485836692000,36.56,-87.41,Nick D,TN,1485836692000,19680612
236279994,Franklin,,1505202017000,35.93,-86.84,Nick.,TN,1505202017000,19680612
203902663,Nashville,,1461457663000,36.16,-86.79,Nimit Shah,TN,1461457663000,19680612
221727351,Madison,,1486668269000,36.26,-86.71,Nora Harris,TN,1486668269000,19680612
234168251,Franklin,,1502888589000,35.93,-86.81,Olivia Oetjens,TN,1502888589000,19680612
207225640,Nashville,,1466085370000,36.18,-86.81,Parker Fretwell,TN,1466085370000,19680612
233702860,White Bluff,,1502336547000,36.12,-87.23,Pattie Gentry Dunn,TN,1502336547000,19680612
201679832,Springfield,,1458227292000,36.52,-86.87,Paula,TN,1458227292000,19680612
28686572,Murfreesboro,Murfreesboro,1480793497000,35.87,-86.34,Paula,TN,1492376381000,19680612
84539122,Nashville,Nashville,1482163085000,36.08,-86.72,Paula L Owens,TN,1482163085000,19680612
9093585,Nashville,,1457807813000,36.06,-86.96,peaceseeker,TN,1463752634000,19680612
218289005,Nashville,,1481923367000,36.17,-86.78,Peggy Tippin,TN,1483656230000,19680612
222353401,Memphis,,1505647349000,35.07,-89.96,Penny,TN,1508623866000,19680612
212378653,Nashville,,1473131294000,36.17,-86.78,Persephanie Celiene Rogers,TN,1473131294000,19680612
223421595,Nashville,,1489040036000,36.14,-86.74,Phil Varela,TN,1489040036000,19680612
227014148,Manchester,,1494006350000,35.47,-86.08,Philip Ray,TN,1494006350000,19680612
34219902,Franklin,,1459528192000,35.93,-86.81,Poonit,TN,1459528192000,19680612
224322052,Nashville,,1490297762000,36.07,-86.78,Pragati MP,TN,1490297762000,19680612
222658135,Nashville,,1487961591000,36.17,-86.78,Q Jo,TN,1487961591000,19680612
214548728,Clarksville,,1475890266000,36.53,-87.35,RA Blair,TN,1475890266000,19680612
207545249,Cleveland,,1466527579000,35.16,-84.88,Rachel Frey,TN,1466527579000,19680612
212085215,La Vergne,,1472738321000,36.01,-86.57,Rachel Grace,TN,1472738321000,19680612
216426300,Guelph,,1478747029000,43.53,-80.23,Rafer White,ON,1478747029000,19680612
235370729,Franklin,,1504240317000,35.92,-86.89,RajKumar Doraiswamy,TN,1504240317000,19680612
222201520,Hendersonville,,1487329449000,36.32,-86.61,Randall Hicks,TN,1487329449000,19680612
228906675,Franklin,,1496469955000,35.93,-86.84,Randall Holton,TN,1501128804000,19680612
229302608,Fairview,,1496953595000,35.97,-87.13,Randall Lane Willmore,TN,1496953595000,19680612
215740176,Goodlettsville,,1477667755000,36.32,-86.72,Randy Williams,TN,1492095007000,19680612
229866459,Nashville,,1497722646000,36.08,-86.72,Reanna Untener,TN,1501159291000,19680612
203792480,Nashville,,1461291054000,36.17,-86.78,Reanne Emily Christine,TN,1474384135000,19680612
215493026,Nashville,,1477542602000,36.1,-86.66,Rebeca Medina,TN,1477542602000,19680612
12300723,Nashville,,1462322751000,36.17,-86.78,Rebecca,TN,1462322751000,19680612
202999113,Nashville,,1460166015000,36.17,-86.78,Rebecca Cargill,TN,1462634191000,19680612
221454220,Dickson,,1486320656000,36.08,-87.43,Rebecca Daugherty,TN,1486320656000,19680612
223168544,Nashville,,1488681000000,36.06,-86.96,Rebel Moore,TN,1501180494000,19680612
25077732,Franklin,,1468032108000,35.92,-86.89,Reed Mitchell,TN,1468032108000,19680612
152960022,Brentwood,,1483726338000,36.0,-86.79,Rich,TN,1483726338000,19680612
229185681,Nashville,,1496801853000,36.18,-86.74,Rick Moore,TN,1496801853000,19680612
230253857,Fort Campbell,,1498153037000,36.65,-87.46,Ricky Serey,KY,1498153037000,19680612
217350178,Nashville,,1483763856000,36.15,-86.81,Rob Brantley,TN,1492796554000,19680612
202429218,Nashville,Nashville,1459347814000,36.22,-86.77,Rob Spekhardt,TN,1459528210000,19680612
206267732,Nashville,,1464796686000,36.1,-86.66,Robert Guillot,TN,1465485257000,19680612
229315564,Nashville,,1496968277000,36.06,-86.96,Roger Lee,TN,1501901572000,19680612
110512042,Nashville,,1468337923000,36.17,-86.78,Ron Ford,TN,1468337923000,19680612
223738717,Brentwood,,1496017669000,36.0,-86.79,Ruby MBA Professional,TN,1496017669000,19680612
216852113,Franklin,,1479413084000,35.92,-86.89,Sadey,TN,1479413084000,19680612
217682203,Nashville,,1480833485000,36.17,-86.78,Sam,TN,1480833485000,19680612
226373125,Hendersonville,,1493136410000,36.32,-86.61,Samantha Sharp,TN,1493136410000,19680612
224644961,Nashville,,1490740184000,36.17,-86.78,San Ashitaka,TN,1490740184000,19680612
203094815,Spring Hill,,1460340417000,35.76,-86.88,Sandra Roberts,TN,1498367545000,19680612
26245452,Nashville,,1461619729000,36.1,-86.72,Sara B,TN,1493953636000,19680612
233896930,Nashville,,1502561920000,36.13,-86.8,Sara Smallwood,TN,1502561920000,19680612
216878433,Nashville,,1479452810000,36.15,-86.81,Sarah,TN,1483932054000,19680612
233157514,Nashville,,1501712240000,36.17,-86.78,Savanna George,TN,1501712240000,19680612
230023190,Nolensville,,1497895304000,35.94,-86.67,Savannah LaMey,TN,1497895304000,19680612
218513858,Nashville,,1482353279000,36.17,-86.78,Schan,TN,1483976153000,19680612
201248004,Nashville,,1457627466000,36.08,-86.72,Scheherazade,TN,1461175960000,19680612
216795808,Nashville,,1479325083000,36.17,-86.78,Scott,TN,1479325083000,19680612
234251950,Nashville,,1502984849000,36.15,-86.86,Scott Anderson,TN,1502984849000,19680612
202892648,Nashville,,1460010014000,36.08,-86.72,Sean Coleman,TN,1460010014000,19680612
233115350,Portland,,1501663029000,36.57,-86.49,Shane Taco,TN,1501663029000,19680612
45002702,Nashville,,1466647339000,36.09,-86.82,Shara Lunn,TN,1481340327000,19680612
211066818,Franklin,,1471953504000,35.92,-86.89,Shari,TN,1490921634000,19680612
219195111,Tullahoma,,1483618450000,35.37,-86.21,shawn,TN,1483618450000,19680612
203285097,Hendersonville,,1460566117000,36.32,-86.61,Shawn,TN,1460566117000,19680612
231083258,Nashville,,1499182571000,36.17,-86.72,Shekinah Christian,TN,1499182571000,19680612
197320836,Nashville,,1457720098000,36.11,-86.86,Shelley Wilmoth,TN,1484024187000,19680612
214952576,Nashville,,1476490084000,36.1,-86.66,Sherrie Williams,TN,1476490084000,19680612
14453632,Hyderabad,Hyderabad,1496517005000,17.4,78.48,shravan,,1497827794000,19680612
208960480,Lynnville,,1468436252000,35.39,-87.0,shravya kyatham,TN,1468436252000,19680612
214659058,Nashville,,1476662014000,36.17,-86.72,Shrey Kankaria,TN,1476662014000,19680612
236062508,San Diego,,1504981518000,32.72,-117.17,Skyler Hoyt,CA,1504981518000,19680612
226843223,Nashville,,1493769528000,36.17,-86.78,Smith Paulo,TN,1493769528000,19680612
185984390,Mount Juliet,Mount Juliet,1474430404000,36.22,-86.52,Sosciore,TN,1474430404000,19680612
223653322,Nashville,,1489369791000,36.17,-86.78,Southerns Seven,TN,1489369791000,19680612
194519075,Nashville,,1457718629000,36.06,-86.96,Staci Langloss,TN,1458050065000,19680612
233216153,Nashville,,1501787503000,36.13,-86.8,Stacie Holland,TN,1501787503000,19680612
70340222,Nashville,Nashville,1501173509000,36.16,-86.79,Stephanie,TN,1501173509000,19680612
208045599,Nashville,,1475365179000,36.17,-86.78,Stephen Cupp,TN,1475365179000,19680612
228308201,Nashville,,1495693503000,36.17,-86.78,Stevie Rae Stephens,TN,1495693503000,19680612
211926506,Nashville,,1472518364000,36.17,-86.72,Sushant,TN,1472518364000,19680612
12134295,Nashville,,1459637848000,36.15,-86.86,Suzanne,TN,1508595823000,19680612
237196112,Nashville,,1506129930000,36.06,-86.96,Sweets,TN,1506129930000,19680612
200804116,Nashville,,1457946547000,36.06,-86.96,Sylvia Bosma,TN,1465594790000,19680612
34526012,Brentwood,Nashville/Atlanta,1458752439000,36.0,-86.79,Tam,TN,1462201303000,19680612
202063668,La Vergne,,1458783129000,36.01,-86.57,Tamalishus,TN,1458783129000,19680612
8135061,Nashville,"Glen Dale, Marshall County, West Virginia",1475710216000,36.15,-86.79,Tamara AS,TN,1495741935000,19680612
191421992,Ann Arbor,"Ann Arbor, MI",1457742694000,42.24,-83.72,Taneisha,MI,1494546440000,19680612
187254915,Brisbane,,1480546006000,-27.47,153.03,Taplino Dahmari,,1484420514000,19680612
206239411,Nashville,,1464750466000,36.17,-86.72,Tara H,TN,1464750466000,19680612
49377352,Nashville,,1457718671000,36.18,-86.74,Tasia Brooks,TN,1457733523000,19680612
211861206,Nashville,,1472430882000,36.11,-86.86,Teal,TN,1472430882000,19680612
221959571,Antioch,,1486999428000,36.04,-86.64,TeeJay,TN,1486999428000,19680612
104382592,Nashville,Nashville,1457718957000,36.15,-86.86,Tessa,TN,1484062086000,19680612
227806705,Franklin,,1495071336000,35.99,-86.9,Theodore Brittan,TN,1495071336000,19680612
205863805,Fort Campbell,,1464214924000,36.65,-87.46,Tiberius,KY,1464214924000,19680612
202456878,Fort Campbell,,1459381685000,36.65,-87.46,Tim Volk,KY,1459381685000,19680612
23307071,Nashville,Nashville,1457723963000,36.22,-86.77,Timmery,TN,1457723963000,19680612
205420391,Nashville,,1464175624000,36.22,-86.77,TLM,TN,1464175624000,19680612
5861026,Hendersonville,"Bloomington, IL",1457719891000,36.32,-86.61,Todd,TN,1457989079000,19680612
207366762,Nashville,,1466284171000,36.17,-86.78,Todd Wade,TN,1466284171000,19680612
209290669,Nashville,,1468868621000,36.17,-86.78,Toren Carr,TN,1468868621000,19680612
219442744,Mount Juliet,,1483799088000,36.21,-86.52,Tracy Trimble,TN,1483799088000,19680612
202691055,Springfield,,1459746521000,36.52,-86.87,tritt eastwood,TN,1483924048000,19680612
210030950,Crossville,,1469844328000,35.95,-85.02,Ty Conner McConnell,TN,1469844328000,19680612
201445156,Nashville,"Nashville, TN",1459974172000,36.17,-86.78,Ty Gilliam,TN,1464030119000,19680612
216431731,Nashville,,1478758219000,36.17,-86.78,Tyler Ashley,TN,1478758219000,19680612
215488837,Mitchellville,,1477280797000,36.63,-86.54,Tyler Joseph Lee,TN,1477280797000,19680612
159239302,Nashville,,1465704592000,36.16,-86.79,Vanessa,TN,1470665579000,19680612
207446760,Franklin,,1466396012000,35.92,-86.89,Vanessa Huaracha,TN,1466396012000,19680612
6932365,Franklin,Nashville,1457904857000,35.93,-86.81,Vicki Lea,TN,1475908321000,19680612
209717900,Cleveland,Cleveland,1469427636000,41.48,-81.69,Violet,OH,1469427636000,19680612
230612519,Nashville,,1498601942000,36.11,-86.78,Wesley Young,TN,1498601942000,19680612
39554572,Nashville,,1477706944000,36.08,-86.72,Will,TN,1501112531000,19680612
216754160,Dickson,,1479256402000,36.08,-87.38,William Bill Lanius,TN,1479256402000,19680612
221116594,Nashville,,1485899032000,36.14,-86.74,willie gordon,TN,1486199571000,19680612
179391132,Nashville,,1458997070000,36.08,-86.72,X,TN,1458997070000,19680612
207372021,Saint Louis,"Saint Paul, MN",1466290487000,38.63,-90.19,Yella Rose,MO,1466290487000,19680612
202619428,Nashville,,1459629420000,36.08,-86.72,Youngeun Park,TN,1459629420000,19680612
222068321,Spring Hill,,1487139823000,35.76,-86.88,Zac Retzer,TN,1487139823000,19680612
