id,city,hometown,joined,lat,lon,name,state,visited,group_id
65072762,Brentwood,Saratoga,1490392200000,36.0,-86.79,Aaron,TN,1506615639000,19997487
185530228,Nashville,,1468787329000,36.18,-86.74,Abbie Holder,TN,1468787329000,19997487
189828477,Austin,,1472354582000,30.22,-97.7,Abdul W Behzad,TX,1484481530000,19997487
100109982,Nashville,,1464637526000,36.17,-86.78,Adam Markham,TN,1483531427000,19997487
153674632,Nashville,,1499979970000,36.18,-86.74,Adam Reidelbach,TN,1499979970000,19997487
232611661,Nashville,,1501073131000,36.14,-86.74,Adam Smith,TN,1501073131000,19997487
193050180,Brentwood,Brentwood,1465491138000,36.0,-86.79,Adam Stracener,TN,1465491138000,19997487
208414771,Nashville,,1467737961000,36.17,-86.78,adenmark86,TN,1467902288000,19997487
236437985,Nashville,,1505343509000,36.17,-86.79,Adia Tigney,TN,1507430007000,19997487
206481851,Nashville,,1465127309000,36.17,-86.78,Adia Tigney,TN,1490043114000,19997487
43757762,Nashville,,1464636659000,36.13,-86.8,Adonis Ronquillo,TN,1464636659000,19997487
89599652,Nashville,Chicago,1502729615000,36.14,-86.74,Aimee Knight,TN,1502817583000,19997487
11872972,Nashville,,1472738927000,36.13,-86.8,Alan,TN,1508171494000,19997487
194095164,Nashville,,1475638395000,36.15,-86.86,Alan Eatherly,TN,1475638395000,19997487
208976164,Nashville,"St. Petersburg, FL",1488769600000,36.1,-86.66,Alex Craven,TN,1488769600000,19997487
232611352,Nashville,,1501025482000,36.14,-86.74,Alex Sanchez,TN,1501025482000,19997487
214269471,Nashville,,1475531753000,36.17,-86.78,Alex Sundermann,TN,1475531753000,19997487
215083919,Murfreesboro,,1476682334000,35.87,-86.34,Alexander Krebs,TN,1476682334000,19997487
214068078,Nashville,,1475275284000,36.17,-86.78,Alexis,TN,1475275284000,19997487
211551750,Nashville,,1471994444000,36.17,-86.78,Alicia Miceli,TN,1482450662000,19997487
216729958,Nashville,,1479226328000,36.13,-86.8,Alistair Hunt,TN,1479869947000,19997487
126309962,Nashville,,1471282874000,36.11,-86.86,Aliya Gifford,TN,1504895986000,19997487
220902681,Nashville,,1485641521000,36.08,-86.72,Alyssa Sidebottom,TN,1485641521000,19997487
233275939,Nashville,,1501861190000,36.13,-86.8,Amanda Hendrix,TN,1501861190000,19997487
217955705,Gilbert,,1481903590000,33.26,-111.72,amanda perez,AZ,1502458942000,19997487
232756190,Nashville,,1501205226000,36.17,-86.78,Amber Stuart,TN,1501205226000,19997487
215708146,Nashville,,1477609654000,36.17,-86.78,Amelia Zenerino,TN,1478555139000,19997487
149480082,Nashville,,1507820787000,36.08,-86.72,Amy L.,TN,1507820787000,19997487
210021365,Madison,,1469832580000,36.26,-86.71,Andico Robles,TN,1498086174000,19997487
80711212,Franklin,,1484008844000,35.93,-86.81,Andrea,TN,1508505254000,19997487
83732652,Nashville,,1505844273000,36.17,-86.78,Andrew Hutchinson,TN,1505844273000,19997487
210836188,Nashville,,1470975904000,36.09,-86.82,Andrew Marshall,TN,1507390436000,19997487
178742432,Nashville,,1490552025000,36.15,-86.79,Andy Million,TN,1508429737000,19997487
218869837,Nashville,,1483050874000,36.17,-86.78,Ann Shafer,TN,1505695582000,19997487
3464977,Smyrna,Smyrna,1474640090000,35.97,-86.51,Anna,TN,1502762647000,19997487
233590417,Nashville,,1505406622000,36.08,-86.72,Anna Dolan,TN,1508120724000,19997487
192623642,Wroclaw,,1495640691000,51.11,17.03,Anna Epishova,,1502481010000,19997487
209743119,Franklin,,1506128215000,35.92,-86.89,Anthonius Milan,TN,1506189099000,19997487
143437442,Franklin,,1488142973000,35.92,-86.89,Anthony Fox,TN,1488142973000,19997487
217749308,Nashville,,1480952296000,36.17,-86.78,Anthony Manker,TN,1498673562000,19997487
218331206,Nashville,,1482005225000,36.17,-86.78,Antonio Thomas,TN,1485229164000,19997487
186777303,Madison,,1471917434000,36.26,-86.71,Arenas Viscatanius,TN,1503632701000,19997487
232013963,Gladeville,,1500300617000,36.19,-86.28,Aron Mebrahtu,TN,1500300617000,19997487
211277827,Nashville,,1471619742000,36.17,-86.78,Arun Khatri,TN,1482097224000,19997487
233305742,Hermitage,,1501891702000,36.19,-86.6,Ash Yenamandra,TN,1501891702000,19997487
236599301,Nashville,,1505830403000,36.15,-86.86,Ashley ,TN,1505938628000,19997487
220614626,Nashville,,1498056872000,36.07,-86.78,Ashley Canino,TN,1502368846000,19997487
212686319,Clarksville,,1476154645000,36.58,-87.3,Ashwath,TN,1493255286000,19997487
126085452,Nashville,"Saint Louis, MO",1483976356000,36.17,-86.78,Aspen Nguyen,TN,1483976356000,19997487
14948621,Nashville,,1464739651000,36.16,-86.79,Audrey,TN,1483556033000,19997487
8403046,Nashville,,1464739446000,36.16,-86.79,Audrey Cermak,TN,1464739446000,19997487
223260232,Nashville,"Northville, MI",1488821708000,36.17,-86.78,Austin,TN,1508791488000,19997487
53439252,Hendersonville,Nashville,1494266694000,36.32,-86.61,Avi,TN,1508557509000,19997487
220624758,Nashville,,1486500988000,36.14,-86.74,BCaldwell,TN,1508773822000,19997487
184251699,Hendersonville,,1464563972000,36.32,-86.61,ben,TN,1485751401000,19997487
225067604,Nashville,,1491341779000,36.13,-86.8,Ben,TN,1491360056000,19997487
10752160,Lebanon,,1484008909000,36.21,-86.31,Ben Greaves,TN,1504798838000,19997487
207228248,Nashville,,1466088906000,36.14,-86.81,Betsy Quinn,TN,1466427440000,19997487
217122985,Nashville,,1479843274000,36.17,-86.78,Billy Connolly,TN,1484338778000,19997487
234324964,Nashville,,1503065510000,36.17,-86.72,Bingxu Ren,TN,1503939517000,19997487
82204922,Nashville,"Smyrna, TN",1464275295000,36.17,-86.79,BJ Burns,TN,1508699746000,19997487
217599165,Nashville,,1481000859000,36.17,-86.78,Blair Van Sant,TN,1481000859000,19997487
228333614,Chattanooga,,1498890216000,35.04,-85.31,Blaise Iradukunda,TN,1506011645000,19997487
237683429,Nashville,,1506671057000,36.15,-86.86,Boburmirzo Sirojiddinov,TN,1507746212000,19997487
216494258,Nashville,,1478867473000,36.17,-86.78,boiaryntseva,TN,1484278117000,19997487
227186695,Hermitage,,1494251253000,36.19,-86.6,Branden Butler,TN,1503976639000,19997487
183608847,Nashville,,1465941208000,36.17,-86.79,Brandi Leath,TN,1486780058000,19997487
186658212,Killen,Killen,1468595975000,34.91,-87.5,Brandon Bost,AL,1502190838000,19997487
234652434,Nashville,,1503427347000,36.17,-86.78,Brandon Brewer,TN,1503427347000,19997487
197630361,Nashville,,1480951444000,36.17,-86.78,Brian Doane,TN,1483930288000,19997487
7981818,Nashville,Nashville,1464653619000,36.15,-86.86,Brian Pitts,TN,1497115203000,19997487
73578712,Nashville,Nashville,1497552622000,36.11,-86.86,brian schlanger,TN,1508164969000,19997487
205394109,Franklin,,1464568807000,35.92,-86.89,Brittan Wogsland,TN,1464568807000,19997487
183687063,Nashville,Nashville,1491376376000,36.18,-86.74,Brooke Wittenberg,TN,1507507005000,19997487
215085358,Nashville,,1476684732000,36.17,-86.78,Bruce Lee,TN,1476684732000,19997487
19147021,Nashville,,1491358658000,36.16,-86.79,Bryon Larrance,TN,1508627382000,19997487
209701098,Nashville,,1508507772000,36.17,-86.78,Burble,TN,1508507772000,19997487
222467575,Nashville,,1504809494000,36.08,-86.72,Cait Rocco,TN,1505844581000,19997487
206198140,Nashville,,1505051290000,36.17,-86.77,Caleb Cordell,TN,1507037365000,19997487
230185128,Nashville,,1500153835000,36.17,-86.78,Caleb J. Lee,TN,1500750364000,19997487
203244569,Antioch,"Nashville, TN",1464578704000,36.04,-86.64,Calvin J.,TN,1508471964000,19997487
152606552,Brentwood,,1500688334000,36.0,-86.79,Cameron,TN,1500750422000,19997487
231506550,Nashville,,1499702803000,36.17,-86.78,Cameron Kinard,TN,1499702803000,19997487
210615108,Brentwood,,1471299208000,36.0,-86.79,carlos zavaleta,TN,1471299208000,19997487
208949319,Nashville,,1468990538000,36.17,-86.78,Carter Harris,TN,1496786047000,19997487
217562544,Nashville,,1480621476000,36.17,-86.78,Casey Dailey,TN,1492054206000,19997487
214541433,Nashville,,1475878636000,36.13,-86.8,Casey Krolewicz,TN,1475878636000,19997487
215910105,Nashville,,1477937512000,36.17,-86.78,Casey Reed,TN,1504801318000,19997487
216892372,Murfreesboro,,1479480415000,35.85,-86.36,Casey Tomberlin,TN,1502397384000,19997487
139669252,Nashville,Pegram,1480819875000,36.06,-86.96,Cate,TN,1507151185000,19997487
208624858,Nashville,,1468004210000,36.17,-86.78,Cathy,TN,1486841759000,19997487
223169116,Nashville,,1488682320000,36.16,-86.79,Cayla Cook,TN,1488682320000,19997487
233601566,Nashville,,1503005341000,36.17,-86.78,Chad Rusk,TN,1503516398000,19997487
211626236,Davidson,,1474045356000,35.48,-80.82,Chang,NC,1508548496000,19997487
206184595,Nashville,,1464677752000,36.17,-86.79,Charisse Sarmiento,TN,1464721920000,19997487
192545823,Nashville,,1482417238000,36.18,-86.74,Charles Faquin,TN,1493037238000,19997487
212805620,Nashville,,1484002732000,36.17,-86.78,Chase,TN,1485605613000,19997487
183038698,Gastonia,,1479683164000,35.23,-81.24,Chelsei Henderson,NC,1480730448000,19997487
49850062,Nashville,Santa Ana,1473632562000,36.11,-86.78,Cheo,TN,1503758447000,19997487
177315492,Murfreesboro,,1476201777000,35.78,-86.33,Chris Basham,TN,1483905523000,19997487
204609819,Nashville,Nashville,1474606544000,36.08,-86.72,Chris Duke,TN,1474606544000,19997487
205371979,Nashville,,1464641139000,36.06,-86.96,Chris Hill,TN,1464716304000,19997487
184547023,Nashville,,1464707956000,36.16,-86.79,Chris Jarvis,TN,1501560706000,19997487
173858412,Franklin,"Slidell, LA",1490052838000,35.92,-86.89,Chris McKnight,TN,1493174062000,19997487
236578093,Nashville,,1505483310000,36.21,-86.72,Chris Mellor,TN,1505483310000,19997487
208732641,Nashville,,1468150644000,36.18,-86.74,Chris Miller,TN,1508236912000,19997487
212702006,Nashville,,1473564572000,36.17,-86.79,Chris O,TN,1473564572000,19997487
209643345,Nashville,,1469332004000,36.17,-86.78,Chris Smalley,TN,1469332004000,19997487
47572122,Nashville,Chicago,1465324817000,36.17,-86.78,Chris SpinMan Spintzyk,TN,1465324817000,19997487
222300882,La Vergne,,1487468727000,36.01,-86.57,Chris Talley,TN,1487468727000,19997487
191331106,Hermitage,,1503595985000,36.19,-86.6,Chris Watkins,TN,1503595985000,19997487
216943926,Huntsville,Nashville,1479564452000,34.78,-86.61,Chris Watson,AL,1479564452000,19997487
217458895,Nashville,,1480446990000,36.17,-86.78,Christa Deeanne,TN,1506444158000,19997487
184861611,Murfreesboro,,1475025965000,35.87,-86.34,Christina,TN,1491359648000,19997487
143407172,Nashville,"Bay Area, CA",1473185321000,36.08,-86.72,Christina Keelan Cottrell,TN,1473185321000,19997487
195285548,Nashville,,1465840061000,36.13,-86.8,Christina Wisneski,TN,1470666356000,19997487
12880123,Nashville,,1507571028000,36.14,-86.74,Christopher Igoe,TN,1508171815000,19997487
214145544,Nashville,,1475373091000,36.22,-86.86,Clifton Neal,TN,1475373091000,19997487
209705528,Nashville,,1469411752000,36.17,-86.72,Clint Farquhar,TN,1469411752000,19997487
129003472,Smyrna,,1495813471000,35.95,-86.54,Corey Gross,TN,1504378591000,19997487
225111549,Nashville,,1493932390000,36.17,-86.78,Cory Harkins,TN,1500761019000,19997487
230814910,Nashville,,1499124270000,36.17,-86.78,Cory Kelly,TN,1499608108000,19997487
210392442,Nashville,,1485181751000,36.17,-86.78,Curtis Crawford,TN,1485181751000,19997487
230179591,Nashville,,1506141054000,36.17,-86.78,Curtis Vanzandt,TN,1506808729000,19997487
209224933,Antioch,,1477107037000,36.04,-86.64,Dakota Copeland,TN,1477117458000,19997487
156626172,Nashville,Nashville,1482508912000,36.11,-86.86,Dan Burger,TN,1507122336000,19997487
220377003,Nashville,Antioch,1496672263000,36.22,-86.77,Daniel Babcock,TN,1508531116000,19997487
232733652,Nashville,,1508359291000,36.14,-86.74,Daniel Greene,TN,1508359291000,19997487
234952785,Nashville,,1503800708000,36.17,-86.72,Daniel Jones,TN,1508110834000,19997487
1939496,Antioch,,1464660381000,36.04,-86.64,Daniel Newman,TN,1482202009000,19997487
113482852,Nashville,Nashville,1471995094000,36.13,-86.8,Danielle Adkins,TN,1474314861000,19997487
9363105,Nashville,,1470775733000,36.11,-86.78,danielle duer,TN,1471923312000,19997487
206240756,Murfreesboro,,1491335743000,35.87,-86.44,Dara,TN,1500309337000,19997487
208300950,Nashville,,1467571757000,36.17,-86.78,Darrell Hagan,TN,1468270142000,19997487
205010129,Murfreesboro,,1500922574000,35.78,-86.33,Darrin Dickey,TN,1502068878000,19997487
206867137,Hendersonville,,1465595211000,36.32,-86.61,Dashea Boone,TN,1468772777000,19997487
201446209,Nashville,,1472672157000,36.09,-86.82,Dave Harms,TN,1504882835000,19997487
7534345,Nashville,"Louisville, KY",1476556763000,36.06,-86.96,Dave Harned,TN,1508190401000,19997487
209338328,Franklin,,1468931491000,35.92,-86.89,David Allen,TN,1499367373000,19997487
12927999,Nashville,Nashville,1464704500000,36.17,-86.72,David Brandon Dees,TN,1464704500000,19997487
235180688,Nashville,,1504721433000,36.21,-86.72,David Brown,TN,1507937892000,19997487
204237509,Nashville,,1464538915000,36.17,-86.78,David Cramb,TN,1492038621000,19997487
10781436,Nashville,Nashville,1508381761000,36.18,-86.74,David F.,TN,1508694864000,19997487
195726664,Nashville,,1470708952000,36.18,-86.74,David Lothamer,TN,1471452076000,19997487
134073882,Nashville,,1471964167000,36.17,-86.78,David Prochaska,TN,1503238635000,19997487
9986685,Nashville,"Pittsburgh, PA",1486840226000,36.06,-86.96,David Shuman,TN,1490104904000,19997487
4211111,Nashville,,1472283762000,36.17,-86.78,David Steele,TN,1472283762000,19997487
228533008,West Palm Beach,West Palm Beach,1496002620000,26.66,-80.26,Davy Yue,FL,1501008009000,19997487
121723022,Spring Hill,,1464706788000,35.75,-86.88,Dayne Wright,TN,1505741364000,19997487
16790301,Nashville,,1478028846000,36.14,-86.74,Debbie Bourne,TN,1484350010000,19997487
184170710,Nashville,,1501366695000,36.17,-86.72,Debra,TN,1501540105000,19997487
225271141,Nashville,Nashville,1491645274000,36.15,-86.86,Dee,TN,1497187765000,19997487
208430646,Nashville,,1467743746000,36.14,-86.74,Delaine Wendling,TN,1477717572000,19997487
208973696,Clarksville,,1468451030000,36.53,-87.35,Delarentae,TN,1468451030000,19997487
205993682,Nashville,,1464408946000,36.15,-86.86,DeltrecevsGitsy Shaffer,TN,1464408946000,19997487
36925522,Nashville,"Nashville, TN",1475514863000,36.17,-86.78,Dennis deMenace,TN,1475514863000,19997487
210614410,Hendersonville,,1470757904000,36.32,-86.61,Dennis McGhee,TN,1496254462000,19997487
80529152,Nashville,"Philadelphia, PA",1464637256000,36.17,-86.78,Derek Bartron,TN,1464637256000,19997487
200903545,Nashville,Nashville,1464785032000,36.16,-86.79,Derell L. Stinson,TN,1464785032000,19997487
214753628,Nashville,,1476202838000,36.16,-86.79,Derrick Bray,TN,1476549218000,19997487
196325751,New York,,1490464072000,40.75,-73.99,Diane Duncklee,NY,1490464072000,19997487
196325741,Nashville,,1468085225000,36.17,-86.78,Diane Duncklee,TN,1491670060000,19997487
66569082,Nashville,,1484575612000,36.17,-86.78,Dianna Johnson,TN,1484575612000,19997487
184970530,Franklin,,1481762365000,35.92,-86.88,Diego G Bodart,TN,1483134276000,19997487
89416212,Nashville,,1500256723000,36.17,-86.78,Dillon Fletcher,TN,1500750354000,19997487
227992888,Murfreesboro,,1495321172000,35.78,-86.33,Dimitriy Petrov,TN,1496363726000,19997487
208916701,Smyrna,,1478820679000,35.97,-86.51,Dominic Serrano,TN,1482009813000,19997487
222153711,Nashville,,1487265157000,36.18,-86.74,Doug Altenbern,TN,1488258202000,19997487
184287177,Nashville,,1467682575000,36.16,-86.79,Drew Butler,TN,1488216642000,19997487
222402513,Nashville,,1490552705000,36.16,-86.79,Dung Nguyen Do,TN,1490552705000,19997487
69331692,Bloomington,,1470420935000,40.48,-89.0,Dustin Cain,IL,1470420935000,19997487
217859560,Durham,,1481131168000,35.92,-78.8,Dustin Morris,NC,1481131168000,19997487
161306542,Springfield,,1501168890000,36.52,-86.87,Dustin Reed,TN,1501168890000,19997487
9448133,Franklin,,1471922449000,35.92,-86.89,Dwayne Pate,TN,1501735408000,19997487
189316019,Nashville,,1464703336000,36.13,-86.8,Dylan Thomas,TN,1465850076000,19997487
5919533,Herzeliyya,Kfar HaRoeh,1467809848000,32.17,34.84,E.S. Stepansky,,1480889050000,19997487
206227098,Nashville,,1464735474000,36.16,-86.79,Earnest Morgan,TN,1464735474000,19997487
197774325,Nashville,,1464622335000,36.17,-86.78,Eleasha,TN,1482271249000,19997487
209223183,Nashville,,1468784901000,36.18,-86.74,Elizabeth Sanger,TN,1488120223000,19997487
194719509,Nashville,,1464758275000,36.17,-86.78,Ellen Bailey,TN,1501430885000,19997487
216420150,Nashville,,1479242091000,36.08,-86.72,Elliott Williams,TN,1479242091000,19997487
213005870,Nashville,Dyersburg,1473961305000,36.17,-86.78,Emma Lawrence,TN,1480396134000,19997487
199665292,Nashville,,1475124549000,36.21,-86.72,Eric Denton,TN,1485539803000,19997487
219952884,Clarksville,,1484439444000,36.49,-87.23,eric dimon,TN,1484439444000,19997487
222807300,Russellville,,1495644917000,36.83,-86.92,Eric Wright,KY,1498325458000,19997487
209512622,Fort Campbell,,1469154142000,36.65,-87.46,Erica Thompson,KY,1504793860000,19997487
10324709,Nashville,"Huntington, NY",1465525890000,36.08,-86.72,Erin O'Rourke,TN,1465525890000,19997487
148050462,Nashville,,1464633356000,36.17,-86.78,Erin Orstrom,TN,1508724700000,19997487
85547452,Nashville,,1486678315000,36.13,-86.8,Erin Page,TN,1486678315000,19997487
193871097,Louisville,,1507568984000,38.25,-85.78,Ethan Robbins,KY,1508257356000,19997487
226451660,Gallatin,,1493235178000,36.39,-86.45,Evan Grabenstein,TN,1499180258000,19997487
59187032,Brooklyn,Nashville,1480738293000,40.67,-73.99,F.A.,NY,1505828563000,19997487
230542877,Nashville,,1498511931000,36.17,-86.78,Fady Eilia,TN,1498511931000,19997487
208426796,Nashville,,1467739798000,36.17,-86.78,Fletcher,TN,1467739798000,19997487
106156082,Mount Juliet,"Ann Arbor, MI",1475696186000,36.22,-86.52,Forest Darling,TN,1507898019000,19997487
194926957,Nashville,,1471277697000,36.17,-86.78,Francesca Brogden,TN,1502107133000,19997487
189569960,Nashville,,1478194177000,36.17,-86.78,Franchelle Kershaw,TN,1478194177000,19997487
193290053,Spring Hill,,1473038380000,35.76,-86.88,Franchise M Clayton,TN,1473038380000,19997487
205016787,Murfreesboro,,1465231631000,35.78,-86.33,Freddie Howard ,TN,1465868664000,19997487
200927751,Brentwood,,1464610917000,36.0,-86.79,G W Rudy,TN,1499024409000,19997487
204671827,Nashville,Nashville,1501108933000,36.13,-86.8,Gabriel Rowe,TN,1505742282000,19997487
4169858,Nashville,Nashville,1464905593000,36.17,-86.72,Gaines Kergosien,TN,1492888189000,19997487
208429247,Mount Pleasant,Nashville,1467742314000,32.82,-79.85,Garrett Vangilder,SC,1488853658000,19997487
218941484,Portland,,1483145600000,36.57,-86.49,Garry Lueng,TN,1483145600000,19997487
9773633,Nashville,,1481040132000,36.11,-86.78,Gary Dempsey,TN,1485548546000,19997487
210762515,Nashville,,1472426710000,36.17,-86.78,Gary Duff,TN,1507846036000,19997487
198608782,Mount Juliet,,1466882584000,36.22,-86.52,Gary Warburton,TN,1467761032000,19997487
37854602,Nashville,,1501171401000,36.16,-86.79,Gayla Hall,TN,1508772603000,19997487
120303082,Brentwood,,1485641238000,36.0,-86.79,Gerald A. Wakefield,TN,1500503622000,19997487
93428882,La Vergne,La Vergne,1498938561000,36.01,-86.57,Gilbert Diaz,TN,1504561629000,19997487
54477282,Nashville,,1489172351000,36.17,-86.78,Glenn Kersting,TN,1489172351000,19997487
220723714,Nashville,,1493748041000,36.17,-86.78,Greg,TN,1493748041000,19997487
206925673,Nashville,,1465675897000,36.17,-86.78,Greg Johnson,TN,1465675897000,19997487
20619321,Nashville,,1501683507000,36.17,-86.79,Greg Lawrence,TN,1508097646000,19997487
186434292,Nashville,,1472060803000,36.18,-86.74,Greg Overman,TN,1472060803000,19997487
139811722,Nashville,,1490818526000,36.17,-86.78,Greta M.,TN,1508799870000,19997487
43237102,Nashville,Nashville,1504807872000,36.11,-86.86,Hameed Gifford,TN,1504848909000,19997487
194219253,Smyrna,"Nashville, TN",1464550177000,35.97,-86.51,Harrison Pickett,TN,1464550177000,19997487
218816696,Nashville,,1484008571000,36.13,-86.8,Heather,TN,1508282401000,19997487
199371759,Nashville,,1471877148000,36.16,-86.79,Herdi Rahman,TN,1472911154000,19997487
11149110,Clarksville,Clarksville,1484957926000,36.53,-87.35,Hieu,TN,1489964791000,19997487
183538986,Nashville,,1464361540000,36.17,-86.78,Hillary,TN,1471440424000,19997487
202461935,Murfreesboro,,1465826460000,35.87,-86.44,Hunter W,TN,1465832449000,19997487
234043750,Nashville,,1502741419000,36.16,-86.79,IB Sobayo,TN,1502741419000,19997487
168579262,Nashville,,1489958537000,36.11,-86.86,Isaac  Van Name,TN,1503538592000,19997487
208139980,Nashville,,1467340331000,36.17,-86.78,Isaac Saffold,TN,1467340331000,19997487
206542079,Nashville,,1476151771000,36.17,-86.78,Isaac Weber,TN,1498765072000,19997487
208431873,Nashville,,1467745184000,36.14,-86.74,J. Zackary Repass,TN,1506559345000,19997487
198793707,Nashville,,1472675751000,36.08,-86.72,Jack Mocherman,TN,1479142997000,19997487
206685765,Antioch,,1465346656000,36.04,-86.64,Jack Wiese,TN,1477157692000,19997487
197405466,Nashville,,1465052997000,36.17,-86.72,Jacob,TN,1469566483000,19997487
11007702,Los Angeles,,1491364848000,33.99,-118.43,Jacob Nguyen,CA,1491364848000,19997487
217253373,Los Angeles,,1486845023000,34.0,-118.42,Jagan Jai,CA,1486845023000,19997487
206693904,Nashville,,1465519998000,36.17,-86.78,Jai,TN,1465519998000,19997487
9370040,Franklin,"Elizabethton, TN",1487997435000,35.92,-86.89,James Grindstaff,TN,1488084953000,19997487
232598647,Nashville,,1502223577000,36.18,-86.74,James Mitchell,TN,1506443823000,19997487
211585840,Nashville,,1472047718000,36.17,-86.78,James Tonkin,TN,1505995404000,19997487
217619289,Nashville,,1480720262000,36.17,-86.78,James West,TN,1499458504000,19997487
13348144,Nashville,,1480456674000,36.17,-86.78,James Wier,TN,1481066934000,19997487
183937030,Nashville,,1464580385000,36.17,-86.78,Jamie Bedgood,TN,1471436021000,19997487
6423945,Huntsville,,1472184385000,34.73,-86.57,Janaye,AL,1472184385000,19997487
216466935,Nashville,,1484870335000,36.17,-86.78,Janelle Zorvan,TN,1499364562000,19997487
222899804,Nashville,,1488302926000,36.17,-86.78,Jaquelin,TN,1488302926000,19997487
217464856,Nashville,,1480454443000,36.17,-86.78,Jared Fuller,TN,1504222053000,19997487
208440190,Nashville,Nashville,1467754545000,36.09,-86.82,Jason Bates,TN,1471809520000,19997487
207198134,Nashville,,1466040962000,36.11,-86.78,Jason Gresalfi,TN,1496611401000,19997487
206340673,Murfreesboro,,1464896230000,35.87,-86.44,Jason R. Thompson,TN,1464896230000,19997487
234791945,Nashville,Nashville,1503584087000,36.13,-86.8,Jason Rial,TN,1506004768000,19997487
4611657,Nashville,Nashville,1464703018000,36.11,-86.86,Jason Weakley,TN,1504219073000,19997487
207867222,Nashville,,1466974390000,36.17,-86.78,Jay Lupp,TN,1466974390000,19997487
215017510,Hermitage,,1476586784000,36.19,-86.6,Jay Rummage,TN,1505833507000,19997487
226517962,Cookeville,,1495249074000,36.2,-85.52,Jay Watson,TN,1495839882000,19997487
3205027,Nashville,Charlotte,1464801666000,36.17,-86.78,Jeff,TN,1477283540000,19997487
230441418,Nashville,,1500672597000,36.18,-86.81,Jeff Hammond,TN,1500672597000,19997487
135733652,Ashland City,Pleasureville,1471023715000,36.28,-87.07,Jeffrey Druin,TN,1471023715000,19997487
69235212,Nashville,,1504295021000,36.17,-86.78,Jenna,TN,1504295021000,19997487
199384153,Nashville,,1505746742000,36.17,-86.79,Jennifer Lawson,TN,1507844280000,19997487
213239717,Columbia,,1474260302000,35.61,-87.05,Jeremie Modine,TN,1474260302000,19997487
12307860,Nashville,Chicago,1484303992000,36.15,-86.79,Jeremy,TN,1506692449000,19997487
14486634,Nashville,"San Diego, CA",1467221691000,36.17,-86.78,Jeremy Landi,TN,1480731113000,19997487
219673476,Nashville,,1484077408000,36.16,-86.79,Jeremy Pitt,TN,1484077408000,19997487
212936502,Nashville,,1473868960000,36.08,-86.72,Jeremy Wink,TN,1492530367000,19997487
226749171,Nashville,,1493651985000,36.17,-86.78,Jerry Heath,TN,1493651985000,19997487
197528877,Nashville,,1465589130000,36.17,-86.78,Jess,TN,1465589130000,19997487
222906709,Nashville,,1501024345000,36.17,-86.78,Jessica,TN,1507727876000,19997487
232126237,Murfreesboro,,1500427506000,35.78,-86.33,Jevon,TN,1500427506000,19997487
182965836,Murfreesboro,Murfreesboro,1504721387000,35.82,-86.45,Jevon Thomas,TN,1504880302000,19997487
189900217,Antioch,,1481310128000,36.04,-86.64,Jimmy T. Perry,TN,1484805560000,19997487
182372032,Nashville,,1498482962000,36.17,-86.78,Jiovanni,TN,1508783872000,19997487
229710858,Franklin,,1497971686000,35.92,-86.89,Joe Colstad,TN,1497971686000,19997487
157045372,Charleston,,1464995970000,38.35,-81.63,Joe Hatcher,WV,1464995970000,19997487
181457472,Nashville,"Erie, PA",1467592947000,36.17,-86.78,Joe Mifsud,TN,1467592947000,19997487
33016112,Buffalo,,1500039283000,42.9,-78.88,Joel,NY,1500748093000,19997487
217160398,Nashville,,1479910495000,36.17,-86.78,Joel Legg,TN,1494272491000,19997487
2180758,Murfreesboro,Murfreesboro,1465657579000,35.87,-86.44,Joey,TN,1466190992000,19997487
12578146,Nashville,,1503202940000,36.13,-86.8,Joey Krabacher,TN,1503202940000,19997487
193368891,Murfreesboro,"Murfreesboro, TN ",1469552606000,35.78,-86.33,Joey Turner,TN,1487816453000,19997487
192558134,Lebanon,,1464920988000,36.21,-86.29,Johan Stodberg,TN,1501536212000,19997487
7333165,Charlottesville,,1508182449000,38.04,-78.52,John,VA,1508182449000,19997487
114279782,Nashville,Doylestown,1464649137000,36.16,-86.79,John,TN,1483820485000,19997487
198073317,Nashville,Lakeland,1489800687000,36.13,-86.8,John,TN,1492887567000,19997487
86901922,Nashville,"Little Rock, AR",1469204698000,36.18,-86.74,John Achor,TN,1506453094000,19997487
235842815,Nashville,,1504746418000,36.17,-86.78,John Bransford,TN,1504746418000,19997487
205958098,Nashville,,1464358201000,36.08,-86.72,John Henry Green Jr.,TN,1489820167000,19997487
185330434,Clarksville,,1470107451000,36.56,-87.41,John Kreischer,TN,1494354376000,19997487
125677922,Nashville,Nashville,1464569314000,36.17,-86.78,John Liu,TN,1508285437000,19997487
59013012,Nashville,,1465915922000,36.17,-86.78,John Wise,TN,1496243207000,19997487
224376384,Nashville,,1490375581000,36.17,-86.78,Johnie Waddell,TN,1493856394000,19997487
183038426,Nashville,Nashville,1505916266000,36.21,-86.72,Jon,TN,1508716530000,19997487
206403963,Nashville,,1464983836000,36.17,-86.78,Jonathan H.,TN,1494613934000,19997487
211778965,Nashville,,1482957952000,36.16,-86.79,Jonathon Johnson,TN,1482957952000,19997487
221531396,Franklin,,1486419601000,35.92,-86.89,Jono Krawczyk,TN,1486439096000,19997487
212764291,La Vergne,,1473646611000,36.01,-86.57,Jordan Dodson,TN,1498429307000,19997487
44882152,Nashville,Nashville,1483501591000,36.18,-86.74,Jordan Nelson,TN,1492450069000,19997487
212809286,Nashville,,1473705693000,36.17,-86.78,Jordan Speller,TN,1478001059000,19997487
110489102,Nashville,,1484177459000,36.17,-86.78,Joseph Banta,TN,1508094405000,19997487
71854632,Franklin,,1464528972000,35.92,-86.89,Joseph Wichman,TN,1504960083000,19997487
10008747,Nashville,,1493479076000,36.17,-86.78,Josh,TN,1493479076000,19997487
231851315,Nashville,,1501165821000,36.17,-86.78,Josh Gallardo,TN,1504069080000,19997487
223573820,Nashville,,1489262053000,36.18,-86.74,Josh Holly,TN,1489262053000,19997487
197424987,Antioch,Antioch,1464536679000,36.04,-86.64,Josh Kilgore,TN,1508699377000,19997487
220289486,Nashville,,1490207668000,36.17,-86.78,Josh White,TN,1508508854000,19997487
229914179,Nashville,,1500748603000,36.08,-86.72,Joshua Cooley,TN,1508551031000,19997487
157248622,Nashville,,1474470524000,36.16,-86.79,Juan Job,TN,1474470524000,19997487
3562568,Montréal,"Lowell, MA",1480968732000,45.65,-73.5,Julia,QC,1480968732000,19997487
221934301,Nashville,,1504107294000,36.11,-86.86,Juliet Sepulveda,TN,1504721339000,19997487
194282886,Nashville,,1468436624000,36.17,-86.78,Justin Adams,TN,1468597603000,19997487
221374087,Spring Hill,Nashville,1486218846000,35.76,-86.88,Justin Barr,TN,1490549656000,19997487
216332251,Provo,,1479232025000,40.26,-111.62,Justin Billings,UT,1479232025000,19997487
197420635,Murfreesboro,,1464640154000,35.78,-86.33,Justin Green,TN,1494621724000,19997487
172429262,Nashville,,1508188604000,36.18,-86.81,Kanchan,TN,1508188604000,19997487
200487104,Nashville,Nashville,1481837357000,36.17,-86.78,Kanesha Patterson,TN,1500078338000,19997487
191106824,Nashville,,1476202631000,36.17,-86.78,Kara Fulgum,TN,1488212725000,19997487
60195472,Nashville,Nashville,1486906320000,36.08,-86.72,Karthik Kornalies,TN,1497124871000,19997487
208569099,Nashville,,1507731855000,36.17,-86.78,Kassie Briggs,TN,1507731855000,19997487
194426354,Nashville,,1470221001000,36.11,-86.86,Kate Lovett,TN,1498836879000,19997487
224815299,Nashville,,1490985553000,36.17,-86.78,Kathleen Allen,TN,1490985553000,19997487
9162674,Nashville,,1491877054000,36.15,-86.85,Kathy,TN,1501089915000,19997487
180588862,Nashville,,1465481944000,36.11,-86.78,Kayla  Turner,TN,1465481944000,19997487
219201662,Murfreesboro,,1483487149000,35.87,-86.44,Kayla Brewer,TN,1493922657000,19997487
229895662,Nashville,,1497718763000,36.16,-86.79,Kayula Kaonga,TN,1497718763000,19997487
215211988,Nashville,,1476862043000,36.14,-86.74,KDrama Paradise,TN,1476862043000,19997487
56997982,Nashville,"Springfield, IL",1479744648000,36.08,-86.72,Keegan Singh,TN,1496110590000,19997487
98454472,Brooklyn,,1465062532000,40.7,-73.99,Keheira,NY,1485797791000,19997487
206909475,Nashville,,1465657984000,36.15,-86.86,Keith Corliss,TN,1465657984000,19997487
233247962,Nashville,,1501822328000,36.06,-86.96,Kellee Cunningham López,TN,1503524594000,19997487
103456692,New York,,1490799211000,40.75,-73.99,Kelly Rae Aldridge,NY,1492061570000,19997487
207876207,Hickman,,1466984446000,36.11,-85.91,Kenny,TN,1466984446000,19997487
225709218,Nashville,,1492231126000,36.17,-86.78,Kenny Hearn,TN,1495413971000,19997487
218216386,Nashville,,1481771113000,36.17,-86.78,Kent Moreland,TN,1481771113000,19997487
202224239,Nashville,,1464635613000,36.15,-86.86,Kevin Liu,TN,1465770075000,19997487
197335395,Nashville,,1483912622000,36.09,-86.82,Kevin Pointer,TN,1494437445000,19997487
3016909,Nashville,Nashville,1466775047000,36.15,-86.86,Kim L.,TN,1466781104000,19997487
238169671,Antioch,,1507223595000,36.17,-86.88,"Kimberly ""Brownie"" Vaughn",TN,1507223595000,19997487
49863072,Hermitage,,1476284431000,36.19,-86.6,kiran,TN,1489153680000,19997487
217394664,Nashville,,1480345567000,36.17,-86.78,KirkDev,TN,1483837292000,19997487
232981847,Nashville,,1501502464000,36.17,-86.78,Kirsten Grimes,TN,1501502464000,19997487
225609681,Nashville,,1492106922000,36.18,-86.74,Krashnaegoivic Prensky,TN,1492106922000,19997487
199743108,Clarksville,,1466102530000,36.49,-87.23,Kris Raves,TN,1466102530000,19997487
206735625,Nashville,,1465413797000,36.08,-86.71,Krish,TN,1465413797000,19997487
216682825,Nashville,,1480516861000,36.17,-86.78,krishnapriya sivasubramanian,TN,1487600549000,19997487
125459442,Nashville,Nashville,1502723513000,36.21,-86.72,Kristin,TN,1508253013000,19997487
91685282,Brentwood,Denver,1464664269000,36.0,-86.79,kristin brogaard,TN,1507129712000,19997487
11028407,Nashville,,1469812400000,36.18,-86.74,Kristin McKinney,TN,1473358159000,19997487
215873093,Antioch,,1477875035000,36.04,-86.64,Kristina Jackson,TN,1477875035000,19997487
98323362,Nashville,,1478011879000,36.16,-86.79,Krystal,TN,1478011879000,19997487
150021832,Nashville,Nashville,1467827806000,36.08,-86.72,Kyle Ducharme,TN,1467827806000,19997487
208609523,Nashville,,1467985677000,36.21,-86.72,Kyle Reynolds,TN,1467985677000,19997487
130651192,Hermitage,Nashville,1471300742000,36.19,-86.6,Kyle T,TN,1471300742000,19997487
7979701,Brentwood,"Riverside, CA",1469479811000,36.0,-86.79,Landon Hale,TN,1508092924000,19997487
214938313,Murfreesboro,,1476472178000,35.87,-86.34,LaRhonda ,TN,1476472178000,19997487
223405104,Antioch,Nashville ,1504841405000,36.04,-86.64,LaRica Brady,TN,1505223070000,19997487
239328982,Nashville,,1508515268000,36.17,-86.78,Larry,TN,1508515268000,19997487
31289192,Nashville,Tampa,1467832312000,36.17,-86.78,Lauren Kight,TN,1468212558000,19997487
219623607,Pittsburgh,,1485342562000,40.45,-79.98,Lauren Nicholson,PA,1485342562000,19997487
176164622,Nashville,,1465989205000,36.17,-86.78,Lawren Lelko,TN,1495822229000,19997487
50540702,Nashville,,1483485263000,36.17,-86.78,Lea Camara,TN,1500402358000,19997487
217829252,Antioch,,1481250457000,36.17,-86.88,LeAndra Richardson,TN,1483339560000,19997487
197779420,Nashville,,1464643000000,36.08,-86.72,Leanna Myers,TN,1472522413000,19997487
210561896,Nashville,,1472680099000,36.17,-86.78,Leisa,TN,1472917434000,19997487
136015092,Nashville,"Moundville, Alabama",1464279321000,36.16,-86.79,Lena Mills,TN,1464279321000,19997487
101443692,Nashville,"Ebenezer, Mississippi",1490638143000,36.11,-86.86,Leo Paul,TN,1492965921000,19997487
210329373,Lafayette,,1470255062000,36.52,-86.02,leslie law,TN,1472583691000,19997487
23229581,Nashville,,1470229313000,36.17,-86.78,Lifeavinash,TN,1501007236000,19997487
117370442,Nashville,Nashville,1498191866000,36.17,-86.78,Lina Mikhaylichenko,TN,1502682953000,19997487
223690505,Nashville,,1489422730000,36.13,-86.8,Lindsay Conlin,TN,1489422730000,19997487
3098530,Nashville,"Memphis, TN",1465917776000,36.08,-86.72,Lisa French,TN,1480346910000,19997487
185116552,Nashville,,1464644535000,36.17,-86.72,Lisa R.,TN,1483916582000,19997487
216326076,Spring Hill,,1478573133000,35.76,-86.88,Liz Peterson,TN,1479087214000,19997487
55581682,Nashville,,1502401958000,36.09,-86.82,Lola Simpson,TN,1503082909000,19997487
86834002,Clarksville,"Memphis, TN",1478962978000,36.53,-87.35,Lorenzo Preston,TN,1478962978000,19997487
229335733,Bowling Green,,1497337702000,37.02,-86.46,Lucas Gray,KY,1497337702000,19997487
191272189,Nashville,Nashville,1480720254000,36.11,-86.86,Lucas McLaughlin,TN,1507230254000,19997487
225412049,Nashville,,1498090710000,36.17,-86.78,Luis Chunga,TN,1508082464000,19997487
217220069,Nashville,,1502380863000,36.17,-86.78,Luis Lopez,TN,1502380863000,19997487
217015446,Brentwood,,1502221879000,36.0,-86.79,Luke,TN,1508699679000,19997487
212722637,Nashville,,1473599869000,36.16,-86.79,Lynn,TN,1473603485000,19997487
210366603,Nashville,,1470312713000,36.17,-86.78,Madison,TN,1470503456000,19997487
239513469,Nashville,,1508722468000,36.09,-86.82,Madison Ray,TN,1508722468000,19997487
216781278,Murfreesboro,,1479501616000,35.85,-86.36,Mahir,TN,1479501616000,19997487
217142070,Nashville,,1497818719000,36.17,-86.78,Mallory Eaton,TN,1502375873000,19997487
216371152,Nashville,,1478646705000,36.16,-86.79,Mandy Robinson Walley,TN,1478646705000,19997487
214899808,Nashville,,1476410539000,36.13,-86.67,Manoj,TN,1476410539000,19997487
113218182,Nashville,,1474064911000,36.1,-86.72,Manoja ,TN,1474064911000,19997487
81213252,Franklin,,1492178852000,35.96,-86.89,Manuel Izturriaga,TN,1492178852000,19997487
211551704,Nashville,Palo Alto,1474124967000,36.15,-86.86,Marcus Gill,TN,1483497520000,19997487
236163083,Nashville,,1506187899000,36.07,-86.73,Marcus Jones,TN,1508276311000,19997487
210189290,Nashville,,1470065016000,36.17,-86.78,Marian Rushdy,TN,1471900905000,19997487
145700692,Cambridge,Boston,1480187141000,42.37,-71.1,Marijke Kylstra,MA,1480187141000,19997487
10774119,Fayetteville,"Huntsville, Al",1471614005000,35.15,-86.57,mark ,TN,1508091712000,19997487
202971281,Knoxville,,1469378780000,35.92,-84.1,Mark Carringer,TN,1508123186000,19997487
210640064,Spring Hill,"Appleton, WI",1480718830000,35.76,-86.88,Mark S,TN,1507387394000,19997487
191272888,Brentwood,,1468969469000,36.0,-86.79,Martin Cross,TN,1468969469000,19997487
221212756,Nashville,,1486024005000,36.17,-86.78,Martynas Šustavi?ius,TN,1486024005000,19997487
102863442,Franklin,"Whites Creek, TN",1464893209000,35.92,-86.89,Mary Kergosien,TN,1493313045000,19997487
185870499,Nashville,Leitchfield,1464794230000,36.17,-86.72,Mason Embry,TN,1507638393000,19997487
210638960,Murfreesboro,,1473709669000,35.78,-86.33,Matt,TN,1473709669000,19997487
188530638,Nashville,,1464834867000,36.17,-86.78,Matt Brown,TN,1464834867000,19997487
204239424,Nashville,,1491665135000,36.17,-86.79,Matt Bruton,TN,1492247848000,19997487
208430481,Nashville,,1467986461000,36.17,-86.78,Matt Hamil,TN,1495820359000,19997487
157020682,Nashville,,1482078291000,36.17,-86.78,Matt Kasle,TN,1482078291000,19997487
203818557,Nashville,,1467681606000,36.22,-86.77,Matt Kraatz,TN,1482037470000,19997487
213152508,Nashville,,1477347384000,36.09,-86.82,Matt L,TN,1497916356000,19997487
101608842,Roswell,,1495895352000,34.03,-84.31,Matt Trask,GA,1508259581000,19997487
207322737,Mount Juliet,,1466220053000,36.22,-86.52,Matt Woods,TN,1468949962000,19997487
183023248,Brentwood,,1503674451000,36.0,-86.79,Matthew A. Overlund,TN,1503674451000,19997487
220421489,Nashville,,1485375766000,36.14,-86.74,Matthew McGarvey,TN,1503837805000,19997487
231811338,Dickson,,1500722325000,36.08,-87.43,mattm,TN,1503510330000,19997487
87675622,Nashville,,1481121916000,36.17,-86.78,matty gilmore,TN,1485634134000,19997487
175363892,Nashville,,1480794014000,36.17,-86.78,Mechelle Wichman,TN,1480794014000,19997487
208431390,Nashville,,1467827014000,36.17,-86.78,Meg Ducharme,TN,1484261268000,19997487
210326556,Nashville,,1499371045000,36.11,-86.78,Meg Scholl,TN,1506105850000,19997487
200513700,Nashville,"Nashville, TN",1504099422000,36.18,-86.74,Megan Brown,TN,1508294966000,19997487
208991302,Nashville,,1496250676000,36.09,-86.82,Megan McGuire,TN,1497986504000,19997487
207560857,Hendersonville,,1484008414000,36.32,-86.61,Meghan Debity,TN,1490559854000,19997487
214116347,Nashville,Nashville,1508424915000,36.11,-86.78,Meredith Broadway,TN,1508424915000,19997487
207155494,Hermitage,,1465986724000,36.19,-86.6,Micah Jorgensen,TN,1465986724000,19997487
161965822,Nashville,,1502510184000,36.17,-86.78,Micah Vigeant,TN,1502510184000,19997487
5010820,Murfreesboro,,1490291179000,35.78,-86.33,Michael,TN,1507154832000,19997487
183799454,Franklin,La Vergne,1471362981000,35.92,-86.87,Michael,TN,1477959738000,19997487
185194476,Nashville,,1464699974000,36.17,-86.78,Michael B,TN,1465684953000,19997487
11288886,Brentwood,Brentwood,1482019444000,36.0,-86.79,Michael Burns,TN,1497917505000,19997487
204727318,Nashville,,1465565489000,36.11,-86.86,Michael C.,TN,1484694365000,19997487
71912792,Nashville,Nashville,1465160575000,36.17,-86.72,Michael Conrad,TN,1470446831000,19997487
208571752,Brentwood,,1467933327000,36.0,-86.79,Michael Frost ,TN,1467933327000,19997487
156736372,Hendersonville,Hendersonville,1499524044000,36.32,-86.61,Michael Hulet,TN,1499524044000,19997487
220663433,Hendersonville,,1485901997000,36.3,-86.62,Michael L,TN,1489252077000,19997487
199209760,Hendersonville,,1464571826000,36.32,-86.61,Michael M.,TN,1508756959000,19997487
229362387,Nashville,,1504734104000,36.14,-86.74,Michael Rodriguez,TN,1508512140000,19997487
57627822,Nashville,,1482001179000,36.13,-86.8,Michael Romero,TN,1484597566000,19997487
198128679,Nashville,,1480455395000,36.17,-86.72,michael tambornino,TN,1508129900000,19997487
151315052,Columbia,"Athens, AL",1464633780000,35.61,-87.05,Michael Tucker,TN,1498824043000,19997487
205860494,Franklin,,1465741086000,35.92,-86.89,Michele LeNoue-Newton,TN,1468716123000,19997487
46486792,Nashville,,1466169853000,36.17,-86.78,Michelle McManus,TN,1468690786000,19997487
194099532,Nashville,,1473189990000,36.17,-86.78,Mike Meadows,TN,1473189990000,19997487
193681740,Franklin,,1464625387000,35.92,-86.89,Mike Ulvila,TN,1466304301000,19997487
40845292,Nashville,nashville,1477089804000,36.06,-86.96,Miriam Rozenbaum,TN,1485748188000,19997487
184389351,Nashville,,1501092364000,36.11,-86.78,Mitchell Blom,TN,1508103177000,19997487
188989465,Franklin,Franklin,1474482853000,35.93,-86.81,Moiz,TN,1482001779000,19997487
238802649,Nashville,,1507908976000,36.16,-86.77,Moo Jin Oh,TN,1507908976000,19997487
217113701,Nashville,,1479831503000,36.17,-86.72,Mrz Kennetha Patterson,TN,1479831503000,19997487
128117352,Nashville,Nashville,1495631089000,36.18,-86.74,Nathan Butler,TN,1500475101000,19997487
235474428,Nashville,,1504366140000,36.14,-86.74,Nathan Center,TN,1504366140000,19997487
152011532,Smyrna,"Smyrna, TN",1465060624000,35.97,-86.51,Nathan Martinez,TN,1493834159000,19997487
225488721,Nashville,,1498578039000,36.17,-86.78,Nathan Ostrander,TN,1501188746000,19997487
215152839,Nashville,,1476779846000,36.17,-86.78,Nerilou Dela Cruz,TN,1495909085000,19997487
199435099,Madison,,1467817686000,36.26,-86.71,Nicholas Jeter,TN,1472337789000,19997487
233223011,Nashville,,1501811236000,36.17,-86.78,Nicholas Platt,TN,1501811236000,19997487
214688193,Nashville,,1487687871000,36.07,-86.73,Nick Chemsak,TN,1503323268000,19997487
187904554,Nashville,Nashville,1485226996000,36.08,-86.72,Nick Glover,TN,1486843948000,19997487
100851562,St. Petersburg,,1474125771000,59.93,30.32,Nicola Ryzhikov,,1474254112000,19997487
234168251,Franklin,,1502888055000,35.93,-86.81,Olivia Oetjens,TN,1502888055000,19997487
201640410,Nashville,Seattle,1474318347000,36.13,-86.8,Omar Peña,TN,1474318347000,19997487
113522242,Nashville,Valrico,1465136272000,36.16,-86.79,Osvaldo Gonzalez,TN,1501805767000,19997487
9800543,Nashville,,1499812552000,36.08,-86.72,Paul Shearer,TN,1503586660000,19997487
216550429,Nashville,,1483812690000,36.1,-86.66,Peggy Bertsch,TN,1503754979000,19997487
223451658,Nashville,,1489086777000,36.14,-86.74,Peter Garrido,TN,1489086777000,19997487
227042758,Nashville,,1498437078000,36.19,-86.8,Phil Paulk,TN,1500084987000,19997487
223421595,Nashville,,1489041629000,36.14,-86.74,Phil Varela,TN,1500170905000,19997487
184028419,Franklin,Hendersonville,1503195466000,35.93,-86.81,Phillip and Ritzy Pitts,TN,1507170588000,19997487
123992672,Murfreesboro,Miami,1464549070000,35.82,-86.45,Pierre ,TN,1477978470000,19997487
34219902,Franklin,,1473287258000,35.93,-86.81,Poonit,TN,1473287258000,19997487
214548728,Clarksville,,1475888810000,36.53,-87.35,RA Blair,TN,1475888810000,19997487
229375534,Nashville,,1497046211000,36.16,-86.79,Rachel Sanders,TN,1497046211000,19997487
213673539,Nashville,,1474822157000,36.17,-86.78,Randall Tillery,TN,1496604877000,19997487
175300482,Nashville,,1484345355000,36.16,-86.79,Rav,TN,1497937519000,19997487
226715160,Nashville,,1493602866000,36.14,-86.74,Reanna F.,TN,1493602866000,19997487
219727625,Nashville,,1485437343000,36.17,-86.78,Rebecca (Ruthie) Wilkerson,TN,1494525712000,19997487
91981922,Hendersonville,Nashville,1464639343000,36.32,-86.61,Rebecca Taylor,TN,1488089799000,19997487
188816818,Los Angeles,,1501240691000,33.97,-118.24,Reginald Grant,CA,1501240691000,19997487
206848046,Nashville,,1465569908000,36.17,-86.78,Ren Teagle,TN,1465569908000,19997487
10108476,Nashville,,1464642251000,36.17,-86.72,Renata ,TN,1468686632000,19997487
164319,Nashville,,1464638559000,36.17,-86.78,Ric,TN,1488100746000,19997487
17177591,Nashville,Atlanta,1497970100000,36.18,-86.81,Richard Rissanen,TN,1508430629000,19997487
71851852,Franklin,,1501186027000,35.92,-86.89,Rick Murdock,TN,1508708231000,19997487
44193692,Pleasant View,,1464647282000,36.38,-87.04,Robert,TN,1492889441000,19997487
216782860,Nashville,,1479307570000,36.17,-86.78,Robert Tortorelli,TN,1486392712000,19997487
233090389,Nashville,,1501805469000,36.17,-86.78,Robert Trone,TN,1501805469000,19997487
225188047,Nashville,Nashville,1492929574000,36.15,-86.86,Ron,TN,1501548432000,19997487
190227588,Franklin,,1464549836000,35.92,-86.89,Ron,TN,1485230300000,19997487
223687797,Nashville,,1489419412000,36.17,-86.78,Ronnie Hickman,TN,1489419412000,19997487
218287357,Nashville,,1495637828000,36.11,-86.78,Ruslan Mardugalliamov,TN,1503501060000,19997487
11827812,Asheville,Asheville,1467043493000,35.59,-82.56,Ryan ,NC,1507127730000,19997487
52175782,Nashville,,1464546753000,36.17,-86.78,Ryan Bliton,TN,1486851603000,19997487
14466241,Franklin,"Franklin, TN",1481584945000,35.92,-86.89,Ryan Goltry,TN,1488395910000,19997487
183564319,Nashville,,1481510180000,36.14,-86.8,Ryan Murray,TN,1506105529000,19997487
224609696,Atlanta,Nashville,1490698770000,33.88,-84.37,Ryan Nichols,GA,1495764789000,19997487
211271973,Nashville,,1471611957000,36.17,-86.78,Ryan Stubbs,TN,1471805679000,19997487
34208282,Nashville,,1475735782000,36.08,-86.72,Ryan Trebilcock,TN,1475735782000,19997487
233693712,Nashville,,1502416023000,36.08,-86.72,S. Graham,TN,1503509196000,19997487
225287724,Nashville,Nashville,1504623695000,36.08,-86.72,S. James Carter,TN,1505759368000,19997487
222281847,Brentwood,,1487444998000,36.0,-86.79,Saasha,TN,1506200413000,19997487
238149427,Gallatin,,1507202012000,36.39,-86.45,Sahara,TN,1507202012000,19997487
184328214,Nashville,,1472093146000,36.07,-86.78,Sammed M.,TN,1505913744000,19997487
221128997,Nashville,,1485912416000,36.17,-86.78,Sandeep Reddy,TN,1504140155000,19997487
102344122,Antioch,,1470760857000,36.04,-86.64,Sandy Brewer Jones,TN,1504205183000,19997487
209224665,Nashville,,1469967935000,36.08,-86.72,Sarah Ashley Christian,TN,1492742777000,19997487
114731852,Nashville,,1472823808000,36.15,-86.86,Sarah Ward,TN,1501533166000,19997487
238780733,Chandigarh,,1507881358000,30.75,76.78,saurav Sembhi,,1507881358000,19997487
212751839,Nashville,,1473633159000,36.08,-86.72,Scott Austin,TN,1473633159000,19997487
214397571,White House,,1475679437000,36.48,-86.69,Scott Fleming,TN,1485877016000,19997487
203277690,Antioch,,1471497775000,36.04,-86.64,Sean Davis,TN,1471528579000,19997487
161004522,Nashville,,1468095504000,36.1,-86.66,Sequina,TN,1468200994000,19997487
9648429,Nashville,New York City,1488829099000,36.15,-86.86,Seth Alexander,TN,1504884306000,19997487
216077353,Nashville,,1478200507000,36.17,-86.78,Shannon Miller,TN,1478200507000,19997487
10560415,Hyderabad,"Hyderabad, India",1495228647000,17.4,78.48,Shashi Jeevan M. P.,,1495912797000,19997487
204412550,Murfreesboro,,1483989478000,35.87,-86.44,Shaun Willis,TN,1500253518000,19997487
194381707,Nashville,Nashville,1479666122000,36.17,-86.78,Shawn,TN,1486094212000,19997487
196390199,Nashville,,1464704710000,36.16,-86.79,Shawn Cothran,TN,1507385851000,19997487
231083258,Nashville,,1499182522000,36.17,-86.72,Shekinah Christian,TN,1499182522000,19997487
224773931,Nashville,,1490919826000,36.13,-86.8,Sisco Garcia,TN,1490919826000,19997487
199539610,Nashville,,1482245111000,36.08,-86.72,Sorrel B.,TN,1486565545000,19997487
187689213,Nashville,,1475691407000,36.08,-86.72,Sourav Tarafdar,TN,1508333988000,19997487
211523160,Nashville,,1471962314000,36.17,-86.78,Spencer Smith,TN,1471962314000,19997487
211231637,Nashville,,1471549562000,36.17,-86.78,Stephanie Provence,TN,1475382355000,19997487
214391673,Nashville,,1475673276000,36.11,-86.86,Stephen P,TN,1475673276000,19997487
186351141,Nashville,,1469577567000,36.18,-86.74,Stephen Ziehr,TN,1504606945000,19997487
212593454,Nashville,,1483456334000,36.17,-86.78,Sterling,TN,1483456334000,19997487
217378572,Nashville,,1480313092000,36.17,-86.78,Steven Holmes,TN,1495472658000,19997487
212067514,Nashville,,1472706346000,36.17,-86.78,Steven Woods,TN,1472706346000,19997487
208561758,Nashville,,1467915372000,36.17,-86.78,Stuart Terry,TN,1471884124000,19997487
229104299,Franklin,,1496705291000,35.92,-86.89,Suresh Kumar Yatirajula,TN,1497915611000,19997487
231779693,Nashville,,1506465568000,36.17,-86.78,Tamela Lerma,TN,1506465568000,19997487
222065087,Nashville,,1487136683000,36.14,-86.74,Tarekegn Sisay,TN,1487136683000,19997487
120763452,Nashville,,1464644060000,36.13,-86.8,Tarry ,TN,1464644060000,19997487
213768028,Oak Grove,,1474935867000,36.68,-87.45,Tarshena Rodriguez,KY,1474935867000,19997487
211551769,Nashville,Nashville,1501538607000,36.18,-86.74,taylor,TN,1503949909000,19997487
228153255,Nashville,,1495497401000,36.09,-86.82,Taylor Johnson,TN,1495497401000,19997487
38298192,Nashville,,1488164951000,36.17,-86.78,Ted Pennington,TN,1492425794000,19997487
161375922,Nashville,,1479779199000,36.08,-86.7,Terrill Farmer,TN,1489360302000,19997487
206741469,Clarksville,,1465420843000,36.53,-87.35,Thomas,TN,1465420843000,19997487
212805064,Nashville,,1473704939000,36.17,-86.78,Thomas Fitzgerald,TN,1479427048000,19997487
42992672,Nashville,,1474822045000,36.16,-86.79,Tiffany Jordan,TN,1493781435000,19997487
192833454,Nashville,,1477091904000,36.08,-86.72,Tim,TN,1477091904000,19997487
187828500,Franklin,,1464637415000,35.92,-86.89,Tim,TN,1464652444000,19997487
13766608,Spring Hill,Gogona,1490456985000,35.76,-86.88,Tim Duncklee,TN,1491694204000,19997487
209738519,Franklin,,1470151318000,35.93,-86.81,Tim Enders,TN,1470151318000,19997487
227400254,Nashville,,1494546311000,36.17,-86.78,timoteo hernandez,TN,1507933164000,19997487
220705747,Nashville,,1487952411000,36.16,-86.79,Todd Broll,TN,1503760374000,19997487
222212836,Nashville,,1487351678000,36.11,-86.78,Tom Wilson,TN,1487351678000,19997487
209533227,Nashville,,1469190851000,36.07,-86.93,Tosh,TN,1471267377000,19997487
207974853,Nashville,,1467121581000,36.17,-86.78,Trae F.,TN,1467121581000,19997487
207042864,Antioch,,1486789061000,36.04,-86.64,Travis Dillard,TN,1486789061000,19997487
129133182,Franklin,,1504109799000,35.92,-86.89,Travis Shepherd,TN,1504975279000,19997487
186507146,Nashville,,1495817568000,36.17,-86.78,Travis Sondgerath,TN,1503694668000,19997487
138867992,Nashville,,1467028642000,36.17,-86.72,Trent Hand,TN,1508797375000,19997487
221180409,Nashville,,1485981532000,36.18,-86.81,Trevor Boren,TN,1485981532000,19997487
215319799,Antioch,Memphis,1478024422000,36.04,-86.64,Trevor Guinn,TN,1482270379000,19997487
208561446,Nashville,,1467915627000,36.17,-86.78,Tristan Greeno,TN,1467915627000,19997487
219586834,Nashville,,1486061508000,36.17,-86.78,Troy,TN,1503679948000,19997487
211309597,Fort Campbell,,1471663301000,36.65,-87.46,Tyler McKee,KY,1471663301000,19997487
194027075,Nashville,,1474512848000,36.08,-86.72,Uchenna Aguocha,TN,1486878023000,19997487
216962893,Murfreesboro,,1479589885000,35.85,-86.36,Ukela Alred,TN,1496158737000,19997487
180915702,Nashville,,1464875694000,36.22,-86.86,Veloria,TN,1464997678000,19997487
6932365,Franklin,Nashville,1464548685000,35.93,-86.81,Vicki Lea,TN,1497130131000,19997487
207118547,Nashville,,1483492387000,36.08,-86.72,Wesley Lewis,TN,1500740127000,19997487
202978621,Nashville,,1468974443000,36.1,-86.66,Whitney Mitchell,TN,1479130397000,19997487
206258071,Nashville,,1464784400000,36.06,-86.96,Will Gant,TN,1502279202000,19997487
204878170,Huntsville,Decatur,1464644027000,34.71,-86.61,Will Kirby,AL,1464644027000,19997487
48232882,Nashville,Nashville,1490328987000,36.16,-86.79,Will Ward,TN,1496267001000,19997487
229803064,Franklin,,1500417518000,35.92,-86.89,William Cummings Jr,TN,1501602191000,19997487
184996090,Nashville,,1464555564000,36.22,-86.77,William Moroney,TN,1464555564000,19997487
35147542,Franklin,"Franklin, TN",1506656922000,35.92,-86.89,william vablais,TN,1507605021000,19997487
207994183,Nashville,,1481571961000,36.17,-86.78,Woody Evins,TN,1482094799000,19997487
223039509,Nashville,,1491587076000,36.17,-86.78,Yasmine Mukahal,TN,1491587076000,19997487
235666269,Nashville,Franklin,1504653878000,36.15,-86.86,Yasser F,TN,1504653878000,19997487
229046254,Grand Bassam,,1496753970000,5.2,-3.75,Yousra Sana,,1497383679000,19997487
228718146,Nashville,,1496239102000,36.17,-86.78,Zach,TN,1496239102000,19997487
208048638,Nashville,,1483460747000,36.17,-86.78,Zach Benton,TN,1500324517000,19997487
213237301,Nashville,,1474256555000,36.17,-86.78,Zach Morse,TN,1505750591000,19997487
208987635,Nashville,,1480718124000,36.11,-86.86,Zach Parris,TN,1493999594000,19997487
214480697,Canton,,1476851899000,35.53,-82.84,Zachary Cline ,NC,1476851899000,19997487
183535235,Nashville,Flushing,1504193698000,36.17,-86.78,Zhenting Zhou,TN,1508723370000,19997487
23897412,Charlottesville,Charlottesvile,1479595410000,38.04,-78.52,Zoe ,VA,1496785449000,19997487
