id,city,hometown,joined,lat,lon,name,state,visited,group_id
209991491,Nashville,,1472649159000,36.17,-86.78, Moe,TN,1472596116000,20135961
205030771,Gallatin,,1507662207000,36.39,-86.45,A-Ray,TN,1504816744000,20135961
201306480,Nashville,,1507662205000,36.17,-86.78,Aaron,TN,1501461803000,20135961
230634461,Madison,,1498919718000,36.28,-86.72,Aaron Gatz,TN,1499397989000,20135961
223904371,Nashville,,1489818176000,36.17,-86.78,Abby Fletcher,TN,1496365890000,20135961
55051212,Nashville,,1486167163000,36.09,-86.82,Abigail Hammer,TN,1486009314000,20135961
209893741,Nashville,,1469655359000,36.14,-86.74,Abigail Hertz,TN,1491856711000,20135961
209568287,Smyrna,"Tullahoma, TN",1469301141000,35.97,-86.51,Adam,TN,1473469504000,20135961
11832553,Nashville,"Wichita, KS",1497062611000,36.11,-86.78,Adam Barnhard,TN,1496883255000,20135961
192942918,Antioch,"Nashville, TN",1491766300000,36.04,-86.64,Adrian Jordan,TN,1507732694000,20135961
214204840,Nashville,,1490605986000,36.17,-86.78,AJ Joy,TN,1490580213000,20135961
230982387,Nashville,,1507662205000,36.17,-86.78,AJ Serrano,TN,1500674173000,20135961
229978435,Franklin,,1498919717000,35.93,-86.81,Al Justice,TN,1498781661000,20135961
11872972,Nashville,,1498119762000,36.13,-86.8,Alan,TN,1507689370000,20135961
231762155,Nashville,,1507662205000,36.11,-86.86,Alan Pfeil,TN,1500494865000,20135961
224370268,Nashville,,1490373750000,36.14,-86.74,Alec Burris,TN,1490370594000,20135961
232035166,Nashville,,1507662204000,36.17,-86.78,Alejandro,TN,1500321995000,20135961
211734756,Lebanon,,1474867135000,36.21,-86.31,AleshaDawn,TN,1474603727000,20135961
235205260,Nashville,,1507662207000,36.17,-86.78,Alex,TN,1504065609000,20135961
223293250,Nashville,,1489219783000,36.13,-86.8,Alex,TN,1507716448000,20135961
124754232,Green Bay,,1507662204000,44.48,-88.02,Alex Acker,WI,1499979368000,20135961
221373602,Nashville,,1486628737000,36.07,-86.73,alex alhaj,TN,1486917253000,20135961
185790102,Nashville,Nashville,1470079069000,36.13,-86.8,Alex Boisvert,TN,1477930505000,20135961
156234132,Nashville,,1507662204000,36.17,-86.72,Alex Bolton,TN,1508444186000,20135961
228653262,Carthage,,1496698880000,36.26,-85.99,Alex Bray,TN,1496772381000,20135961
182757659,Brentwood,,1498119768000,36.0,-86.79,Alex Byerly,TN,1498131392000,20135961
146146052,Nashville,"Barnstead, NH",1483037918000,36.13,-86.8,Alex Dudley,TN,1482951191000,20135961
231471032,Nashville,,1507662204000,36.15,-86.86,Alex Hanflink,TN,1500003098000,20135961
217182567,Franklin,,1479953379000,35.93,-86.81,Alexander,TN,1479946255000,20135961
182537580,Tulsa,Tulsa,1481782156000,36.15,-95.95,Alexander Jackman,OK,1481656021000,20135961
191819003,Nashville,,1489305158000,36.17,-86.78,Alexander Swensen,TN,1489535057000,20135961
96789092,Nashville,michigan,1467829114000,36.19,-86.8,Alexandria Dobert,TN,1477168907000,20135961
180195342,Nashville,"Chattanooga, TN",1471961112000,36.17,-86.78,Aliah,TN,1471926527000,20135961
14601025,Nashville,"Kohtla-Yarve, Estonia",1467818190000,36.06,-86.96,Alina ,TN,1495507129000,20135961
201467485,Nashville,,1478830303000,36.17,-86.78,Alistair Peiris,TN,1490365827000,20135961
206071918,Clarksville,,1507662203000,36.56,-87.41,Allan,TN,1499179534000,20135961
224509856,Nashville,,1490605986000,36.17,-86.78,Allegheny Antelope,TN,1490652834000,20135961
205551607,Nashville,,1497728018000,36.04,-86.72,Allegra,TN,1497454798000,20135961
209247227,Franklin,,1469005842000,35.92,-86.89,Allen,TN,1473867912000,20135961
13653961,Nashville,Sterling,1479693910000,36.15,-86.72,Allie,TN,1479683221000,20135961
200052480,Nashville,,1472577892000,36.17,-86.78,Allison Krandall,TN,1473113721000,20135961
68010572,Brentwood,,1472145848000,36.0,-86.79,Alma Moreno,TN,1472091698000,20135961
47185942,Franklin,Cincinnati,1476683633000,35.91,-86.88,Alok,TN,1491885628000,20135961
207069934,Nashville,nolensville,1496698881000,36.08,-86.72,Alpa B Patel,TN,1496679861000,20135961
212972130,Murfreesboro,,1474347592000,35.78,-86.33,Alyssa Helkowski,TN,1502202825000,20135961
225793287,Nashville,,1492373559000,36.17,-86.78,Alyssa Lynn,TN,1497469981000,20135961
144957712,Murfreesboro,"Byron, IL",1491082535000,35.78,-86.33,Alyssa Pederson,TN,1499136245000,20135961
150902602,Nashville,,1489219783000,36.17,-86.78,Amanda,TN,1489021907000,20135961
187977438,Nashville,,1491504673000,36.17,-86.72,Amanda,TN,1495467317000,20135961
227976973,Nashville,,1496698878000,36.17,-86.78,Amanda,TN,1496785531000,20135961
234803891,Nashville,,1507662207000,36.11,-86.86,Amanda Bloom Gill,TN,1503597202000,20135961
197541214,Nashville,,1472577893000,36.14,-86.74,Amanda Busch,TN,1479177566000,20135961
200628849,Lebanon,,1477888377000,36.21,-86.31,Amanda Cecil,TN,1491104706000,20135961
14609135,Murfreesboro,,1496698879000,35.78,-86.33,Amanda Counce,TN,1497217346000,20135961
123233242,Nashville,,1467685921000,36.17,-86.78,Amanda G,TN,1467685735000,20135961
158196502,Clarksville,Clarksville,1472577893000,36.56,-87.41,Amanda H,TN,1480905608000,20135961
210493540,Nashville,,1471269338000,36.17,-86.78,Amanda Moberg,TN,1471304409000,20135961
201165678,Murfreesboro,,1471354178000,35.78,-86.33,Amanda Shields,TN,1484608257000,20135961
183178754,Nashville,,1467684322000,36.08,-86.72,Amber,TN,1478635953000,20135961
195649609,Nashville,,1478830303000,36.18,-86.81,Amber,TN,1495300285000,20135961
194376022,Nashville,,1471354178000,36.11,-86.78,Amber Sutphen,TN,1471342102000,20135961
190026711,Nashville,,1488405882000,36.08,-86.72,Amberlee' Brooks,TN,1500142017000,20135961
3965351,Nashville,"Stoughton, MA",1467675898000,36.09,-86.82,Amy,TN,1488474554000,20135961
207115310,Hopkinsville,Hopkinsville,1478667056000,36.87,-87.48,Amy,KY,1478455061000,20135961
137364272,Hendersonville,Hendersonville ,1490221560000,36.32,-86.61,Amy A,TN,1490101768000,20135961
143952032,Chattanooga,,1476683631000,35.04,-85.31,Amy Braswell,TN,1480777613000,20135961
12914861,Franklin,,1496698879000,35.92,-86.89,Amy Brinson,TN,1496022664000,20135961
235910104,Hendersonville,,1507662207000,36.32,-86.61,Amy Page,TN,1504839389000,20135961
126488972,Nashville,"Saint Louis, MO",1497728017000,36.17,-86.78,Andrea,TN,1497497790000,20135961
14674691,Nashville,,1488181986000,36.17,-86.78,Andrea,TN,1497480483000,20135961
188423385,Nashville,,1483138615000,36.17,-86.78,Andrea,TN,1485120241000,20135961
226532440,Nashville,,1496698879000,36.16,-86.79,Andrea Lambert,TN,1496014846000,20135961
214116153,Nashville,,1479940589000,36.06,-86.96,Andres Arcila Loaiza,TN,1483225283000,20135961
13587225,Nashville,Chicago,1469903181000,36.18,-86.74,Andrew,TN,1477761092000,20135961
218663340,Nashville,,1482732278000,36.17,-86.78,Andrew,TN,1484613695000,20135961
209308055,Nashville,,1468893246000,36.07,-86.73,Andrew,TN,1469739614000,20135961
206741636,Nashville,,1471545338000,36.17,-86.78,Andrew,TN,1498253847000,20135961
203894272,Nashville,,1467778920000,36.11,-86.86,Andrew B,TN,1488600936000,20135961
125908132,Nashville,,1468314577000,36.09,-86.82,Andrew Ball,TN,1497855365000,20135961
230969802,Nashville,,1507662203000,36.08,-86.72,Andrew Daniel Cates,TN,1499041602000,20135961
194892095,Franklin,,1470404276000,35.92,-86.89,Andrew Franklin,TN,1482681926000,20135961
10340385,Nashville,Nashville,1472577893000,36.17,-86.72,Andrew Joseph Okeke,TN,1497686527000,20135961
222038970,Rockwood,,1487224822000,35.86,-84.68,Andrew Watson,TN,1489969684000,20135961
227319008,Fort Campbell,,1494836459000,36.65,-87.46,Andrew Yon,KY,1494716580000,20135961
12727915,Knoxville,Knoxville,1484436254000,35.92,-83.88,Andy,TN,1484422279000,20135961
229319103,Nashville,,1497408539000,36.17,-86.78,andy dsouza,TN,1497400708000,20135961
182732621,Nashville,,1507662190000,36.16,-86.79,Andy Ekelem,TN,1508212824000,20135961
229022849,Murfreesboro,,1496698881000,35.87,-86.44,Andy Metz,TN,1508510450000,20135961
216999149,Asheville,,1497728018000,35.59,-82.5,Andy Sullivan,NC,1497649986000,20135961
186963152,Nashville,"Columbia, TN",1507662208000,36.07,-86.72,Angela McCuiston,TN,1506213641000,20135961
11205213,Nashville,Mount Juliet,1477888377000,36.22,-86.77,Anh,TN,1490272604000,20135961
223615387,Nashville,,1496698880000,36.17,-86.78,anjali Venkataraman,TN,1500857809000,20135961
158002952,Franklin,Franklin,1470171779000,35.92,-86.89,Anna,TN,1484714921000,20135961
211357154,Nashville,NA,1488181986000,36.18,-86.81,Anna Forde,TN,1497289441000,20135961
207573442,Nashville,"Nashville, TN",1470088008000,36.11,-86.78,Anna Kelley,TN,1470612431000,20135961
224077245,Nashville,,1490221560000,36.13,-86.8,Anne Carney,TN,1490221571000,20135961
200198096,Nashville,,1496698881000,36.17,-86.78,Anneke,TN,1496518220000,20135961
10950406,Nashville,,1491882576000,36.13,-86.8,Annie Allsup,TN,1496023578000,20135961
223884203,Nashville,,1489818176000,36.07,-86.73,Anthony Easterwood,TN,1495991948000,20135961
221871047,Nashville,,1507662204000,36.13,-86.67,Antonio C.,TN,1500292122000,20135961
223093086,Nashville,,1488755391000,36.17,-86.78,April,TN,1488573171000,20135961
192501596,Murfreesboro,,1507662206000,35.82,-86.45,April Faircloth Collier,TN,1503019960000,20135961
185163269,Nashville,,1507662206000,36.17,-86.78,April T,TN,1507691569000,20135961
217672928,Nashville,,1507662208000,36.15,-86.81,Ariel Witman,TN,1505238514000,20135961
110984762,Hendersonville,,1484197342000,36.32,-86.61,Artavia,TN,1484797328000,20135961
209786452,Nashville,,1469536723000,36.08,-86.72,Artin Harut Kazanchyan,TN,1472360546000,20135961
217666114,Franklin,,1480827160000,35.93,-86.81,Ary,TN,1496538322000,20135961
213204941,Nashville,,1476683632000,36.17,-86.78,Ashade Segun James,TN,1475800722000,20135961
102037312,Nashville,,1472577892000,36.17,-86.78,Ashley,TN,1472595177000,20135961
116107552,Hermitage,,1489305158000,36.19,-86.6,Ashley,TN,1489248603000,20135961
183356435,Nashville,,1481652394000,36.17,-86.78,Ashley Bradley,TN,1505763056000,20135961
220614626,Nashville,,1491703863000,36.07,-86.78,Ashley Canino,TN,1501556416000,20135961
218113293,Goodlettsville,,1507662204000,36.33,-86.74,Ashley Michele Morrow,TN,1508116910000,20135961
59654312,Nashville,,1507662208000,36.14,-86.74,Ashley Roberts,TN,1505326456000,20135961
77649082,Nashville,,1480121239000,36.26,-86.73,ashley w,TN,1480717151000,20135961
131810122,Franklin,Franklin,1469466223000,35.93,-86.81,Audrey,TN,1488427613000,20135961
132243972,Nashville,Nashville ,1493514508000,36.18,-86.81,Ayanna,TN,1495491827000,20135961
205433375,Nashville,,1469552814000,36.16,-86.79,Aziz F AlSaeed,TN,1473141109000,20135961
218124342,Old Hickory,,1483200149000,36.25,-86.63,Bailey Jones,TN,1485748597000,20135961
229381813,Nashville,,1497408539000,36.08,-86.72,Beatris Petelkova,TN,1497576340000,20135961
201881943,Nashville,,1472145848000,36.17,-86.78,Bekah,TN,1481832760000,20135961
233378946,Murfreesboro,,1507662206000,35.78,-86.33,Ben Batey,TN,1507845559000,20135961
191372870,Old Hickory,,1507662208000,36.25,-86.63,Ben Bracey,TN,1506086545000,20135961
89916792,Nashville,,1487543357000,36.17,-86.78,Ben Purer,TN,1507660751000,20135961
79169072,Clarksville,,1507662189000,36.53,-87.35,Benjamin Bowe,TN,1507664522000,20135961
89184012,Nashville,Norristown,1498119745000,36.17,-86.78,Benji  Perry,TN,1499901432000,20135961
189321985,Nashville,,1507662205000,36.15,-86.86,Beth,TN,1500841249000,20135961
199937414,Murfreesboro,,1488181986000,35.87,-86.44,Beth Boyce,TN,1488838265000,20135961
118100402,Hendersonville,Huntsville,1507662204000,36.32,-86.61,Bethany Boyer,TN,1499900975000,20135961
54698892,Nashville,Nashville,1467753742000,36.17,-86.72,Bill,TN,1467753590000,20135961
82204922,Nashville,"Smyrna, TN",1482256981000,36.17,-86.79,BJ Burns,TN,1482693520000,20135961
227530431,Pulaski,,1497728018000,35.19,-87.03,Blake Marks,TN,1497777802000,20135961
194057278,Clarksville,,1498119741000,36.53,-87.35,Bobby,TN,1502581353000,20135961
13046100,Nashville,,1507662206000,36.17,-86.78,Bonnie,TN,1508037182000,20135961
198303784,Mount Juliet,,1469552814000,36.22,-86.52,Brad Hughes,TN,1469806516000,20135961
204017861,Mount Juliet,,1491703863000,36.21,-86.52,Brad Hughes,TN,1503241443000,20135961
188304007,Nashville,,1478667056000,36.15,-86.79,Brad S,TN,1508159160000,20135961
140876922,Madison,,1488181986000,36.27,-86.72,BradH,TN,1488409520000,20135961
226393774,Nashville,,1507662194000,36.08,-86.72,Bradley Riddell,TN,1499028660000,20135961
145097032,Nashville,,1474867135000,36.17,-86.78,Brandi Bruner,TN,1474878575000,20135961
218006149,Nashville,,1481782156000,36.17,-86.78,Brandi LaShell,TN,1501590592000,20135961
2632219,Clarksville,West Yarmouth,1467721527000,36.53,-87.35,Brandon,TN,1479583215000,20135961
224838960,Nashville,,1493430816000,36.1,-86.66,Brandon,TN,1508272753000,20135961
7679879,Murfreesboro,,1493763691000,35.87,-86.44,Brandon Clanton,TN,1493766742000,20135961
229458694,Nashville,,1497230401000,36.17,-86.78,Brandon Donovan,TN,1508048168000,20135961
197571887,Nashville,Atlanta,1497230401000,36.11,-86.86,Brandon H,TN,1498080586000,20135961
233205051,Gallatin,,1507662208000,36.39,-86.45,Brandon Holland,TN,1505803968000,20135961
3029194,Nashville,,1485800117000,36.18,-86.79,Breanna Suess,TN,1485742626000,20135961
133355872,Nashville,,1473992980000,36.17,-86.78,Bree,TN,1475079016000,20135961
182588103,Murfreesboro,,1478957011000,35.78,-86.33,Bree,TN,1479597374000,20135961
214554892,Reynoldsburg,,1507662206000,39.96,-82.78,Brennan Wills,OH,1502092982000,20135961
202424309,Nashville,,1482256981000,36.11,-86.78,Brent ,TN,1487183106000,20135961
213918202,Nashville,,1476683631000,36.06,-86.96,Brent King,TN,1475121213000,20135961
220023560,Hendersonville,,1484965718000,36.32,-86.61,Brenton Robar,TN,1484965885000,20135961
215257978,Nashville,,1476989588000,36.15,-86.79,Brett Hansen,TN,1477356309000,20135961
209454272,Nashville,,1489305158000,36.17,-86.78,Bri Marie,TN,1489293444000,20135961
209963734,Nashville,,1471269338000,36.17,-86.78,Brian,TN,1475687811000,20135961
207506101,Nashville,,1469760557000,36.17,-86.78,Brian,TN,1492131642000,20135961
181356632,Cookeville,,1479444119000,36.2,-85.52,Brian J,TN,1482681823000,20135961
217136783,Clarksville,,1481557486000,36.53,-87.35,Brian Sinclair,TN,1488783530000,20135961
192227033,Nashville,Nashville,1486628737000,36.17,-86.78,Briana Buenzli,TN,1487567048000,20135961
77831762,Nashville,,1467882429000,36.17,-86.78,Brianna,TN,1472249271000,20135961
122666992,Nashville,,1507662207000,36.15,-86.68,Brieanna Davis-Little,TN,1504886710000,20135961
189813772,Nashville,,1498119754000,36.13,-86.8,Britni,TN,1497970811000,20135961
194902455,Clemson,,1496797098000,34.69,-82.82,Brittany ,SC,1497562597000,20135961
218976385,Nashville,,1485146306000,36.17,-86.78,Brittany,TN,1485636404000,20135961
211453644,Mount Juliet,,1472145848000,36.22,-86.52,Brittany Holman,TN,1472083381000,20135961
235008898,Mount Juliet,,1507662207000,36.22,-86.52,Brittany Merlin,TN,1503895637000,20135961
230713372,Nashville,,1498919718000,36.17,-86.78,Brittany Messner,TN,1498715760000,20135961
228380686,Nashville,,1507662206000,36.17,-86.78,Brittany Myers,TN,1508549357000,20135961
94179712,Hendersonville,,1487907386000,36.32,-86.61,Brittany Renee Bertoli,TN,1496839014000,20135961
214994714,Nashville,,1476683633000,36.06,-86.96,Brittany Williams,TN,1504534652000,20135961
104451692,Nashville,"Terre Haute, IN",1479344365000,36.14,-86.74,Brittney Jordan,TN,1498707717000,20135961
62051382,Murfreesboro,Murfreesboro,1507662207000,35.82,-86.45,Brooke W,TN,1503631094000,20135961
211658855,Nashville,,1472159280000,36.17,-86.78,Brooke Westphal,TN,1507636451000,20135961
59190862,Nashville,Nashville,1468848017000,36.15,-86.86,Bruce,TN,1471285255000,20135961
13579455,Nashville,,1478177927000,36.16,-86.79,Bruce Beckley,TN,1478040817000,20135961
173048852,Hendersonville,,1507662207000,36.32,-86.61,Bryan,TN,1503604226000,20135961
129122472,Antioch,,1490985762000,36.17,-86.88,Bryan Overbey,TN,1490965775000,20135961
209776200,Columbia,,1507662208000,35.61,-87.05,Bud Todd,TN,1505259925000,20135961
204026914,Nashville,,1467778920000,36.13,-86.8,Caitlin,TN,1488085708000,20135961
14131117,Nashville,Nashville,1488489649000,36.1,-86.66,Caitlyn Rambo,TN,1488573187000,20135961
179515502,Lebanon,,1498578643000,36.21,-86.3,Caleb Blanzy,TN,1498168487000,20135961
220958663,Hermitage,Hermitage,1497062611000,36.19,-86.6,Caleb Harbin,TN,1508347185000,20135961
202095004,Franklin,,1481179673000,35.92,-86.84,Cameron Sclease,TN,1481166572000,20135961
194580322,Nashville,Chicago,1485490021000,36.11,-86.78,Candace,TN,1485466474000,20135961
188746599,Antioch,,1483753731000,36.04,-86.64,Candice,TN,1483753242000,20135961
205153475,Nashville,,1479099587000,36.06,-86.96,Candice,TN,1505346719000,20135961
144973492,Franklin,,1467672689000,35.93,-86.81,Candice C.,TN,1486845775000,20135961
219215739,Nashville,,1483597741000,36.15,-86.86,Carl C,TN,1485959481000,20135961
4652003,Smyrna,Smyrna,1493252842000,35.97,-86.51,Carl Lowe,TN,1497150889000,20135961
184363770,El Paso,,1496698880000,31.76,-106.49,Carlitosway,TX,1496255535000,20135961
173636262,Nashville,,1479561586000,36.17,-86.78,Carlos Chrysostome,TN,1505797192000,20135961
200809000,Nashville,,1470226466000,36.16,-86.79,carly,TN,1486520064000,20135961
198523782,Nashville,,1498119742000,36.17,-86.78,Caroline,TN,1499345671000,20135961
70532382,Hermitage,,1485800117000,36.19,-86.6,Caroline,TN,1497575402000,20135961
62291522,Franklin,Franklin,1507662205000,35.92,-86.89,carolyn,TN,1500668635000,20135961
214080908,Franklin,,1483464499000,35.92,-86.89,Carrie Jugan,TN,1483466096000,20135961
197824577,La Vergne,,1467514366000,36.01,-86.57,Carrie Saxton,TN,1508728436000,20135961
1775843,Nashville,Nashville,1507662208000,36.17,-86.79,Casey,TN,1505666547000,20135961
184782742,Nashville,Hillsborough,1497320894000,36.16,-86.79,Casey Jo,TN,1497564701000,20135961
210611716,Nashville,,1485410531000,36.17,-86.78,Cassie Cooper,TN,1485400549000,20135961
195620057,Nashville,,1479344365000,36.04,-86.73,Cate Werynski,TN,1479343457000,20135961
1908738,Nashville,Nashville,1476989588000,36.13,-86.8,Catherine,TN,1489447067000,20135961
195301760,Nashville,,1496698881000,36.18,-86.74,Catherine ,TN,1496504674000,20135961
224405539,Franklin,,1491774203000,35.93,-86.81,Catheryn Huerta,TN,1497115125000,20135961
86318252,Clarksville,,1474867135000,36.53,-87.35,Cathy Scott,TN,1477322123000,20135961
182813922,Nashville,,1498919717000,36.06,-86.96,Celeste B. ,TN,1499193499000,20135961
14273127,Fort Campbell,Fort Campbell,1471874918000,36.65,-87.46,Cesar,KY,1482609510000,20135961
210470442,Nashville,,1470511188000,36.17,-86.78,Chad,TN,1470519792000,20135961
9704343,Nashville,"Macon, GA",1474054435000,36.06,-86.96,Chad S. Wrye,TN,1474019178000,20135961
171146012,Bentonville,,1470750510000,36.34,-94.24,Chaitanya Kolluru,AR,1471552403000,20135961
210085197,Clarksville,"Heidelberg, DE",1469959839000,36.56,-87.41,Charlena Thompson,TN,1471717644000,20135961
182886080,Nashville,,1467778920000,36.17,-86.78,Charlene,TN,1483133859000,20135961
5216038,Hendersonville,Hendersonville,1476683632000,36.32,-86.61,Charles,TN,1508455858000,20135961
229546184,Nashville,,1497320894000,36.17,-86.78,Chaurette,TN,1498156023000,20135961
224410492,Nashville,,1493009468000,36.13,-86.8,Chelsea Lee,TN,1492892129000,20135961
40187702,Nashville,Memphis,1474867135000,36.17,-86.78,Chelsea Steinaway,TN,1479625527000,20135961
110810002,Nashville,"Saline, MI",1494836459000,36.17,-86.78,Chelsea T,TN,1495502528000,20135961
222000686,Nashville,,1493009468000,36.17,-86.78,Chelsie Walker,TN,1492964558000,20135961
113032392,Nashville,Nashville,1482826526000,36.16,-86.79,chen hajaj,TN,1488422606000,20135961
9635822,Nashville,clarksville,1468454241000,36.17,-86.78,Chessie,TN,1483196505000,20135961
222118732,Nashville,Nashville,1498919717000,36.06,-86.96,Chris,TN,1498758307000,20135961
230628597,Hermitage,,1498919718000,36.19,-86.6,Chris,TN,1498612292000,20135961
12820968,Nashville,,1486795445000,36.08,-86.72,Chris,TN,1507928597000,20135961
184735550,Antioch,,1486628737000,36.17,-86.88,Chris,TN,1486521878000,20135961
233818402,Manchester,,1507662206000,35.47,-86.08,Chris,TN,1503533406000,20135961
208514656,Smyrna,,1468730537000,35.97,-86.51,Chris,TN,1483219343000,20135961
149979832,Nashville,,1477888377000,36.1,-86.8,Chris Dooney,TN,1497390846000,20135961
204609819,Nashville,Nashville,1476683631000,36.08,-86.72,Chris Duke,TN,1475192721000,20135961
42157752,North Palm Beach,"Franklin, TN",1486319278000,26.84,-80.06,Chris Fox,FL,1486268423000,20135961
228574593,Nashville,,1496698880000,36.17,-86.78,Chris garvey,TN,1500824676000,20135961
182657878,Nashville,,1478667056000,36.17,-86.78,Chris Mayfield,TN,1496804776000,20135961
190988344,Nashville,,1476683632000,36.17,-86.78,Chris Strawhat Mage Waterman,TN,1507779880000,20135961
142835512,Goodlettsville,,1507662208000,36.33,-86.74,Chris Turner,TN,1507686729000,20135961
58262132,Nashville,Durham,1492224803000,36.15,-86.86,Christa,TN,1492222165000,20135961
214666133,Murfreesboro,,1476683632000,35.78,-86.33,christian,TN,1482690922000,20135961
207031840,Nashville,,1468689154000,36.04,-86.72,Christian Wells,TN,1481912151000,20135961
181199382,Nashville,,1492397298000,36.17,-86.78,Christie Carlill,TN,1493253270000,20135961
184861611,Murfreesboro,,1476683631000,35.87,-86.34,Christina,TN,1478028032000,20135961
209847376,Clarksville,,1470105803000,36.53,-87.35,Christina DeLapp,TN,1473212697000,20135961
223646557,Nashville,,1507662206000,36.17,-86.78,Christina G.,TN,1508116806000,20135961
232121093,Nashville,Nashville,1507662205000,36.13,-86.8,Christine Joy,TN,1501394001000,20135961
8101484,Memphis,,1486628737000,35.21,-89.79,Christopher,TN,1486519938000,20135961
215765641,Nashville,,1478177927000,36.17,-86.78,Christopher Alviar,TN,1479597558000,20135961
232278484,Clarksville,,1507662205000,36.53,-87.35,Christopher L Stetzel,TN,1500615226000,20135961
141530952,Franklin,Franklin,1491172405000,35.92,-86.89,Cindy Bragger,TN,1496717110000,20135961
161574592,Franklin,,1497230401000,35.92,-86.89,Claire Cassidy,TN,1497139947000,20135961
95736932,Nashville,,1507662208000,36.17,-86.78,Cliff,TN,1508122392000,20135961
86497392,Mount Juliet,,1476989588000,36.22,-86.52,Clint,TN,1496099105000,20135961
204529889,Nashville,Buffalo,1470614677000,36.11,-86.78,Clint Webb,TN,1494281300000,20135961
159760322,Nashville,,1476683632000,36.17,-86.78,coby,TN,1475542472000,20135961
183109097,Nashville,"Warren, OH",1467926691000,36.1,-86.66,Cody,TN,1497124377000,20135961
210904867,Nashville,,1472577893000,36.17,-86.78,Colette Mike,TN,1472736318000,20135961
215083227,Nashville,,1476683633000,36.06,-86.96,Collins ,TN,1476681716000,20135961
231748183,Bowling Green,,1507662204000,36.93,-86.45,Connor Crance,KY,1500268041000,20135961
228298401,Antioch,,1496698879000,36.04,-86.64,Constance,TN,1495728693000,20135961
119306562,Murfreesboro,,1488489649000,35.78,-86.33,Corey G,TN,1505388989000,20135961
233035942,Murfreesboro,,1507662207000,35.87,-86.44,Corey Garner,TN,1504379100000,20135961
26085612,Nashville,Carlsbad,1507662204000,36.08,-86.72,Corey White,TN,1508223415000,20135961
198403977,Nashville,,1471961112000,36.17,-86.78,Corey White,TN,1507659578000,20135961
193704970,Nashville,"Nashville, TN",1490926726000,36.17,-86.72,Corie Winfrey,TN,1491191785000,20135961
207739204,Hendersonville,,1487224822000,36.32,-86.61,Corinne ,TN,1487211557000,20135961
207259293,Murfreesboro,,1478667056000,35.78,-86.33,Cornelius Dunlap,TN,1479147704000,20135961
3065094,Nashville,"Willimantic, CT",1467675784000,36.22,-86.77,Corrina,TN,1508127093000,20135961
11543626,Murfreesboro,Cedar Hill,1476683631000,35.78,-86.33,Cory,TN,1475357408000,20135961
67122632,Nashville,,1474867135000,36.17,-86.78,Cory,TN,1508433713000,20135961
215659468,Nashville,,1481149218000,36.22,-86.77,Courtney,TN,1483384886000,20135961
186394449,Nashville,Brentwood,1476683632000,36.08,-86.72,Courtney,TN,1479584975000,20135961
226216826,Nashville,,1493009468000,36.17,-86.78,Courtney,TN,1493594295000,20135961
214765910,Murfreesboro,,1476683632000,35.87,-86.44,Courtney Crittendon,TN,1476243804000,20135961
223917565,Nashville,,1489818176000,36.17,-86.78,Courtney Whitlock,TN,1489737014000,20135961
12269233,Nashville,Guadalajara,1467979397000,36.17,-86.78,Cristy Corona,TN,1485003877000,20135961
199618177,Greenbrier,"Springfield, TN",1474867135000,36.43,-86.8,Crystal,TN,1483056446000,20135961
45525172,Nashville,Nashville,1469121505000,36.15,-86.86,Crystalena Haney,TN,1473291638000,20135961
185705863,Nashville,Nashville,1496698877000,36.17,-86.78,Dalva Franklin,TN,1496699505000,20135961
9167857,Nashville,Kansas City,1496698880000,36.06,-86.96,Dan,TN,1507663471000,20135961
60857612,Nashville,Nashville,1476683632000,36.18,-86.81,Dan,TN,1486318616000,20135961
219145772,Nashville,,1484268608000,36.19,-86.8,Dana Baker,TN,1484255312000,20135961
235365244,Nashville,,1507662207000,36.19,-86.8,Dani McQuoid,TN,1508369097000,20135961
185840888,Brentwood,,1491504673000,36.0,-86.79,Dani Morio,TN,1491510874000,20135961
231273004,Nashville,,1507662204000,36.17,-86.78,Daniel,TN,1499411466000,20135961
224810420,Nashville,,1490985763000,36.14,-86.74,Daniel ,TN,1490979792000,20135961
161733362,Nashville,,1497728017000,36.17,-86.78,Daniel Babin,TN,1508177345000,20135961
211293952,Nashville,,1471874918000,36.17,-86.78,Daniel Brooks ,TN,1471650125000,20135961
223166666,New York,,1488755391000,40.74,-73.99,Daniel Castellanos,NY,1488678765000,20135961
217127620,Nashville,,1483382737000,36.08,-86.72,Daniel Cribbs,TN,1484146893000,20135961
210294884,Eagleville,,1470614666000,35.75,-86.64,Daniel Morelock,TN,1471920542000,20135961
213283233,Nashville,,1483597741000,36.17,-86.78,Daniel OShea,TN,1483473799000,20135961
228150458,Nashville,,1496698879000,36.15,-86.86,Daniel Padraic Deis,TN,1505865745000,20135961
235249317,Nashville,,1507662207000,36.17,-86.78,Daniel Rhodes,TN,1504906056000,20135961
18711121,Altamonte Springs,altamonte springs,1476683632000,28.67,-81.41,Daniella,FL,1478113580000,20135961
75002182,Nashville,,1484458125000,36.17,-86.78,Danielle,TN,1484450712000,20135961
54215962,Nashville,"Buffalo Grove, IL",1470004290000,36.17,-86.78,Danielle,TN,1491880388000,20135961
195802541,Murfreesboro,"Almont, MI",1479562787000,35.78,-86.33,Danielle,TN,1482847885000,20135961
130988532,Chicago,"Chicago, IL",1470458658000,41.88,-87.62,Danielle McGee,IL,1470458525000,20135961
202597783,Nashville,,1490307855000,36.18,-86.74,Danni,TN,1508450531000,20135961
227816809,Nashville,,1507662206000,36.17,-86.78,Darlene Stumpf,TN,1501610105000,20135961
132338182,Louisville,,1507662206000,38.26,-85.5,Dave Morris,KY,1502367747000,20135961
206843171,Nashville,,1496698879000,36.15,-86.79,David,TN,1497961945000,20135961
111943902,Clarksville,,1487907386000,36.63,-87.48,David ,TN,1497887612000,20135961
13588658,Smyrna,Atlanta,1468162751000,33.87,-84.51,David,GA,1499555509000,20135961
222745422,Nashville,,1488181986000,36.17,-86.78,David Chun,TN,1488084521000,20135961
228583373,Mount Juliet,,1496698880000,36.22,-86.52,David Pridemore,TN,1496705491000,20135961
211374291,Antioch,,1471874918000,36.04,-86.64,David Speake,TN,1471764928000,20135961
99980082,Nashville,,1481652394000,36.17,-86.78,david weir,TN,1481612216000,20135961
215636640,Nashville,,1481354038000,36.15,-86.86,David Williford,TN,1501616527000,20135961
228533008,West Palm Beach,West Palm Beach,1507662203000,26.66,-80.26,Davy Yue,FL,1499065023000,20135961
11631449,Nashville,,1468080742000,36.17,-86.78,dawn r,TN,1507915498000,20135961
227658046,Antioch,,1496698878000,36.04,-86.64,Dawn Woodard,TN,1508020783000,20135961
213567586,Nashville,,1474867135000,36.17,-86.78,Dayna Spisak,TN,1474680619000,20135961
190688757,Linden,,1481782156000,35.6,-87.85,DBMarcel,TN,1481658987000,20135961
227234646,Spring Hill,,1507662204000,35.76,-86.88,De'Andre Davis,TN,1499374895000,20135961
9721142,Nashville,,1467681413000,36.17,-86.72,Deana,TN,1470173604000,20135961
221381911,Nashville,"Starkville, MS",1488181986000,36.08,-86.72,Debrah R,TN,1497401771000,20135961
208586836,Clarksville,,1496698880000,36.49,-87.23,DEE-Nice,TN,1508524570000,20135961
154522952,Lyles,,1467806769000,35.89,-87.34,Demetria,TN,1482708428000,20135961
183223448,Fort Campbell,,1476683631000,36.65,-87.46,Demetrius Rashaad Smith,KY,1502221609000,20135961
217296906,Nashville,,1484965718000,36.17,-86.78,Derek,TN,1497485289000,20135961
211216826,Opa Locka,"Opa Locka, FL",1471545338000,25.91,-80.26,DeRon Washington,FL,1471534076000,20135961
11818644,Nashville,,1507662204000,36.08,-86.72,Derric augusta,TN,1499733168000,20135961
231120416,Hermitage,,1507662203000,36.19,-86.6,Derrick Harris,TN,1499222993000,20135961
11529922,Nashville,Saint Louis,1486458545000,36.17,-86.78,Desa,TN,1486772900000,20135961
148683552,Nashville,,1470098246000,36.02,-86.64,desariee,TN,1489950029000,20135961
202053242,Columbia,,1470108118000,35.61,-87.05,Dese,TN,1472793787000,20135961
64445472,Nashville,,1483067460000,36.11,-86.78,Dessica,TN,1483078872000,20135961
211750782,Nashville,,1472577892000,36.17,-86.78,DesTine',TN,1472590214000,20135961
202566856,Brentwood,Brentwood,1507662205000,36.0,-86.79,Dexter Davis,TN,1500773269000,20135961
229386751,Nashville,,1498578643000,36.08,-86.72,Dharani Ranganathan,TN,1498746614000,20135961
138512432,Nashville,Nashville,1470166583000,36.17,-86.78,Diana,TN,1490278697000,20135961
204643149,Nashville,,1481782156000,36.16,-86.79,Diana Andrew,TN,1481695598000,20135961
208647021,Antioch,,1479444119000,36.17,-86.88,Diana C. Castañeda Maya,TN,1479667858000,20135961
222266390,Nashville,,1487543357000,36.08,-86.72,DiemHang Thai,TN,1487445107000,20135961
218999759,Nashville,,1483298164000,36.17,-86.72,Dillon Crysel,TN,1483245793000,20135961
189522724,Nashville,Nashville,1468451125000,36.14,-86.8,Dimitris Boursinos,TN,1494390120000,20135961
195301990,Nashville,,1477888377000,36.17,-86.78,DJ Big K,TN,1497190122000,20135961
226768042,Nashville,,1493702382000,36.16,-86.78,Djordje Zivak,TN,1493672770000,20135961
187341047,Nashville,,1493702382000,36.17,-86.78,Dolly Cook,TN,1498519634000,20135961
225120194,Nashville,,1491504673000,36.19,-86.8,Donald Agbaka,TN,1491504740000,20135961
207263492,La Vergne,,1479620903000,36.01,-86.57,Donald Jones,TN,1479601864000,20135961
209624815,Murfreesboro,,1469376303000,35.78,-86.33,Dorothy Jean Todd,TN,1473607468000,20135961
7822773,Nashville,"Little Rock, AR",1483200149000,36.17,-86.78,Doug,TN,1507922223000,20135961
86790902,Franklin,,1479693910000,35.93,-86.81,Doug Baron,TN,1508207040000,20135961
200735518,Nashville,Nashville,1484965718000,36.15,-86.79,Drake,TN,1497226314000,20135961
219480410,Hollywood,,1507662205000,25.99,-80.21,Dreamer 305,FL,1501437482000,20135961
233867904,Franklin,,1507662208000,35.92,-86.89,Drew McNairy,TN,1505235203000,20135961
231185563,Hendersonville,,1507662204000,36.32,-86.61,Drew Williams,TN,1499657764000,20135961
189158014,Clarksville,,1482930394000,36.53,-87.35,Dry Surfer,TN,1489888136000,20135961
118758712,Nashville,,1497408538000,36.17,-86.78,Duane Stephenson,TN,1497591607000,20135961
153949702,Nashville,,1496698881000,36.08,-86.72,Durran,TN,1497888923000,20135961
227789875,Nashville,,1496698878000,36.18,-86.74,Dustin Wheeless,TN,1495051536000,20135961
221177829,Nashville,,1486167163000,36.11,-86.86,Dwain Harpole II,TN,1486105038000,20135961
198172468,Nashville,,1498578643000,36.17,-86.72,Dylan White,TN,1498578694000,20135961
192792326,Nashville,,1470750510000,36.17,-86.78,Edessa Yousefzadeh,TN,1470748738000,20135961
208312378,Nashville,,1467946783000,36.17,-86.78,Eli,TN,1499790132000,20135961
196259862,Murfreesboro,,1479080552000,35.87,-86.44,Elisabeth Vincent,TN,1482699546000,20135961
85547942,Nashville,,1478177927000,36.17,-86.78,Elise,TN,1485738884000,20135961
209701316,Nashville,,1507662206000,36.11,-86.78,Elise Smith,TN,1502053084000,20135961
186727519,Chattanooga,,1483667376000,35.04,-85.31,Elizabeth,TN,1483651714000,20135961
220928712,Clarksville,,1485728495000,36.56,-87.41,Elizabeth H.,TN,1485666591000,20135961
89205222,Orlando,,1481149218000,28.54,-81.37,Elizabeth Luminoso,FL,1502287216000,20135961
94029142,Nashville,,1467836305000,36.17,-86.78,Ellen,TN,1472504044000,20135961
199019376,Nashville,,1493599787000,36.15,-86.86,Ellen Nichols,TN,1493590680000,20135961
211913498,Lebanon,"Eureka, MT",1476683633000,36.21,-86.31,Ellena,TN,1482006509000,20135961
201035186,Nashville,,1485728495000,36.11,-86.86,EMenetreS,TN,1485701911000,20135961
196208032,Nashville,,1498119755000,36.22,-86.77,Emily C,TN,1499019458000,20135961
150504332,Brentwood,,1476683632000,36.0,-86.79,Emily Grace Killeen,TN,1498605528000,20135961
218642174,Antioch,,1483368547000,36.04,-86.64,Emily Hicks,TN,1483314053000,20135961
11783375,Hendersonville,Gallatin,1507662206000,36.32,-86.61,emily roberts,TN,1502734570000,20135961
192229571,Nashville,,1482687409000,36.17,-86.78,Emily Van Seeters,TN,1497395155000,20135961
220859635,Nashville,,1485728495000,36.06,-86.96,Emily White,TN,1488466620000,20135961
215057946,Nashville,,1488755391000,36.15,-86.86,emmanuel,TN,1495305193000,20135961
82869652,Chattanooga,"Chattanooga, TN",1470212478000,35.05,-85.31,Eric,TN,1474291186000,20135961
206446634,Smyrna,,1473993026000,35.97,-86.51,Eric,TN,1473953518000,20135961
207908326,Nashville,,1468704344000,36.17,-86.78,Eric Segalini,TN,1483406912000,20135961
231512351,Nashville,,1507662204000,36.16,-86.77,Eric Sorrelhorse,TN,1500139609000,20135961
188151523,Mount Juliet,,1468893246000,36.22,-86.52,Erica,TN,1495287801000,20135961
231000550,Nashville,,1507662203000,36.17,-86.78,Erich Troxel,TN,1499084326000,20135961
13026839,Nashville,,1471874918000,36.08,-86.72,Erin,TN,1471825068000,20135961
11652625,Hermitage,"Aurora, CO",1467685921000,36.19,-86.6,Erin,TN,1508133571000,20135961
184178617,Franklin,,1472145848000,35.92,-86.89,Erin Blackwell,TN,1472008228000,20135961
148050462,Nashville,,1467694228000,36.17,-86.78,Erin Orstrom,TN,1485664571000,20135961
188867348,Nashville,,1471554077000,36.08,-86.72,Erin Perez,TN,1471553523000,20135961
228121906,Nashville,,1496698878000,36.17,-86.78,Escape Experience Nashville,TN,1495468462000,20135961
161041682,Nashville,,1477363075000,36.16,-86.79,Ethan,TN,1485906597000,20135961
225802814,Jackson,,1492397298000,35.68,-88.82,Etiosa Osayamen,TN,1492397534000,20135961
213051665,Lynwood,,1474054221000,33.93,-118.2,Eva,CA,1474911932000,20135961
203749137,Murfreesboro,,1490821017000,35.87,-86.34,Faith,TN,1490768634000,20135961
226243590,Clarksville,,1493009468000,36.49,-87.23,Fatal Foxtrot,TN,1493052210000,20135961
43857162,Murfreesboro,,1507662204000,35.78,-86.33,Fayad Khaled,TN,1499888585000,20135961
204781550,Nashville,,1484965718000,36.16,-86.79,Faye,TN,1485525409000,20135961
229974652,Nashville,,1498119727000,36.17,-86.78,Felicia Jordan,TN,1497828168000,20135961
77298312,Clarksville,,1483200149000,36.56,-87.41,Frances,TN,1483183725000,20135961
208258435,Nashville,,1467514366000,36.17,-86.78,Francesca ,TN,1508535706000,20135961
219637260,Nashville,,1484066486000,36.16,-86.77,Frank Lee,TN,1484080879000,20135961
112794252,Nashville,"Santiago, DO",1476683632000,36.17,-86.78,Freddy Arno Garcia,TN,1480785205000,20135961
213642511,Nashville,,1474867135000,36.17,-86.78,Fritzi Law,TN,1489864785000,20135961
223055408,Nashville,,1507662206000,36.07,-86.73,G,TN,1501728025000,20135961
184325414,Nashville,,1467946783000,36.17,-86.78,G. Batey,TN,1467993572000,20135961
229384678,Nashville,,1497062611000,36.17,-86.78,Gage Carlsen,TN,1497757154000,20135961
222096123,Chicago,,1496698879000,41.9,-87.67,Gail Oesterle,IL,1495642013000,20135961
5842332,Nashville,,1476989588000,36.17,-86.78,Garreth ,TN,1477322928000,20135961
189169362,Nashville,,1485410531000,36.1,-86.66,Garron Amos,TN,1485431097000,20135961
221845228,Madison,,1486958565000,36.26,-86.71,Garry Lyons,TN,1502405576000,20135961
137425392,Franklin,,1496698878000,35.92,-86.89,Gaurav,TN,1494899807000,20135961
229696707,Nashville,,1498578644000,36.17,-86.78,Gee  Rivera,TN,1503178868000,20135961
198541466,Nashville,,1470614679000,36.06,-86.96,Genevieve Joyner,TN,1471532951000,20135961
120303082,Brentwood,,1476683632000,36.0,-86.79,Gerald A. Wakefield,TN,1489335211000,20135961
9051897,Nashville,,1486319278000,36.15,-86.79,Gerry,TN,1497571905000,20135961
188667628,Franklin,Franklin,1486883734000,35.92,-86.89,Gladys Elisa Kirkpatrick,TN,1486910558000,20135961
94776102,Indianapolis,,1472577893000,39.66,-86.1,Grace,IN,1472488572000,20135961
193927840,Nashville,,1467882429000,36.18,-86.74,Grant H.,TN,1508711321000,20135961
194352251,Nashville,,1467841118000,36.11,-86.78,Greg ,TN,1500945312000,20135961
221854282,Antioch,,1487543357000,36.04,-86.68,Greg Russo,TN,1508108149000,20135961
182678002,Nashville,,1467669522000,36.17,-86.78,Gunner Wilson,TN,1497379259000,20135961
54217462,Gallatin,Gallatin,1469134980000,36.39,-86.45,Gus K,TN,1472425757000,20135961
230328585,Nashville,,1498578644000,36.11,-86.86,Hahhshshs,TN,1498251313000,20135961
196325224,Nashville,,1474347592000,36.09,-86.82,Haley Eidem,TN,1474334975000,20135961
210505788,Nashville,,1470614668000,36.17,-86.78,Hanna Mrayyan,TN,1470517655000,20135961
232652566,Nashville,,1507662205000,36.17,-86.78,Hannah,TN,1501108148000,20135961
219254567,Hendersonville,,1489219783000,36.32,-86.61,Hannah Nuiver,TN,1496353259000,20135961
228355034,Nashville,,1498578643000,36.08,-86.72,Harikumar Challa,TN,1498308661000,20135961
198956963,Franklin,,1489505664000,35.93,-86.81,Harold Thompson,TN,1489503941000,20135961
30687102,Nashville,"London, England",1479561586000,36.17,-86.78,Hassan,TN,1508124114000,20135961
188503028,Franklin,Franklin,1507662205000,35.99,-86.9,Hayes,TN,1500812678000,20135961
60879492,Nashville,"Nashville, TN",1469734732000,36.17,-86.78,Heidi Kibbel,TN,1489026775000,20135961
216895264,Nashville,,1479561586000,36.08,-86.72,Hillie G,TN,1480773608000,20135961
212043415,Nashville,,1478957011000,36.07,-86.73,Holly molly,TN,1481152869000,20135961
225814079,Nashville,,1492463997000,36.17,-86.78,Hope,TN,1492458848000,20135961
223418347,Franklin,,1493660978000,35.92,-86.89,Hope,TN,1500291354000,20135961
228612032,Nashville,,1496698880000,36.17,-86.78,Hunter Allen,TN,1496104263000,20135961
130567182,Hermitage,"Saint Charles, IL",1479693910000,36.19,-86.6,Ian,TN,1485799978000,20135961
232381768,Franklin,,1507662205000,35.93,-86.84,Ian Parker,TN,1507662231000,20135961
209912996,Goodlettsville,,1470088008000,36.32,-86.72,Ian Taylor,TN,1490316976000,20135961
187160142,Pegram,,1468359504000,36.12,-87.03,Ibra,TN,1468357558000,20135961
213132306,Nashville,,1474232886000,36.17,-86.78,Indrayani Waghmare,TN,1489974187000,20135961
231997258,Smyrna,,1507662205000,35.97,-86.51,Irfan Ali,TN,1500408358000,20135961
226163836,Clarksville,,1493009468000,36.56,-87.35,Isaac Munoz,TN,1493323999000,20135961
204825705,Clarksville,Clarksville,1467702840000,36.56,-87.41,Isaiah Beatty,TN,1502667528000,20135961
233079831,Nashville,,1507662206000,36.22,-86.77,Israel Rivadeneira,TN,1501863828000,20135961
183341008,Franklin,,1477092878000,35.93,-86.87,J Todd Henry,TN,1477053050000,20135961
230873941,Nashville,,1507662195000,36.15,-86.8,Jabari,TN,1499029549000,20135961
183961953,Nashville,,1479444119000,36.15,-86.8,Jackie,TN,1498100048000,20135961
223111977,Princeton,PRINCETON,1494836459000,40.37,-74.67,Jacob,NJ,1499809765000,20135961
7915902,Nashville,Nashville,1507662205000,36.22,-86.77,Jacque Lewis,TN,1501233207000,20135961
180452982,Antioch,"Daytona Beach, FL",1497728017000,36.04,-86.64,Jacqueline,TN,1497728066000,20135961
114386542,Nashville,,1489305158000,36.15,-86.86,Jacquelyn Price,TN,1489257871000,20135961
207500383,Lebanon,,1469089018000,36.21,-86.31,Jaime ,TN,1471045443000,20135961
208032907,Nashville,,1474232886000,36.17,-86.78,Jaime Rice,TN,1474244388000,20135961
184628504,Goldsboro,,1507662206000,35.38,-78.1,Jake,NC,1501891546000,20135961
220034281,Nashville,,1484965718000,36.14,-86.8,Jake Tudor,TN,1484543742000,20135961
206179761,Nashville,,1469695512000,36.17,-86.78,Jalisa Haggins,TN,1484335330000,20135961
185329067,Hermitage,"Marshalltown, IA",1484288779000,36.19,-86.6,James Dalluge,TN,1486757829000,20135961
225003376,Goodlettsville,,1491504673000,36.32,-86.72,James Gray,TN,1491527325000,20135961
187052923,Nashville,,1467669522000,36.17,-86.78,James Otis Runyon,TN,1490486505000,20135961
7799955,Nashville,"Charleston, SC",1467682629000,36.17,-86.72,Jamie,TN,1507866010000,20135961
193977256,Nashville,,1468179250000,36.14,-86.74,Jamie,TN,1479271243000,20135961
142336972,Nashville,,1507662203000,36.17,-86.78,Jamie Parker,TN,1499066905000,20135961
107456652,Nashville,Nashville,1467675784000,36.06,-86.96,Jane B Brewster,TN,1467751777000,20135961
228619193,Murfreesboro,,1496698880000,35.78,-86.33,Janee Carter,TN,1497489455000,20135961
219318320,Dickson,,1483667376000,36.08,-87.43,Jarad Johnson,TN,1484399869000,20135961
13479760,Nashville,"Hackettstown, NJ",1469437423000,36.06,-86.96,Jared Guest,TN,1489118206000,20135961
229430389,Nashville,,1497728018000,36.1,-86.66,Jarod,TN,1508376981000,20135961
215821418,Nashville,,1481652395000,36.14,-86.74,Jarvis B. Puckett,TN,1488849138000,20135961
208700564,Nashville,,1491703863000,36.07,-86.73,Jasmine,TN,1491703915000,20135961
216948687,Nashville,,1479590874000,36.22,-86.86,Jasmine Hicks,TN,1479700963000,20135961
229489219,Nashville,,1498578644000,36.09,-86.82,Jason Krueger,TN,1498323761000,20135961
121267062,Goodlettsville,,1478667056000,36.33,-86.74,Jason McLemore,TN,1483339401000,20135961
221876798,Nashville,Nashville ,1486883734000,36.08,-86.72,Jay Mistry,TN,1488068315000,20135961
105990492,Columbia,Brentwood,1483597741000,35.61,-87.05,Jay Powell,TN,1483485116000,20135961
215228197,Hendersonville,,1476989588000,36.3,-86.62,Jb Hawk,TN,1477047194000,20135961
227009510,Nashville,,1507662207000,36.06,-86.96,Jeff Hill,TN,1503686380000,20135961
224789253,Franklin,,1490985762000,35.92,-86.89,Jeff Williams,TN,1495973514000,20135961
187019337,Nashville,,1467768006000,36.17,-86.78,Jenae PinkCrush Vosburg,TN,1469939452000,20135961
66111522,Nashville,"Marietta, GA",1467682629000,36.11,-86.86,Jenn Thomas,TN,1495258770000,20135961
211246741,Nashville,"Boston, MA",1496698878000,36.17,-86.78,Jenna,TN,1508439867000,20135961
215400649,Murfreesboro,,1507662204000,35.85,-86.39,Jenna Jackley,TN,1499791652000,20135961
158445702,Franklin,,1468528265000,35.92,-86.89,Jennifer,TN,1506305069000,20135961
212513642,Clarksville,,1479561586000,36.53,-87.35,Jennifer Barlow,TN,1479489863000,20135961
12327090,Long Beach,Nashville,1491367029000,33.77,-118.19,jennifer henry,CA,1491344922000,20135961
208678123,Springfield,"San Angelo, TX",1468083321000,36.52,-86.87,Jennifer JT,TN,1468081713000,20135961
12312477,Nashville,,1471269338000,36.17,-86.72,Jenny,TN,1483563975000,20135961
145250422,Nashville,,1507662205000,36.18,-86.79,Jenny,TN,1501442800000,20135961
37465592,Nashville,,1470333917000,36.1,-86.66,Jenny,TN,1499223902000,20135961
222616582,Clarksville,,1490221560000,36.56,-87.41,Jenny Hough,TN,1490293015000,20135961
219453009,Nashville,,1492053781000,36.17,-86.78,Jenny Kidder,TN,1495290426000,20135961
228671027,Clarksville,,1496698880000,36.53,-87.35,Jeremiah Ellithorpe,TN,1496698898000,20135961
234363792,Old Hickory,,1507662206000,36.25,-86.63,Jeremy Hooper,TN,1503271584000,20135961
36981262,Hendersonville,"Hendersonville, tN ",1479561586000,36.32,-86.61,Jeremy Snyder,TN,1483188565000,20135961
179041422,Nashville,Nashville,1472577893000,36.11,-86.86,Jess,TN,1472405567000,20135961
197528877,Nashville,,1467882429000,36.17,-86.78,Jess,TN,1467871629000,20135961
209619205,College Grove,,1469305060000,35.77,-86.71,Jess Plotts,TN,1470396356000,20135961
224023975,Nashville,,1490221560000,36.17,-86.78,Jesse Krueger,TN,1489892302000,20135961
217385744,Nashville,,1481243850000,36.16,-86.79,Jesse Lancaster,TN,1485037307000,20135961
228229437,Nashville,,1496698879000,36.08,-86.72,Jesse Slizoski,TN,1496699217000,20135961
211374008,Nashville,,1472577893000,36.17,-86.78,Jessica,TN,1483479757000,20135961
224286448,Nashville,,1490279020000,36.15,-86.86,Jessica Dover,TN,1495822916000,20135961
203361789,Johnson City,,1496698880000,36.33,-82.36,Jessica Nicole Rice,TN,1504308155000,20135961
222768144,Nashville,,1488181986000,36.17,-86.78,Jeuneybear20,TN,1488123506000,20135961
182931300,Nashville,,1476989588000,36.17,-86.78,Jill,TN,1499653812000,20135961
108235532,Madison,"Chattanooga, TN",1479344365000,36.26,-86.71,Jim,TN,1479345595000,20135961
178219612,Seattle,"Waycross, GA",1496698878000,47.61,-122.33,Jimmy,WA,1504275861000,20135961
191717723,Nashville,,1471961112000,36.22,-86.77,Joanie Evans,TN,1471920104000,20135961
185883371,Nashville,,1467760814000,36.15,-86.86,Joe,TN,1497061854000,20135961
190672293,Hendersonville,,1485146306000,36.32,-86.61,Joe Ren,TN,1486825455000,20135961
214183892,Nashville,,1507662207000,36.17,-86.78,JoeyD,TN,1503881589000,20135961
159752512,Franklin,Franklin,1474867135000,35.92,-86.89,John,TN,1487973113000,20135961
86901922,Nashville,"Little Rock, AR",1469225432000,36.18,-86.74,John Achor,TN,1472499930000,20135961
57444982,Nashville,,1474232886000,36.17,-86.78,John Belvedere,TN,1474224622000,20135961
225736515,Nashville,,1496698881000,36.07,-86.73,John Blackwell,TN,1503169241000,20135961
228745615,Nashville,,1496698880000,36.13,-86.67,John Cottrell,TN,1496268878000,20135961
216938234,Nashville,,1479561586000,36.17,-86.72,John Dillinger,TN,1479553765000,20135961
201278955,Nashville,Nashville ,1467475353000,36.17,-86.78,Johnathan,TN,1491150552000,20135961
112151972,Nashville,"Cedarville, mich.",1471961112000,36.17,-86.78,Johnny Bee,TN,1471910979000,20135961
12322937,Nashville,"Raleigh, NC",1467764584000,36.17,-86.78,Jonathan,TN,1508556366000,20135961
190310381,Nashville,,1482127643000,36.11,-86.78,Jonathan,TN,1495390079000,20135961
207308557,Nashville,,1479953379000,36.17,-86.78,Jordan,TN,1479949971000,20135961
183060625,Riceville,,1474867135000,35.35,-84.7,Jordan Buie,TN,1479497940000,20135961
221310673,Murfreesboro,,1494836459000,35.85,-86.36,Jordan Caswell,TN,1502940059000,20135961
209298807,Nashville,,1469235071000,36.17,-86.72,Jordan Gilliland,TN,1471093082000,20135961
232953136,Nashville,,1507662205000,36.14,-86.74,Jose Aguilar,TN,1501462189000,20135961
184870684,Nashville,,1479866521000,36.16,-86.79,Jose Moreno,TN,1486443564000,20135961
220818716,Hendersonville,Hendersonville,1485728495000,36.32,-86.61,Joseph,TN,1508411989000,20135961
230251208,Hendersonville,,1498578644000,36.3,-86.62,Joseph Klitz,TN,1498150072000,20135961
115560912,Nashville,Nashville,1488755391000,36.09,-86.82,Joseph M.,TN,1488735141000,20135961
227993789,Clarksville,,1496698878000,36.49,-87.23,Joseph Rodriguez Castillero,TN,1496975733000,20135961
227662334,Spring Hill,,1496698879000,35.76,-86.88,Joseph Van Deusen,TN,1508359948000,20135961
230555088,Nashville,,1498578644000,36.17,-86.78,Josh,TN,1499884427000,20135961
229020897,Nashville,,1507662208000,36.17,-86.78,Josh Gray,TN,1508118929000,20135961
183528621,Clarksville,,1493076106000,36.59,-87.34,Joshua,TN,1493756625000,20135961
221614251,Gallatin,,1489676218000,36.39,-86.45,Joshua Cooper,TN,1503173834000,20135961
237772183,Nashville,,1507662208000,36.08,-86.72,Joshua Dunham,TN,1506779512000,20135961
208777243,Nashville,,1468219363000,36.11,-86.86,Joshua Scott Centeno,TN,1468201728000,20135961
14455591,Nashville,,1467760814000,36.11,-86.86,Joslyn Dollar,TN,1468962220000,20135961
220033164,Nashville,,1484965718000,36.17,-86.78,Joy Sheri Williams,TN,1484542033000,20135961
197987267,Antioch,,1507662205000,36.04,-86.64,Juan,TN,1500951423000,20135961
213465044,Nashville,,1493652902000,36.17,-86.78,Juan Hernandez,TN,1503961467000,20135961
236045754,Huntington Park,,1507662207000,33.98,-118.21,Judy,CA,1504966384000,20135961
229804753,Nashville,,1497728018000,36.17,-86.78,Julia,TN,1508531117000,20135961
211766807,Nashville,,1472577892000,36.17,-86.78,Julia,TN,1472304709000,20135961
203666961,Nashville,,1472649159000,36.15,-86.86,Julie S.,TN,1472609829000,20135961
215130335,Nashville,,1477528476000,36.09,-86.82,Justin,TN,1498518034000,20135961
9415032,Nashville,,1479590874000,36.13,-86.8,Justin,TN,1508545062000,20135961
214612979,Nashville,,1491882576000,36.14,-86.74,Justin Onslow,TN,1508475022000,20135961
141386142,Clarksville,,1492572502000,36.49,-87.23,Juwelzs,TN,1492483537000,20135961
221190623,Nashville,,1494836459000,36.09,-86.82,Kaitlin Cash,TN,1494471400000,20135961
227414985,Murfreesboro,,1496698880000,35.78,-86.33,Kaitlyn Traughber,TN,1496238481000,20135961
221552327,Nashville,,1486458545000,36.17,-86.78,Kaitlynn Rose,TN,1486443553000,20135961
207742183,Nashville,,1470212478000,36.17,-86.78,Kane Ball,TN,1471038192000,20135961
212930152,Nashville,,1483382737000,36.15,-86.86,Kanisha White,TN,1486667576000,20135961
214273295,Nashville,,1477363075000,36.08,-86.72,Kara ,TN,1479083302000,20135961
220971826,Nashville,,1485728495000,36.17,-86.78,Kara Sanders,TN,1485730354000,20135961
215787900,Nashville,,1477888377000,36.07,-86.73,Karen M Haase,TN,1496430447000,20135961
154895632,Hendersonville,,1470425669000,36.32,-86.61,Kari,TN,1485823108000,20135961
219944113,Murfreesboro,,1484436254000,35.78,-86.33,Karin M.,TN,1486831803000,20135961
218675666,Brentwood,,1483464499000,36.0,-86.79,Karleen Justice,TN,1483583177000,20135961
228140788,Nashville,,1507662204000,36.16,-86.77,Kasey,TN,1499262968000,20135961
218574548,White Bluff,,1497728018000,36.12,-87.23,Kat,TN,1499911444000,20135961
209453152,Nashville,,1496698880000,36.17,-86.78,Kat Stephenson,TN,1496114574000,20135961
209773439,Nashville,,1472145848000,36.17,-86.78,Kate,TN,1490026727000,20135961
64523412,Nashville,"Northville, MI",1479150403000,36.15,-86.86,Kate,TN,1479426900000,20135961
2807913,Franklin,"Tulsa, OK",1471961112000,35.93,-86.81,Katelin C.,TN,1479778387000,20135961
34844422,Nashville,,1469742851000,36.17,-86.78,kathleen,TN,1479099958000,20135961
113052272,Nashville,,1507662205000,36.14,-86.74,Kathryn,TN,1501449871000,20135961
8859321,Franklin,Albertson,1467760814000,35.93,-86.81,Kathy Fu,TN,1467758383000,20135961
211932109,Murfreesboro,,1472649159000,35.78,-86.33,Katie,TN,1472596623000,20135961
213265381,Nashville,,1476683631000,36.17,-86.78,Katie Connolly,TN,1495685687000,20135961
217037417,Nashville,,1479780011000,36.17,-86.78,Katie Schram,TN,1479710915000,20135961
192735743,Nashville,,1507662207000,36.08,-86.72,Katrina Fernandez,TN,1503706696000,20135961
32245072,Franklin,Chicago,1496698881000,35.93,-86.81,Katrina Marie,TN,1502761229000,20135961
198050195,Smyrna,,1483037918000,35.97,-86.51,Katy S,TN,1482983708000,20135961
13748877,Nashville,,1468074159000,36.1,-86.66,Katy Sue,TN,1508289435000,20135961
220658842,Madison,,1507662205000,36.26,-86.71,Kedra,TN,1507821850000,20135961
56997982,Nashville,"Springfield, IL",1496698880000,36.08,-86.72,Keegan Singh,TN,1496110021000,20135961
193430316,Nashville,,1486167163000,36.17,-86.79,Keeveah (Key-vee-yah),TN,1508549351000,20135961
229949165,Old Hickory,,1498119739000,36.25,-86.63,Keith Yost,TN,1497797030000,20135961
184870969,Murfreesboro,,1490221560000,35.89,-86.32,Kelley Buckley,TN,1490012298000,20135961
146791582,Nashville,,1488489649000,36.17,-86.78,Kellie,TN,1497495729000,20135961
183560521,Franklin,"Austin, TX",1468545400000,35.92,-86.89,Kelly,TN,1507660567000,20135961
186257673,Nashville,,1484197342000,36.17,-86.72,Kelly,TN,1495692533000,20135961
222377817,Nashville,,1487907386000,36.17,-86.78,Kelly,TN,1488837204000,20135961
10329251,Columbia,Nashville ,1481008294000,35.61,-87.05,Kelly,TN,1481002547000,20135961
114056652,Goodlettsville,,1493599787000,36.33,-86.74,Kelly,TN,1493604231000,20135961
231046204,Nashville,,1507662203000,36.07,-86.73,Kelly Broihier,TN,1499192337000,20135961
61410712,Nashville,,1507662206000,36.08,-86.72,Kelly Hinojosa,TN,1502159178000,20135961
9623787,Nashville,Nashville,1467680579000,36.1,-86.66,Kelly LeBel,TN,1478473654000,20135961
237791596,Nashville,,1507662208000,36.13,-86.8,Kelsey,TN,1506797526000,20135961
215866373,Nashville,,1477888377000,36.17,-86.78,Kelsey L.,TN,1496061736000,20135961
231967533,Antioch,,1507662204000,36.04,-86.64,Kelsey Wilsher,TN,1500241731000,20135961
224137078,Nashville,,1497744922000,36.17,-86.78,Kendall ,TN,1499187211000,20135961
198120174,Madison,,1482826526000,36.26,-86.71,Kendra Black,TN,1482837296000,20135961
14356223,Nashville,,1497728017000,36.17,-86.78,Kendra Holt,TN,1508083164000,20135961
96371802,Nashville,,1507662207000,36.17,-86.78,Kendra Lancaster,TN,1505080220000,20135961
225314758,Nashville,,1496698878000,36.17,-86.78,Kennadee Ray,TN,1497034988000,20135961
204561207,Nashville,,1468515934000,36.08,-86.72,Kenneth S. ,TN,1489895094000,20135961
185027167,Lyles,Murfreesboro,1469714946000,35.89,-87.34,Kenneth Smith,TN,1508371993000,20135961
221340720,Phoenix,,1507662207000,33.5,-112.03,Kenneth Wilson,AZ,1504901602000,20135961
216144561,Nashville,,1483864752000,36.17,-86.78,Kenny James,TN,1488424563000,20135961
211747208,Nashville,,1472577892000,36.14,-86.74,Kenyell Chalmers,TN,1472660091000,20135961
8311912,Nashville,,1498578643000,36.17,-86.78,kermy73,TN,1499578061000,20135961
53958832,Goodlettsville,,1467694227000,36.33,-86.74,Kevin,TN,1473361880000,20135961
185359993,Antioch,"Grand Blanc, MI",1498119749000,36.04,-86.67,Kevin,TN,1497920231000,20135961
22413241,Nashville,,1507662205000,36.17,-86.78,Kevin Fisher,TN,1501399257000,20135961
16285331,Nashville,,1467762998000,36.16,-86.79,Kevin N,TN,1506394449000,20135961
197335395,Nashville,,1482826526000,36.09,-86.82,Kevin Pointer,TN,1483912386000,20135961
208274085,Nashville,,1467556094000,36.17,-86.78,Khali,TN,1468188862000,20135961
222900978,Nashville,,1488405881000,36.14,-86.74,Killian Baptiste,TN,1488320460000,20135961
201737245,Hermitage,,1468122834000,36.19,-86.6,Kim H,TN,1477709182000,20135961
3016909,Nashville,Nashville,1467826291000,36.15,-86.86,Kim L.,TN,1468557749000,20135961
10320783,Murfreesboro,,1496698879000,35.78,-86.33,Kim Malcolm,TN,1495674470000,20135961
222028223,Murfreesboro,,1487293255000,35.78,-86.33,Kim Truong,TN,1491912878000,20135961
211518566,Nashville,,1479620903000,36.17,-86.78,Kimmy Quick,TN,1479598460000,20135961
199959120,Mount Juliet,,1482607953000,36.17,-86.6,Kirk Jones,TN,1505970230000,20135961
187294708,Antioch,,1483912543000,36.17,-86.88,Kita,TN,1498175461000,20135961
227938424,Antioch,,1496698878000,36.04,-86.64,Kitan/Emmanuel Ogunkoya,TN,1496707342000,20135961
188295206,Nashville,,1467675784000,36.17,-86.78,KJ,TN,1483804962000,20135961
219327845,Nashville,,1485146306000,36.07,-86.73,Koren Smith,TN,1487167571000,20135961
119027742,Nashville,Issaquah,1507662205000,36.17,-86.78,Kortni,TN,1501096240000,20135961
43866812,Murfreesboro,"Plainfield, IL",1470042165000,35.87,-86.34,Kourtney,TN,1496006425000,20135961
10165693,Nashville,"Montgomery, Vermont",1472145848000,36.16,-86.79,Krissy ,TN,1484791669000,20135961
210836957,Nashville,,1471015384000,36.17,-86.78,Krista Stebbing,TN,1470977159000,20135961
198895528,Nashville,,1472145848000,36.17,-86.78,Kristen,TN,1489171040000,20135961
193043757,Nashville,,1468015399000,36.15,-86.86,Kristen Freeman,TN,1497053137000,20135961
226135246,Nashville,,1493422429000,36.17,-86.78,Kristian,TN,1493348600000,20135961
120669372,Nashville,,1478667056000,36.16,-86.79,Kristin,TN,1479345630000,20135961
216705266,Nashville,,1479344365000,36.17,-86.72,Kristina ,TN,1479616271000,20135961
196628920,Nashville,,1483464499000,36.17,-86.78,Kristina Spitzer,TN,1483404624000,20135961
210588722,Madison,,1470750510000,36.26,-86.71,Kristine Keith,TN,1472005708000,20135961
228663548,Nashville,,1496698880000,36.17,-86.78,Krystal Fries,TN,1498426243000,20135961
188233955,Thompsons Station,Nashville,1470166584000,35.8,-86.9,Krystal Herrera,TN,1470316825000,20135961
209671658,Nashville,,1470940758000,35.94,-86.81,Krystal Jensen,TN,1471221996000,20135961
215547287,Nashville,,1490221560000,36.08,-86.72,Krystal Wilson,TN,1492310658000,20135961
124310602,Nashville,Providence,1497728017000,36.17,-86.78,Kumar,TN,1508534133000,20135961
237242495,Nashville,,1507662208000,36.09,-86.82,Kumar Singh,TN,1508385858000,20135961
156698942,Nashville,"Danville, IL",1483464499000,36.17,-86.78,Kyla,TN,1484060894000,20135961
220545268,Nashville,,1485197623000,36.17,-86.79,Kyle Ashley Johnson,TN,1485188642000,20135961
229922037,Thompsons Station,,1507662205000,35.8,-86.9,Kyle Chambers,TN,1501114900000,20135961
18383791,Mount Juliet,Endwell,1467765110000,36.22,-86.52,Kylene,TN,1473210954000,20135961
230045485,Nashville,,1507662205000,36.17,-86.78,L,TN,1500917285000,20135961
187326594,Whites Creek,,1471528377000,36.27,-86.83,Lacey,TN,1484603760000,20135961
226742914,Fort Campbell,,1493652902000,36.65,-87.46,Lamar M.,KY,1497529981000,20135961
233646812,Columbia,,1507662206000,35.62,-87.11,Lance,TN,1502287442000,20135961
208165817,Nashville,Nashville,1507662204000,36.22,-86.77,Landon Drake Bell,TN,1499546160000,20135961
226128410,Thompsons Station,thompson station,1496698878000,35.8,-86.9,Larry Gooden,TN,1495290376000,20135961
188401888,Franklin,,1472145848000,35.93,-86.81,Laura,TN,1477410346000,20135961
177286062,Nashville,"Grass Valley, CA",1467675784000,36.14,-86.82,Laura,TN,1508294653000,20135961
65179532,Nashville,,1489219783000,36.18,-86.74,Laura,TN,1489666666000,20135961
219048088,Nashville,,1489305158000,36.17,-86.78,Laura,TN,1494111147000,20135961
190301386,Murfreesboro,Hazel Green,1476683633000,35.82,-86.45,Laura,TN,1485947980000,20135961
231381868,Mount Juliet,,1507662204000,36.11,-86.52,Laura Bell,TN,1499545341000,20135961
198600935,Nashville,,1467820850000,36.17,-86.78,Laura L,TN,1477353200000,20135961
189651474,Nashville,,1507662204000,36.17,-86.78,Laura Liebmann,TN,1499262108000,20135961
107513022,Nashville,,1486795445000,36.17,-86.78,Laura M,TN,1486677699000,20135961
207135665,Sussex,,1469820992000,41.24,-74.6,Laura Masson,NJ,1470323428000,20135961
218470947,Hendersonville,,1485728495000,36.32,-86.61,laura.rambles.on,TN,1485736103000,20135961
222806574,Nashville,,1489219783000,36.17,-86.78,Lauren,TN,1490153096000,20135961
83537302,Nashville,Nashville,1468424580000,36.08,-86.72,Lauren,TN,1468422987000,20135961
230378546,Nashville,,1498578644000,36.17,-86.78,Lauren,TN,1508505601000,20135961
238423198,Smyrna,,1507662208000,35.97,-86.51,Lauren Cootes,TN,1508474199000,20135961
174047032,Nashville,,1479344365000,36.17,-86.72,Lauren DeBow,TN,1483317575000,20135961
215018677,Nashville,,1476683633000,36.08,-86.72,Lauren Fairand,TN,1476641125000,20135961
232246243,Tuxedo,,1507662205000,35.23,-82.43,Lauren Gilbert,NC,1500608336000,20135961
124104862,Nashville,Chattanooga,1489538116000,36.15,-86.86,Lauren Schorr,TN,1489536704000,20135961
47054482,Antioch,Savannah,1478177927000,36.04,-86.64,Lauren T.,TN,1508283156000,20135961
29906712,Nashville,,1476683631000,36.17,-86.78,Laurie,TN,1488763366000,20135961
210615312,Murfreesboro,,1480284606000,35.87,-86.44,LB,TN,1497535127000,20135961
212569741,Franklin,,1507662204000,35.93,-86.81,Leann Roggensack,TN,1499995790000,20135961
131326582,Nashville,,1469631954000,36.17,-86.78,Lena,TN,1475425030000,20135961
222739109,Nashville,,1490985762000,36.14,-86.74,Lese Jenea,TN,1490995886000,20135961
210329373,Lafayette,,1507662208000,36.52,-86.02,leslie law,TN,1507911659000,20135961
215578671,Knoxville,,1477450942000,35.96,-83.92,Lex Patrick,TN,1477415539000,20135961
218044158,Nashville,,1481603512000,36.14,-86.81,Lexi,TN,1489263474000,20135961
238419693,Nashville,,1507662208000,36.06,-86.96,Liann Cates,TN,1508170139000,20135961
10579153,Durham,,1489818176000,36.01,-78.95,Lijun Song,NC,1489881887000,20135961
218627441,Nashville,,1482607953000,36.17,-86.78,Lina,TN,1483883144000,20135961
197313876,Nashville,,1484965718000,36.17,-86.78,Linda,TN,1491000379000,20135961
191322354,Nashville,,1467752700000,36.15,-86.86,Linda Sullivan`,TN,1471539355000,20135961
113999102,Nashville,Nashville ,1468314577000,36.08,-86.72,Lindsay,TN,1471980715000,20135961
228320799,Murfreesboro,,1507662206000,35.85,-86.49,Lindsey,TN,1502646633000,20135961
226141661,Nashville,,1493009468000,36.1,-86.66,Lindsey,TN,1493086628000,20135961
14096842,Nashville,Nashville,1480827160000,36.21,-86.72,Lindsey B,TN,1480811249000,20135961
226811920,Nashville,,1507662208000,36.11,-86.78,Lindsey Weiner,TN,1507271735000,20135961
100212992,Clarksville,,1480890542000,36.53,-87.35,Lisa,TN,1495316436000,20135961
226705100,Smyrna,,1496698879000,35.95,-86.48,Lisa Barttrum,TN,1506786805000,20135961
187888304,Nashville,Richmond,1470750510000,36.15,-86.86,Lizzie,TN,1479375838000,20135961
217090610,Nashville,,1479866521000,36.13,-86.8,Logan Berryman,TN,1479790456000,20135961
223994229,Nashville,,1490605986000,36.14,-86.74,Logan Frank,TN,1497136569000,20135961
209321005,La Vergne,,1471015392000,36.01,-86.57,Lonnette Brame,TN,1471051785000,20135961
210992818,Murfreesboro,,1471269338000,35.87,-86.34,Lori Fragnella,TN,1474979966000,20135961
65566542,Nashville,,1483464499000,36.14,-86.74,Lori Jenkins,TN,1487702288000,20135961
158401652,Nashville,"Cleveland, OH",1467765653000,36.17,-86.78,Lori Singleton,TN,1470318379000,20135961
199293884,Mount Juliet,,1468219363000,36.21,-86.52,Lori V,TN,1498619693000,20135961
193325662,Madison,"Memphis, TN",1478177927000,36.27,-86.72,Love Endure,TN,1497455114000,20135961
187700521,Nashville,,1507662206000,36.08,-86.72,Lu Xiong,TN,1502518950000,20135961
228560782,Clarksville,,1496698880000,36.53,-87.35,Lucas Terrell Foley,TN,1496039813000,20135961
218682612,Nashville,,1486319278000,36.17,-86.78,Luke Hall,TN,1503785387000,20135961
208831760,Nashville,,1468271389000,36.08,-86.72,Luke Pickard,TN,1468270789000,20135961
233979143,Lebanon,,1507662206000,36.21,-86.31,Luna Bagley,TN,1502666917000,20135961
233443990,Murfreesboro,,1507662208000,35.87,-86.44,Lydia Simpson,TN,1508513071000,20135961
42081222,Murfreesboro,,1467679852000,35.87,-86.44,M,TN,1467818635000,20135961
223151452,Franklin,,1488755391000,35.93,-86.81,M. Lacey Lane,TN,1508281124000,20135961
193962388,Nashville,,1468848016000,36.17,-86.78,MacKenzie Gartner,TN,1468820356000,20135961
237353086,Brentwood,,1507662208000,36.0,-86.79,Mackylos,TN,1506311758000,20135961
221551947,Franklin,,1486458545000,35.92,-86.89,Madaug Kenyon,TN,1499328584000,20135961
207023582,Nashville,,1476989588000,36.17,-86.78,Madi,TN,1483869987000,20135961
129983482,Nashville,,1467778920000,36.18,-86.74,Madison White,TN,1470849220000,20135961
11579805,Nashville,,1507662207000,36.18,-86.74,Maggie Canby,TN,1508176390000,20135961
201646366,Nashville,,1481603512000,36.17,-86.72,Maggie Possel,TN,1481946839000,20135961
216961765,Nashville,,1479590874000,36.17,-86.78,Maggie Thomas,TN,1504893901000,20135961
184971418,Nashville,,1507662105000,36.1,-86.66,Maisha Faulkner,TN,1499932466000,20135961
220441809,Nashville,,1490605986000,36.08,-86.72,MAL,TN,1490570519000,20135961
197554401,Dallas,,1493763691000,32.87,-96.78,Malia Williams,TX,1493729975000,20135961
186139025,Nashville,,1476683632000,36.17,-86.78,Mallori Eason,TN,1477865545000,20135961
207130337,Brentwood,,1498578643000,36.0,-86.79,Mallory Dent,TN,1498578673000,20135961
154756432,Clarksville,,1496698878000,36.56,-87.41,Mandie VanBuren,TN,1495554966000,20135961
232294258,Los Angeles,,1507662205000,33.97,-118.24,Mandy,CA,1500639072000,20135961
229555733,Placentia,,1497320894000,33.87,-117.85,Mandy,CA,1497275510000,20135961
17876981,Nashville,"Westland, MI",1469564670000,36.17,-86.78,Mandy Long,TN,1482761584000,20135961
196491105,Nashville,,1507662208000,36.16,-86.81,Manessa,TN,1508549353000,20135961
214899808,Nashville,,1507662206000,36.13,-86.67,Manoj,TN,1501780612000,20135961
153633002,Nashville,"Batavia, IL",1477528476000,36.18,-86.74,Marcus,TN,1482682501000,20135961
201566723,Nashville,,1470614679000,36.17,-86.78,Maria L,TN,1495575666000,20135961
152218862,Nashville,"Nashville, TN",1496698878000,36.11,-86.74,Mariah,TN,1507659950000,20135961
220705934,Nashville,,1485410531000,36.17,-86.78,Mariah H. ,TN,1485406142000,20135961
225818397,Antioch,,1492463998000,36.04,-86.64,Marie Kimbro,TN,1492465355000,20135961
184653085,Nashville,,1469178887000,36.17,-86.78,Marita Buckles,TN,1471312195000,20135961
203368753,Antioch,Asheville,1498578643000,36.17,-86.88,Mark,TN,1498284022000,20135961
157397882,Nashville,,1496698879000,36.18,-86.74,Mark,TN,1495769016000,20135961
207912905,Nashville,,1467778920000,36.17,-86.78,Mark,TN,1470400297000,20135961
222350846,Nashville,,1496698880000,36.17,-86.78,Mark,TN,1496133702000,20135961
131419922,Brooklyn,,1478957011000,40.62,-74.03,marlee,NY,1478899147000,20135961
178518922,Hendersonville,"Brookston, IN",1496698879000,36.32,-86.61,Mary,TN,1495936334000,20135961
59400992,Nashville,,1489461736000,36.17,-86.78,Mary,TN,1489616375000,20135961
196126919,Brentwood,,1469742598000,36.0,-86.79,Mary Thursby,TN,1497554362000,20135961
8689400,Nashville,,1493430815000,36.16,-86.79,masoud,TN,1500769815000,20135961
16369031,Nashville,,1470458658000,36.16,-86.79,Matt,TN,1497128789000,20135961
206825202,Nashville,,1491703863000,36.17,-86.78,Matt,TN,1501882850000,20135961
229082390,Nashville,,1496698881000,36.09,-86.82,Matt Cognac,TN,1496685340000,20135961
154457632,Nashville,Nashville,1469437423000,36.16,-86.79,Matt Filppi,TN,1470459688000,20135961
209703164,Nashville,Murfreesboro,1469437423000,36.14,-86.74,Matt Lance,TN,1469584211000,20135961
8583463,Nashville,"Brunswick, GA",1507662204000,36.16,-86.79,Matthew,TN,1500224356000,20135961
171136962,Nashville,,1507662207000,36.17,-86.78,Matthew Clinkenbeard,TN,1507728840000,20135961
205201528,Nashville,,1483932842000,36.06,-86.96,Matthew Mahoney,TN,1508467384000,20135961
205300319,Hendersonville,,1496698879000,36.3,-86.62,Matthew Martinez,TN,1496700840000,20135961
15022801,Nashville,"Wauwatosa, WI",1489305158000,36.17,-86.78,Maura Kean,TN,1496343863000,20135961
229921123,Nashville,,1498578644000,36.13,-86.8,Mauricio Silva,TN,1498345965000,20135961
60421202,Nashville,"nashville,TN",1469368673000,36.11,-86.86,Max Bolster,TN,1472451314000,20135961
235632272,Nashville,,1507662207000,36.17,-86.78,Maxwel Alexander,TN,1504541814000,20135961
179450002,Nashville,"Atlanta, GA",1468496431000,36.18,-86.74,Maya,TN,1468496275000,20135961
209485137,Nashville,,1469123616000,36.17,-86.78,Megan,TN,1469122421000,20135961
195492671,La Vergne,,1492373559000,36.01,-86.57,Megan ,TN,1495319536000,20135961
223782947,Nashville,,1492373559000,36.17,-86.78,Megan Hord,TN,1495288296000,20135961
192791576,Murfreesboro,,1493252842000,35.87,-86.34,Megan M,TN,1508776696000,20135961
173039332,Nashville,Redondo Beach,1472577893000,36.17,-86.78,Megan Ralphs,TN,1472497522000,20135961
215485890,Nashville,,1477363075000,36.07,-86.73,Megan Swindler,TN,1477405741000,20135961
25848642,Hermitage,"Goodlettsville, TN",1471874918000,36.19,-86.6,Megan Williams,TN,1497441199000,20135961
208259475,Nashville,,1474232886000,36.15,-86.86,Meghan Norris,TN,1478485826000,20135961
178169942,Nashville,,1480510285000,36.17,-86.78,Meghan Sullivan,TN,1495394945000,20135961
109643902,Nashville,,1507662205000,36.13,-86.86,melanie,TN,1501545601000,20135961
201899702,Clarksville,,1477363075000,36.56,-87.41,Melissa,TN,1483506508000,20135961
187624182,Nashville,,1468730537000,36.15,-86.86,Melissa,TN,1499600595000,20135961
203228973,Nashville,,1477363075000,36.17,-86.78,Melissa,TN,1477187784000,20135961
187043533,Nashville,,1470018144000,36.17,-86.78,Melissa,TN,1497927448000,20135961
171899052,Nashville,,1493009468000,36.16,-86.79,Melissa,TN,1497495847000,20135961
229512175,Nashville,,1497320894000,36.17,-86.78,Melissa Raines,TN,1500003366000,20135961
203242400,Nashville,,1476683632000,36.17,-86.78,Melissa Urquijo,TN,1476360392000,20135961
233695654,Hendersonville,,1507662206000,36.32,-86.61,Mendy,TN,1507684614000,20135961
174040682,Nashville,,1507662207000,36.17,-86.78,Meredith Blankenship,TN,1505081644000,20135961
231492851,Nashville,,1507662204000,36.17,-86.78,Michael,TN,1500167127000,20135961
4529377,Nashville,,1494836459000,36.17,-86.78,Michael,TN,1507863683000,20135961
183799454,Franklin,La Vergne,1474867135000,35.92,-86.87,Michael,TN,1508287076000,20135961
31993672,Nashville,,1477543739000,36.17,-86.78,Michael Acton,TN,1498062351000,20135961
200121638,Nashville,,1476683633000,36.15,-86.86,Michael Crabtree,TN,1485032963000,20135961
186483768,Nashville,,1496698880000,36.17,-86.78,Michael Dotson,TN,1496207356000,20135961
60901252,Nashville,Nashville,1480617080000,36.17,-86.79,Michael Lee,TN,1498688862000,20135961
234733905,Nashville,,1507662206000,36.07,-86.73,Michael Locascio,TN,1508531949000,20135961
128164482,Nashville,,1478667056000,36.17,-86.78,Michael Parris,TN,1483230633000,20135961
222309615,Nashville,,1488181986000,36.06,-86.96,Michael Pess,TN,1488144062000,20135961
216570265,Nashville,,1480284606000,36.11,-86.86,Michael Samuel,TN,1494263085000,20135961
220433253,Atlanta,,1496698880000,33.79,-84.35,Michaud Reyna,GA,1497033600000,20135961
216294161,Smyrna,,1478667056000,35.97,-86.51,Michelle,TN,1485713319000,20135961
206859039,Nashville,"Lake Placid, FL",1507662206000,36.12,-86.63,Michelle Maldonado,TN,1502936215000,20135961
115055042,Nashville,Nashville,1467882429000,36.17,-86.78,Mickey Davis,TN,1473851394000,20135961
100286202,Nashville,"Valencia, CA",1498578643000,36.14,-86.81,Mike,TN,1502074309000,20135961
185666200,Nashville,,1471093781000,36.17,-86.72,Mike Brown,TN,1496675170000,20135961
195297656,Nashville,,1470842425000,36.14,-86.74,Mike Donaldson,TN,1492550544000,20135961
229158831,Nashville,,1496797098000,36.14,-86.81,Mike Iavarone III,TN,1496847890000,20135961
221659969,Spring Hill,,1490711138000,35.76,-86.88,Mike N,TN,1496346436000,20135961
148809192,Nashville,,1488755391000,36.14,-86.74,Mike Rogers,TN,1488494692000,20135961
228327157,Nashville,,1496698879000,36.17,-86.78,MikeND2017,TN,1495723291000,20135961
223903128,Nashville,,1498119737000,36.09,-86.82,Mil,TN,1498176153000,20135961
219062630,Lawrenceburg,,1483368547000,35.25,-87.33,Miles Scott,TN,1484310904000,20135961
194310006,Gilbert,,1496698880000,33.32,-111.71,Miranda L Cade,AZ,1496105693000,20135961
212613349,Franklin,,1481603512000,35.92,-86.89,Missy Ione Benoit,TN,1485012099000,20135961
197728004,Nashville,,1474347576000,36.17,-86.78,Mitchell Green,TN,1474297470000,20135961
84030192,Nashville,Nashville,1485800117000,36.1,-86.66,Mo,TN,1502137216000,20135961
237681848,Clarksville,,1507662208000,36.53,-87.34,Mo,TN,1508540471000,20135961
126442222,Nashville,,1467841118000,36.05,-86.74,Mohamed Sadek,TN,1467840382000,20135961
183499488,Brentwood,Brentwood,1496698879000,36.0,-86.79,Molly ,TN,1495914325000,20135961
94931712,Nashville,,1472577893000,36.16,-86.79,Monica,TN,1494091610000,20135961
233862370,Nashville,,1507662206000,36.17,-86.78,Monica,TN,1508443938000,20135961
158986022,Nashville,,1476683631000,36.14,-86.82,Morgan,TN,1475291858000,20135961
84012002,Nashville,"Cleveland, OH",1486167163000,36.17,-86.78,Muñeca,TN,1489197544000,20135961
76961952,Nashville,,1476683632000,36.08,-86.72,Musa,TN,1475653659000,20135961
90131362,Nashville,Mississippi,1478957011000,36.16,-86.79,N Rasberry,TN,1496011695000,20135961
94019772,Brentwood,,1479693910000,36.0,-86.79,Nadim Arnouk,TN,1496233583000,20135961
183137124,Nashville,,1497728017000,36.06,-86.96,Nakia Rhodes,TN,1507726036000,20135961
50047162,Hermitage,"Levittown, PA",1493009468000,36.17,-86.61,Nancy,TN,1498965105000,20135961
11563642,Nashville,"Ft. Lauderdale, FL",1482127643000,36.17,-86.78,Naomi,TN,1508286957000,20135961
22062221,Nashville,"Annapolis, MD",1478667056000,36.17,-86.72,Natalie,TN,1504469697000,20135961
227421616,Nashville,,1494836459000,36.17,-86.78,Natalie C,TN,1494557465000,20135961
53071102,Nashville,Nashville ,1478287177000,36.17,-86.72,Natalya,TN,1487629315000,20135961
159174162,Nashville,,1507662207000,36.17,-86.78,Natasha Mina Naz,TN,1504229078000,20135961
89961542,Nashville,,1507662208000,36.19,-86.8,Nate,TN,1505603175000,20135961
213917296,Nashville,,1476683631000,36.11,-86.78,Nathan Childers,TN,1475120023000,20135961
215822262,Nashville,,1477888377000,36.19,-86.8,Nathan Emrick,TN,1477804938000,20135961
193388680,Hermitage,,1479344365000,36.19,-86.6,Nathan Pegler,TN,1483211358000,20135961
203457314,Antioch,,1467664666000,36.17,-86.88,Nicholas,TN,1508544309000,20135961
183390527,Nashville,,1507662205000,36.16,-86.8,Nicholas Colella,TN,1501197607000,20135961
158694102,Nashville,,1476683632000,36.17,-86.78,Nichole Broadhacker,TN,1475553409000,20135961
197901531,Murfreesboro,,1487052714000,35.78,-86.33,Nick,TN,1507286143000,20135961
16019151,Nashville,Savannah,1467666243000,36.22,-86.86,Nick,TN,1482073889000,20135961
187273009,Nashville,Nashville,1486458545000,36.16,-86.78,Nick 'Legend Rival' Seawright,TN,1489969435000,20135961
214727694,Nashville,,1481354038000,36.17,-86.78,Nick Cavin,TN,1489161755000,20135961
218042027,Nashville,,1483597741000,36.17,-86.78,Nick Sherron,TN,1483522013000,20135961
56975632,Nashville,,1481958440000,36.17,-86.78,Nick Wilbar,TN,1481847679000,20135961
225428433,Nashville,,1491882576000,36.07,-86.73,Nicki Ferreira,TN,1491882169000,20135961
191679953,Nashville,"Westfield, IN",1478392870000,36.11,-86.86,Nicole,TN,1505320682000,20135961
208963988,Nashville,,1474437175000,36.17,-86.78,Nicole,TN,1490059568000,20135961
225476129,Franklin,,1491960238000,35.92,-86.89,Nicole Grayson,TN,1497721909000,20135961
197604047,Mount Pleasant,,1476683633000,35.54,-87.21,Nicole Kathleen,TN,1476672458000,20135961
213283992,Nashville,,1507662208000,36.17,-86.78,Nicole Kogowski,TN,1506448705000,20135961
225123645,Franklin,,1491504673000,35.93,-86.81,Nicole Kramp,TN,1491504736000,20135961
211533974,Nashville,,1471975783000,36.17,-86.78,Nicole Renee Collard,TN,1489643316000,20135961
43417002,Clarksville,,1467752700000,36.49,-87.23,Nika,TN,1467752642000,20135961
8918620,Nashville,Nashville,1496698878000,36.08,-86.72,Nikita ,TN,1495042471000,20135961
224346073,Hendersonville,,1490373750000,36.32,-86.61,Nikki,TN,1490669966000,20135961
236448907,Nashville,,1507662208000,36.17,-86.78,Nikki Blais,TN,1505351738000,20135961
52912652,Nashville,Cape Hatteras Island,1484368247000,36.17,-86.78,Nina,TN,1485723720000,20135961
194433173,Lancaster,,1471989022000,40.03,-76.27,Nina,PA,1480532168000,20135961
200628349,Nashville,,1476683632000,36.22,-86.77,NJ,TN,1488420334000,20135961
227543979,Clarksville,,1494836459000,36.53,-87.35,Noah Baker,TN,1494731607000,20135961
8525315,Clarksville,,1492030304000,36.54,-87.35,Nura,TN,1492971348000,20135961
145886642,Nashville,,1467946783000,36.17,-86.78,Ogechi Anyatonwu,TN,1467943303000,20135961
1738473,Nashville,"Nashville, Tennessee",1470511191000,36.11,-86.78,oh_me,TN,1485304734000,20135961
16384071,Nashville,"Nashville, TN",1483464499000,36.11,-86.86,Paige,TN,1483456893000,20135961
195016532,Brooklyn,,1480121239000,40.65,-73.95,Pat Leon,NY,1480118597000,20135961
185894784,Hendersonville,,1482256981000,36.33,-86.59,Patience Piesecki,TN,1482720145000,20135961
84539122,Nashville,Nashville,1482079465000,36.08,-86.72,Paula L Owens,TN,1482449657000,20135961
217963706,Nashville,,1499740194000,36.14,-86.81,Paulie,TN,1499907292000,20135961
145915072,Antioch,,1498578643000,36.16,-86.83,Pete,TN,1501108500000,20135961
187913704,Nashville,,1483912543000,36.17,-86.78,Peter Moelius,TN,1484950566000,20135961
221818384,Nashville,,1488405882000,36.13,-86.71,Phil Johnson,TN,1488403790000,20135961
227042758,Nashville,,1498578643000,36.19,-86.8,Phil Paulk,TN,1504992323000,20135961
133630932,Nashville,,1496698880000,36.17,-86.78,Philip,TN,1496715978000,20135961
18651311,Nashville,Birmingham,1474867135000,36.16,-86.79,Phillip,TN,1489171355000,20135961
228364452,Nashville,,1496698880000,36.1,-86.66,Phillip Andrews,TN,1496079232000,20135961
232051047,Nashville,,1507662205000,36.17,-86.78,Phoebe C,TN,1507663013000,20135961
123992672,Murfreesboro,Miami,1478177927000,35.82,-86.45,Pierre ,TN,1478180051000,20135961
230660825,Atlanta,,1507662207000,33.86,-84.4,Pilar,GA,1503617137000,20135961
34219902,Franklin,,1481557486000,35.93,-86.81,Poonit,TN,1481524940000,20135961
22624461,Nashville,Nashville,1470281204000,36.16,-86.79,prashant,TN,1475789094000,20135961
4278530,Nashville,,1489219783000,36.17,-86.72,Pratik,TN,1490191208000,20135961
211972810,Nashville,"Nashville, TN",1474232886000,36.17,-86.78,Prim Rams,TN,1479570324000,20135961
189197799,Smyrna,Smyrna,1469178887000,35.97,-86.51,psand82,TN,1508228505000,20135961
153745692,Nashville,Atlanta,1497747805000,36.18,-86.74,Q,TN,1497746518000,20135961
222890703,Nashville,,1488405881000,36.17,-86.78,Q Harris,TN,1488372342000,20135961
176181312,Nashville,Nashville ,1507662204000,36.16,-86.79,Quenna Stewart,TN,1500317803000,20135961
222710182,Nashville,,1488181986000,36.17,-86.78,Qumeasha Williams,TN,1488038687000,20135961
196827773,Nashville,Nashville,1497230401000,36.17,-86.78,R. Smith,TN,1497360508000,20135961
191874486,Lebanon,,1485146306000,36.23,-86.37,Rachael A.,TN,1485834667000,20135961
173895962,Hermitage,"Detroit, MI",1467918422000,36.19,-86.6,Rachael Joy,TN,1472223418000,20135961
192449206,Nashville,,1480510285000,36.07,-86.73,Rachel,TN,1480449256000,20135961
194968405,Murfreesboro,,1478177927000,35.87,-86.44,Rachel,TN,1484453780000,20135961
137518242,Lebanon,,1486167163000,36.21,-86.31,Rachel,TN,1486170019000,20135961
214321618,Nashville,,1490711138000,36.14,-86.74,Rachel,TN,1490656477000,20135961
217260899,Nashville,Nashville,1480121239000,36.09,-86.82,Rachel Harris,TN,1480730674000,20135961
220525339,Nashville,,1485197623000,36.17,-86.78,Rachel Manssur,TN,1485160914000,20135961
13233417,Nashville,,1483718228000,36.17,-86.78,Rachel McLaughlin Kirby,TN,1483910426000,20135961
160719742,Old Hickory,,1467764583000,36.25,-86.63,Rachel Thomason,TN,1497413144000,20135961
78022302,Nashville,,1507662208000,36.08,-86.72,Rahul T,TN,1508553686000,20135961
92069902,Nashville,,1472577893000,36.17,-86.78,Raja,TN,1482768210000,20135961
184991548,Nashville,,1476683632000,36.17,-86.78,Ram,TN,1508105529000,20135961
227934922,Murfreesboro,,1496698878000,35.82,-86.45,Randy Shaw,TN,1495247805000,20135961
76098972,Old Hickory,,1470458652000,36.17,-86.61,Raquel,TN,1488473151000,20135961
217887932,Lebanon,,1481179673000,36.21,-86.31,Raven Day,TN,1484531784000,20135961
229049863,Nashville,,1498119764000,36.15,-86.8,Ray Li,TN,1498072262000,20135961
187371529,Franklin,,1479444119000,35.92,-86.89,RC,TN,1507991118000,20135961
187539430,Nashville,,1473993040000,36.14,-86.89,Rebecca Benson,TN,1473952588000,20135961
8442926,Nashville,,1474867135000,36.16,-86.79,Rebecca Domm,TN,1490469206000,20135961
136643562,Nashville,,1467760814000,36.17,-86.78,Rebecca Duensing,TN,1470418798000,20135961
14328167,Nashville,,1477363075000,36.06,-86.96,Rebecca Holland,TN,1477140407000,20135961
229816429,Nashville,,1498119757000,36.17,-86.78,Rebecca Saterfield,TN,1505836438000,20135961
198206063,Murfreesboro,,1468534993000,35.78,-86.33,rebekah long,TN,1470059957000,20135961
233136900,Nashville,,1507662207000,36.17,-86.78,Reed,TN,1508464982000,20135961
7959454,Nashville,,1472577893000,36.17,-86.79,Regan Trainer,TN,1472420324000,20135961
217617423,Nashville,,1481149218000,36.17,-86.79,Regina Chambers,TN,1481111453000,20135961
202267537,Nashville,Kensett,1467694226000,36.22,-86.77,Reid Clagett,TN,1486702116000,20135961
162430602,Nashville,,1492210118000,36.17,-86.78,Renee,TN,1492201767000,20135961
226268765,Nashville,,1493076106000,36.13,-86.8,Renee,TN,1493132885000,20135961
184699351,Hermitage,,1468486156000,36.19,-86.6,Rhaiana Campbell,TN,1483379573000,20135961
41233752,Nashville,,1479344365000,36.08,-86.72,Richard,TN,1485020870000,20135961
232395732,New York,,1507662205000,40.72,-74.0,Richard Bunch,NY,1500916507000,20135961
196940575,Smyrna,"Rockwood, TN",1494836459000,35.97,-86.51,Richard Montgomery,TN,1508017258000,20135961
220248730,Fort Campbell,,1485215521000,36.65,-87.46,Richard Watson-Embry,KY,1485268422000,20135961
217350178,Nashville,,1483816591000,36.15,-86.81,Rob Brantley,TN,1508416987000,20135961
232667967,Antioch,,1507662205000,36.04,-86.64,Rob Rogers,TN,1501114774000,20135961
210156219,Hendersonville,"Bellingham, WA",1485146306000,36.32,-86.61,Robert Krause II,TN,1491017185000,20135961
56231982,Nashville,Murfreesboro,1507662206000,36.16,-86.79,Ronak,TN,1502123758000,20135961
222350414,Murfreesboro,Murfreesboro,1487559892000,35.87,-86.34,rtm,TN,1497026061000,20135961
131418822,Nashville,,1467688227000,36.18,-86.74,Rudy Martin,TN,1496443674000,20135961
226224370,Nashville,,1496797098000,36.17,-86.72,Ruthi Stoll,TN,1507676715000,20135961
182547023,Nashville,,1487543357000,36.17,-86.78,Ryan,TN,1487542692000,20135961
182678697,Nashville,,1496698880000,36.17,-86.78,Ryan,TN,1497290489000,20135961
219351499,Nashville,,1483718228000,36.17,-86.78,Ryan,TN,1483674016000,20135961
52175782,Nashville,,1496698878000,36.17,-86.78,Ryan Bliton,TN,1497488936000,20135961
207274472,Nashville,,1486958565000,36.17,-86.78,Ryan Claxton,TN,1497279706000,20135961
206603702,Nashville,,1474347592000,36.17,-86.78,Ryan Grace,TN,1474572838000,20135961
9178731,Nashville,,1498578643000,36.13,-86.8,Ryan Koriya,TN,1499033587000,20135961
183564319,Nashville,,1477888377000,36.14,-86.8,Ryan Murray,TN,1482004773000,20135961
238009675,Nashville,,1507662208000,36.17,-86.78,Ryan Newman,TN,1507662245000,20135961
228687013,Nashville,,1507662204000,36.17,-86.78,Ryan Olivia MacDonald,TN,1499822513000,20135961
210200330,New York,,1470511181000,40.75,-73.99,Ryan Powell,NY,1472077305000,20135961
215070403,Nashville,,1494836459000,36.15,-86.68,Ryan Stewart,TN,1507837080000,20135961
224892694,Nashville,,1493652902000,36.09,-86.82,Ryan Uebelhor,TN,1493647200000,20135961
215360696,Nashville,,1479590874000,36.17,-86.79,Ryan Witherspoon,TN,1497132142000,20135961
13069840,Franklin,BRENTWOOD,1481354038000,35.99,-86.9,Ryan Workman,TN,1493267439000,20135961
161561332,Murray,,1497062611000,36.62,-88.25,Sabrina,KY,1496971859000,20135961
199124047,Hermitage,,1467914698000,36.19,-86.6,Sabrina Riley-Chmelik,TN,1477432409000,20135961
222284609,Cookeville,,1488005543000,36.16,-85.51,Sai Chand,TN,1508536783000,20135961
188988997,San Antonio,,1470096616000,29.49,-98.55,Sam,TX,1485991761000,20135961
151512802,Nashville,,1496698878000,36.16,-86.79,Sam Ball,TN,1497935256000,20135961
228213759,Brentwood,,1496698878000,36.0,-86.79,Sam Bowers,TN,1495574683000,20135961
208708213,Nashville,,1479344365000,36.17,-86.78,Sam Carter,TN,1482685733000,20135961
187881841,Nashville,,1507662207000,36.13,-86.8,Sam Krause Parkington,TN,1504360678000,20135961
161116102,Nashville,,1492627948000,36.17,-86.78,Sam Nigmatov,TN,1492619973000,20135961
161907272,Nashville,,1471269338000,36.17,-86.78,Sam Penziner,TN,1490718757000,20135961
103288562,Nashville,"Ocala, FL",1470614673000,36.15,-86.69,Sam Swift,TN,1486388554000,20135961
126529282,Nashville,,1468165730000,36.17,-86.78,Samantha,TN,1468193283000,20135961
95610902,Hendersonville,,1467825599000,36.32,-86.61,Samantha,TN,1497538364000,20135961
229259590,Rockvale,,1498119769000,35.76,-86.55,Samantha,TN,1498144490000,20135961
182565218,Nashville,,1507662204000,36.17,-86.78,Samantha Hau,TN,1499828279000,20135961
150616362,Robbinsville,,1469980586000,35.35,-83.87,Samantha Sue Adams,NC,1469980298000,20135961
63382422,Knoxville,,1478392870000,36.03,-83.89,Samir Harb,TN,1478355755000,20135961
133286,Nashville,,1492037176000,36.26,-86.77,Sammyw.,TN,1492033964000,20135961
211550568,Nashville,,1472649159000,36.17,-86.78,Samuel Doucet,TN,1483517071000,20135961
221128997,Nashville,,1507662206000,36.17,-86.78,Sandeep Reddy,TN,1503374014000,20135961
204537968,Gallatin,,1468505927000,36.39,-86.45,Sandra Drury,TN,1470163948000,20135961
214579083,Nashville,,1507662207000,36.08,-86.72,Sanya Sharma,TN,1504970959000,20135961
148199842,Nashville,Nashville,1474232886000,36.16,-86.79,Sara,TN,1508046423000,20135961
142670412,Murfreesboro,,1484268608000,35.78,-86.33,Sara Moorehead,TN,1484235791000,20135961
194542083,Madison,,1476683633000,36.26,-86.71,Sara Walker,TN,1476417824000,20135961
215059619,Smyrna,,1490556912000,35.97,-86.51,Sarah,TN,1490523531000,20135961
149867102,Nashville,,1467778920000,36.17,-86.72,Sarah,TN,1501298514000,20135961
210407874,Nashville,,1490605986000,36.17,-86.78,Sarah,TN,1490587718000,20135961
210428820,Nashville,,1480526522000,36.17,-86.78,Sarah ,TN,1484777629000,20135961
210949857,Nashville,,1471269338000,36.17,-86.78,Sarah Arntz,TN,1472569347000,20135961
209224665,Nashville,,1469971779000,36.08,-86.72,Sarah Ashley Christian,TN,1508448921000,20135961
12470076,Brentwood,"Owensboro, Kentucky",1467882429000,36.0,-86.79,Sarah Blanford,TN,1483854850000,20135961
225124086,Murfreesboro,,1492373559000,35.87,-86.34,Sarah Doolittle,TN,1492371903000,20135961
201007670,Lebanon,,1498119746000,36.21,-86.31,Sarah Douglass,TN,1498134528000,20135961
127757322,Mount Juliet,"Jackson, TN",1467918422000,36.22,-86.52,Sarah Kemp,TN,1489956631000,20135961
191233632,Nashville,Nashville,1467752700000,36.16,-86.79,Sarah Merritt,TN,1490074974000,20135961
96518502,College Grove,,1476683631000,35.77,-86.71,Sarah Moore,TN,1474951008000,20135961
186094747,Nashville,"Houston, TX",1468388937000,36.17,-86.78,Sarah Smile,TN,1497327988000,20135961
208119443,Nashville,,1482826526000,36.16,-86.79,Sarah Smith,TN,1483327431000,20135961
192401676,Antioch,,1482858962000,36.04,-86.64,Sashira S.,TN,1508112563000,20135961
211191840,Nashville,,1471528377000,36.17,-86.78,Satish,TN,1479562771000,20135961
232320201,Nashville,,1507662205000,36.17,-86.78,Saul H,TN,1500689178000,20135961
226966223,Nashville,,1494030851000,36.13,-86.67,Saumya Patel,TN,1494029916000,20135961
218173260,Murfreesboro,,1507662205000,35.82,-86.45,Savannah Myers,TN,1500414289000,20135961
105165862,Nashville,,1479344365000,36.17,-86.78,Scott,TN,1495936162000,20135961
3710232,Nashville,,1469734732000,36.17,-86.78,Scott,TN,1495832064000,20135961
228520979,Nashville,,1496698879000,36.17,-86.78,Scott Jackson,TN,1497117323000,20135961
204969213,Hendersonville,,1478177927000,36.32,-86.61,Scott Jewett,TN,1477969183000,20135961
9561451,Franklin,"Franklin, TN",1468521154000,35.92,-86.89,Scott Nugent,TN,1506006168000,20135961
203277690,Antioch,,1476683631000,36.04,-86.64,Sean Davis,TN,1479263515000,20135961
213683400,Nashville,,1476989588000,36.13,-86.8,Seana Holt,TN,1476720419000,20135961
210903142,Nashville,,1471874918000,36.17,-86.78,Selina,TN,1507687641000,20135961
218469613,Nashville,,1491172406000,36.17,-86.78,Sequoyah Teague,TN,1491105514000,20135961
189225336,Nashville,Ocotlan,1479561586000,36.08,-86.72,Sergio Carrillo,TN,1508543443000,20135961
17470711,Gary,"Gary, Indiana",1488755391000,41.55,-87.32,Sergio Rodriguez,IN,1507661239000,20135961
228881242,Nashville,,1496797098000,36.16,-86.77,Shabahang Alavi-Behbahani,TN,1496797407000,20135961
75719072,Madison,Atlanta,1468460206000,36.26,-86.71,Shaena Dorris,TN,1490409939000,20135961
13372374,Gallatin,gallatin,1470750510000,36.39,-86.45,Shannon,TN,1477001367000,20135961
216813328,Nashville,,1479353980000,36.17,-86.78,Shannon Kozee,TN,1481332446000,20135961
216374980,Nashville,,1479620903000,36.15,-86.79,Shannon Lutes,TN,1479597442000,20135961
9087166,Nashville,Nashville,1467680581000,36.08,-86.72,Shareeah,TN,1470557619000,20135961
209160027,Old Hickory,,1507662208000,36.25,-86.63,Shaun Smith,TN,1506645430000,20135961
67864752,Nashville,,1472649159000,36.11,-86.86,Shawn McAuliffe,TN,1472652055000,20135961
214819002,Smyrna,,1507662206000,33.87,-84.51,Shawn Ray,GA,1502767407000,20135961
226134797,La Vergne,,1492825032000,36.01,-86.57,Shelbi Cox,TN,1492823138000,20135961
151199082,Nashville,,1498119750000,36.17,-86.78,Shelby,TN,1497926536000,20135961
213806753,Nashville,,1476683631000,36.11,-86.86,Shelby Arnold,TN,1474991957000,20135961
220624665,Nashville,,1485410531000,36.06,-86.96,Shelby Hadley,TN,1485541319000,20135961
221869810,Nashville,,1486883734000,36.1,-86.66,Shelby Hepner,TN,1486907879000,20135961
96619952,Clarksville,"Bethel, OH",1471961112000,36.49,-87.23,Shelly,TN,1471917496000,20135961
205157343,Nashville,,1497728018000,36.17,-86.78,Sheridan Cook,TN,1497726823000,20135961
224302706,Nashville,,1490279020000,36.17,-86.78,Sherry Nicole Hemric,TN,1490275045000,20135961
167948952,Nashville,,1486628737000,36.17,-86.78,Shinnki Liu,TN,1499047720000,20135961
208674882,Nashville,,1468314577000,36.17,-86.78,Shoteria,TN,1468360117000,20135961
188626528,Nashville,,1482079465000,36.15,-86.81,Sid Rao,TN,1495875466000,20135961
228125989,Nashville,,1507662204000,36.11,-86.78,siddhesh tiwari,TN,1499964739000,20135961
211008595,Brentwood,,1471269338000,36.0,-86.79,Sidharth Suvarna,TN,1508272972000,20135961
211231966,Nashville,,1471554077000,36.17,-86.78,Sierra McKissick,TN,1484888664000,20135961
209301011,Nashville,Land O Lakes,1473993013000,36.06,-86.96,Sierra Pricher,TN,1486328875000,20135961
227124984,Nashville,,1494836459000,36.17,-86.78,skylar ,TN,1494851086000,20135961
216851697,Madison,,1488005543000,36.26,-86.71,Skyler Wilson,TN,1496315973000,20135961
191916640,Nashville,,1476683631000,36.17,-86.78,Sly,TN,1475454162000,20135961
192031693,Antioch,,1470060759000,36.17,-86.88,Sosa,TN,1482965181000,20135961
196324266,Nashville,,1472577892000,36.17,-86.78,Spencer K,TN,1475758628000,20135961
211125597,Hendersonville,"Indianapolis, IN",1472577892000,36.31,-86.66,Spencer Knepp,TN,1473345602000,20135961
152133442,Nashville,Kolkata,1488489649000,36.17,-86.79,"Srijata ""Jay"" Chakravorti",TN,1498791246000,20135961
203968003,Nashville,,1488005543000,36.17,-86.78,Stacey Moshopoulos Scism,TN,1487988830000,20135961
230739764,Boston,Boston,1498919718000,42.34,-71.09,Stadnik,MA,1498946062000,20135961
4828588,Nashville,"Petersburg, IN",1481179673000,36.17,-86.78,Steph,TN,1505795774000,20135961
70340222,Nashville,Nashville,1507662205000,36.16,-86.79,Stephanie,TN,1501207943000,20135961
229440736,Nashville,,1497230401000,36.17,-86.78,Stephanie,TN,1498013196000,20135961
194716935,Nashville,NY,1496698878000,36.09,-86.82,Stephanie ,TN,1495306734000,20135961
230181565,Nashville,,1498119765000,36.16,-86.78,Stephanie Ann,TN,1498076951000,20135961
233689695,Brentwood,,1507662206000,36.0,-86.79,Stephanie Lyons,TN,1502323237000,20135961
48585972,Murfreesboro,,1469610170000,35.78,-86.33,Stephanie Sexton,TN,1469602755000,20135961
193858771,Nashville,"Paris, TN",1507662206000,36.13,-86.84,Stephen,TN,1503267978000,20135961
201034673,Nashville,,1483368547000,36.08,-86.72,Stephen Snyder,TN,1483333753000,20135961
198420268,Austin,,1469178887000,30.22,-97.75,Stephen Woudenberg,TX,1469488048000,20135961
207631040,Nashville,,1480617080000,36.17,-86.78,Steve Lilly,TN,1495295999000,20135961
37633802,Nashville,,1471874918000,36.17,-86.78,Steve MacLaren,TN,1472173206000,20135961
232952761,Murfreesboro,,1507662207000,35.84,-86.39,Steven Cooper,TN,1504145036000,20135961
208983065,Nashville,,1468573882000,36.17,-86.78,Susan,TN,1492315068000,20135961
186187494,Nashville,,1483368547000,36.17,-86.78,Susan Hewett,TN,1483363687000,20135961
12134295,Nashville,,1479620903000,36.15,-86.86,Suzanne,TN,1479709907000,20135961
207698640,Nashville,,1496698878000,36.17,-86.78,Suzie,TN,1494889830000,20135961
208891893,Murfreesboro,,1468347280000,35.78,-86.33,Sydnee Fogg,TN,1471743217000,20135961
212227324,Murfreesboro,,1477543739000,35.78,-86.33,Tae,TN,1477536500000,20135961
100099192,Nashville,,1485490021000,36.17,-86.78,Talitha Valentin,TN,1485490073000,20135961
206046107,Nashville,Nashville,1507662207000,36.18,-86.81,Tam Christ,TN,1504068986000,20135961
207502987,Nashville,,1477888377000,36.1,-86.66,Tamesha Stewart,TN,1488474406000,20135961
231912484,Hendersonville,,1507662205000,36.32,-86.61,Tamia Allison,TN,1500969094000,20135961
155746592,Murfreesboro,,1476683632000,35.82,-86.45,Tara Scarber Willms,TN,1475684574000,20135961
188190655,Nashville,,1476683631000,36.06,-86.96,Tarun,TN,1483405941000,20135961
219994900,Lafayette,,1507662206000,36.52,-86.04,Tascha Carlucci,TN,1502548673000,20135961
13626537,Nashville,,1478897238000,36.17,-86.78,Tatiana,TN,1478883158000,20135961
230564791,Nashville,,1498919718000,36.17,-86.78,Taylor,TN,1498592320000,20135961
184216179,Alpharetta,,1492730387000,34.12,-84.3,Taylor,GA,1492778691000,20135961
202629221,Nashville,,1482127643000,36.15,-86.69,Taylor Long,TN,1486310290000,20135961
210328759,Spartanburg,,1470750510000,34.93,-81.97,Taylor Reisz,SC,1470717284000,20135961
221969618,Nashville,,1496698878000,36.09,-86.82,Taylor Watkins,TN,1495247074000,20135961
225899193,Nashville,,1492572502000,36.13,-86.67,Tellis Gary,TN,1497468821000,20135961
207788795,Nashville,,1490221560000,36.18,-86.81,telwin edathil,TN,1508356016000,20135961
233531017,Nashville,,1507662206000,36.06,-86.96,Teresarah,TN,1502149024000,20135961
222052657,Nashville,,1487224822000,36.22,-86.86,Terrance Campbell,TN,1487117193000,20135961
199578731,Nashville,,1490221560000,36.16,-86.79,Terrell Bell,TN,1490577248000,20135961
99101442,Clarksville,"Anchorage, AK",1486319278000,36.53,-87.35,Terri Easter,TN,1486906711000,20135961
87679492,Clarksville,,1507662207000,36.53,-87.35,Tessie McCoy,TN,1504591029000,20135961
16318981,Nashville,Ann Arbor,1471269338000,36.17,-86.78,Thai,TN,1495287128000,20135961
198568357,Evansville,,1470614679000,37.96,-87.52,Thomas,IN,1473459688000,20135961
228758192,Mount Juliet,"Clarksville, TN",1497062611000,36.22,-86.52,Thomas,TN,1496836998000,20135961
148131732,Brentwood,,1498578643000,36.0,-86.79,Thomas Bynum,TN,1498339431000,20135961
51129622,Murfreesboro,Jacksonville,1488405881000,35.82,-86.45,Tiara Green,TN,1488730607000,20135961
208746196,Nashville,,1470458655000,36.17,-86.78,Tiffani,TN,1486211197000,20135961
13612163,Nashville,madison,1485410531000,36.17,-86.78,Tiffany,TN,1485368500000,20135961
218515812,Nashville,,1483718228000,36.17,-86.77,Tiffany Harris,TN,1490463812000,20135961
222088346,Murfreesboro,,1507662207000,35.85,-86.4,Tiffany Spangler,TN,1504838397000,20135961
206530593,Nashville,,1494836459000,36.17,-86.78,Tiffany Tapp,TN,1494548855000,20135961
7687311,Nashville,Nashville,1472577893000,36.09,-86.82,Tim,TN,1472591875000,20135961
196305706,Hendersonville,,1469564670000,36.32,-86.61,Tim,TN,1470409790000,20135961
182983777,Nashville,,1470921892000,36.21,-86.72,Tim Watkins,TN,1472063673000,20135961
205864890,Nashville,"Nashville, TN",1486167163000,36.08,-86.72,Timothy Loayza,TN,1486168374000,20135961
195695659,Murfreesboro,"Smyrna, TN",1507662204000,35.78,-86.33,Timothy Prince,TN,1499530339000,20135961
53999432,Savannah,"Savannah, TN",1496698878000,35.23,-88.23,Timothy Smith,TN,1495575838000,20135961
200003607,Nashville,"Le Mans, FR",1485146306000,36.16,-86.77,Tom,TN,1486317008000,20135961
157434242,Nashville,,1483822596000,36.17,-86.78,Tom,TN,1487039943000,20135961
218786674,Nashville,,1483037918000,36.18,-86.74,Tom Berry,TN,1501710275000,20135961
186320204,Nashville,,1507662204000,36.17,-86.72,Tommy,TN,1500400796000,20135961
219136244,Clarksville,,1483816591000,36.53,-87.35,Tommy Lee,TN,1483773250000,20135961
210500679,Goodlettsville,,1470511190000,36.32,-86.72,Toni Lynn,TN,1470616443000,20135961
179884652,Antioch,Norcross,1507662206000,36.04,-86.64,Tony,TN,1502808313000,20135961
235199477,Nashville,,1507662207000,36.16,-86.79,Tony Lu,TN,1504060788000,20135961
226248808,Brentwood,,1493009468000,36.0,-86.79,Tori,TN,1492975595000,20135961
224672844,Nashville,,1490821017000,36.17,-86.78,Torri Carver,TN,1490782496000,20135961
209533227,Nashville,,1469201034000,36.07,-86.93,Tosh,TN,1473204640000,20135961
227894637,Nashville,,1496698880000,36.17,-86.78,Tracey Lynn Collins,TN,1508079559000,20135961
233340174,La Vergne,,1507662206000,36.01,-86.57,Travis Drawdy,TN,1507682669000,20135961
230745668,Nashville,,1498919718000,36.17,-86.78,Trebor,TN,1498760298000,20135961
208855119,Nashville,,1472577892000,36.15,-86.79,Trent,TN,1472283622000,20135961
207877385,Nashville,,1467778920000,36.18,-86.81,Trent Little,TN,1468715874000,20135961
220933065,Nashville,,1485728495000,36.17,-86.78,Trent Wade,TN,1489601601000,20135961
205101066,Nashville,,1471961112000,36.17,-86.78,Ty,TN,1508167789000,20135961
218757145,Nashville,,1498578643000,36.16,-86.78,Tyler Ammons,TN,1498607028000,20135961
220432669,Goodlettsville,,1507662203000,36.32,-86.72,Tyler Dinwiddie,TN,1499198378000,20135961
200051335,Nashville,,1507662203000,36.22,-86.86,Tyler M.,TN,1499177272000,20135961
193239924,Nashville,Nashville,1467760814000,36.11,-86.78,Valencia ,TN,1467759240000,20135961
8364973,Nashville,Jacksonville,1481958440000,36.17,-86.78,Vallarie,TN,1495296055000,20135961
165437502,Murfreesboro,,1480890542000,35.85,-86.35,Vance,TN,1486463052000,20135961
235368725,Mount Juliet,,1507662207000,36.21,-86.52,Vanessa Niu,TN,1508428076000,20135961
206083956,Nashville,,1482826526000,36.17,-86.78,Victor IE,TN,1486793975000,20135961
191190202,Nashville,,1476683632000,36.17,-86.78,Victor Ochoa,TN,1475459314000,20135961
104412762,Nashville,Nashville,1469999006000,36.17,-86.78,Victoria Franz,TN,1502310063000,20135961
194180707,Franklin,,1491703863000,35.94,-86.83,Vinny,TN,1496183857000,20135961
235975633,Hermitage,,1507662207000,36.19,-86.6,Vinter Skugga,TN,1504888756000,20135961
193527552,Nashville,,1476989588000,36.17,-86.78,Vishnu Anna,TN,1477657271000,20135961
234974096,Clarksville,,1507662207000,36.56,-87.41,Vrod,TN,1504222809000,20135961
230664082,Nashville,,1498919718000,36.15,-86.86,Wali Johnson,TN,1499365973000,20135961
2839285,Clarksville,,1479561586000,36.53,-87.35,warren,TN,1482681625000,20135961
189912135,Miami,,1507662207000,25.78,-80.2,Will,FL,1504338182000,20135961
109091072,Nashville,,1476683633000,36.16,-86.78,Will Hubbs,TN,1508160863000,20135961
221911083,Charlotte,Charlotte,1490221560000,35.32,-80.74,Will Long,NC,1490387189000,20135961
220698601,Nashville,,1485490021000,36.17,-86.78,William Dyer,TN,1486228148000,20135961
189999979,Nashville,,1471117367000,36.17,-86.78,William Hickok,TN,1482766917000,20135961
126268732,Nashville,,1507662204000,36.17,-86.78,William Sardin,TN,1499979333000,20135961
237084287,Nashville,,1507662208000,36.17,-86.78,Winston,TN,1506006919000,20135961
212002556,Mount Juliet,,1480510285000,36.22,-86.52,Wisarut Suwanprasert,TN,1480312441000,20135961
58043742,Nashville,New Zealand,1470235701000,36.11,-86.86,Woosug Kang,TN,1470408644000,20135961
214072621,Kyiv,Kyiv,1477363075000,50.44,30.52,Yandex1,,1477631021000,20135961
199547904,Hermitage,,1467988582000,36.19,-86.6,Yasminne,TN,1479491484000,20135961
217814570,Nashville,,1507662206000,36.17,-86.78,Ying,TN,1507692036000,20135961
220216586,Nashville,"Columbus, GA",1490221560000,36.17,-86.78,Zac Slay,TN,1497487042000,20135961
210930057,Nashville,Murfreesboro,1471269338000,36.15,-86.89,Zach,TN,1490024759000,20135961
233784002,Clarksville,,1507662206000,36.53,-87.35,Zack Anderson,TN,1507662522000,20135961
11149295,Nashville,Delphos,1497062611000,36.17,-86.72,Zack Benner,TN,1497495931000,20135961
17686511,Nashville,,1470244111000,36.14,-86.74,Zack Register,TN,1472093619000,20135961
224839003,Hermitage,,1491029637000,36.19,-86.6,Zackary Coulter,TN,1491017714000,20135961
49502512,Nashville,,1483138615000,36.16,-86.79,Zobie,TN,1507782366000,20135961
209704842,Nashville,,1471442476000,36.11,-86.78,Zoie Babb,TN,1471880294000,20135961
