id,city,hometown,joined,lat,lon,name,state,visited,group_id
220501498,Nashville,,1485128522000.0,36.17,-86.78,Aba Awad,TN,1485128522000.0,20780059
221632815,Nashville,,1486545568000.0,36.06,-86.96,Abdulelah Alqoud,TN,1486545568000.0,20780059
227152667,Nashville,,1494198668000.0,36.18,-86.64,Akash Vardhan,TN,1494198668000.0,20780059
221373602,Nashville,,1486219581000.0,36.07,-86.73,alex alhaj,TN,1486219581000.0,20780059
217483379,Nashville,,1480482259000.0,36.17,-86.78,Alex Knight,TN,1480482259000.0,20780059
225640161,Murfreesboro,,1492134688000.0,35.87,-86.44,Amanda Whiteaker ,TN,1492134688000.0,20780059
3227303,Nashville,,1493000124000.0,36.17,-86.72,Amir,TN,1493000124000.0,20780059
114654992,Nashville,,1477257466000.0,36.13,-86.8,Amy,TN,1488669317000.0,20780059
206741636,Nashville,,1477108722000.0,36.17,-86.78,Andrew,TN,1489956700000.0,20780059
224569029,Nashville,,1490643557000.0,36.08,-86.72,Angela D,TN,1490643557000.0,20780059
215629714,Nashville,,1477493725000.0,36.17,-86.78,Annie,TN,1477493725000.0,20780059
14948621,Nashville,,1477235845000.0,36.16,-86.79,Audrey,TN,1481881116000.0,20780059
219378411,Springfield,,1483714836000.0,36.52,-86.87,Bernie Sands,TN,1483714836000.0,20780059
222171588,Nashville,,1487287469000.0,36.08,-86.72,Beth Pinkerton,TN,1489370491000.0,20780059
222289339,Nashville,,1487454109000.0,36.17,-86.72,Birtha Street,TN,1487454109000.0,20780059
200948309,Hermitage,,1477271605000.0,36.19,-86.6,Brandi Leach,TN,1477271605000.0,20780059
226008900,Franklin,,1492646048000.0,35.92,-86.87,Brandon Johantges,TN,1492646048000.0,20780059
202424309,Nashville,,1477868477000.0,36.11,-86.78,Brent ,TN,1477868477000.0,20780059
220023560,Hendersonville,,1484530206000.0,36.32,-86.61,Brenton Robar,TN,1484530206000.0,20780059
215257978,Nashville,,1476926274000.0,36.15,-86.79,Brett Hansen,TN,1477182918000.0,20780059
223954493,Hermitage,,1489790464000.0,36.19,-86.6,Brittany Martin,TN,1489790464000.0,20780059
221305173,Nashville,,1495732369000.0,36.17,-86.72,CallieC,TN,1495732369000.0,20780059
229028593,Ashland City,,1496619254000.0,36.28,-87.07,Candi,TN,1496619254000.0,20780059
229595517,Murfreesboro,,1497316708000.0,35.82,-86.45,Candi LopezJayo,TN,1497316708000.0,20780059
229296141,Nashville,,1496946868000.0,36.17,-86.78,Candra K,TN,1496946868000.0,20780059
184297941,Nashville,,1477258046000.0,36.17,-86.78,Carl D. Cullen,TN,1489439972000.0,20780059
226345715,Nashville,,1493098250000.0,36.17,-86.78,Cason Grace,TN,1493098250000.0,20780059
3691878,Nashville,,1483199700000.0,36.16,-86.79,Catherine D.,TN,1483199700000.0,20780059
221125818,Murfreesboro,,1485909606000.0,35.78,-86.33,Cheryl Smith,TN,1485909606000.0,20780059
219639138,Bon Aqua,,1484048508000.0,35.93,-87.25,Chris Simpson,TN,1484048508000.0,20780059
222215242,Nashville,,1487348772000.0,36.17,-86.78,chuck wofford,TN,1487348772000.0,20780059
222328533,Nolensville,,1487514204000.0,35.94,-86.67,Cindy Jenkins,TN,1489708674000.0,20780059
225249722,Old Hickory,,1491610511000.0,36.25,-86.63,Cj Caruthers,TN,1491610511000.0,20780059
224207140,Nashville,,1490135106000.0,36.17,-86.78,Conway Christopher Smith,TN,1490135106000.0,20780059
226051116,Nashville,,1492709521000.0,36.11,-86.78,Corey Rich,TN,1492709521000.0,20780059
220111188,Gallatin,,1484633900000.0,36.39,-86.45,Courtney Baum,TN,1484666579000.0,20780059
228194872,Franklin,,1495553545000.0,35.93,-86.81,Crystal Howe,TN,1495553545000.0,20780059
220859706,Adams,,1485576576000.0,36.57,-87.1,Daniel Bunger,TN,1485576576000.0,20780059
229796513,Goodlettsville,,1497577241000.0,36.33,-86.74,Darren Kurtz,TN,1497577241000.0,20780059
231894781,Nashville,,1500148057000.0,36.15,-86.86,David Burns,TN,1500148057000.0,20780059
219691897,Franklin,,1484096953000.0,35.93,-86.81,David Wohlgey Villeareal,TN,1484096953000.0,20780059
217743033,Culleoka,,1480942986000.0,35.46,-86.99,Deanna Vandygriff,TN,1480942986000.0,20780059
180528962,Madison,,1497648735000.0,36.26,-86.71,Deborah Gooch,TN,1497648735000.0,20780059
5718360,Nashville,,1477593583000.0,36.17,-86.78,debra,TN,1489677179000.0,20780059
233494248,Lebanon,,1502113999000.0,36.21,-86.31,Dee Fontenot,TN,1502113999000.0,20780059
220157863,Nashville,,1484690780000.0,36.11,-86.78,Denise Robinson ,TN,1489616348000.0,20780059
222488509,Nashville,,1487721210000.0,36.17,-86.78,Donna Anderson,TN,1487721210000.0,20780059
225371993,Franklin,,1491787130000.0,35.92,-86.89,Donna Lawson,TN,1492123591000.0,20780059
223560646,Nashville,,1489245950000.0,36.17,-86.78,Donovan Smith,TN,1489245950000.0,20780059
182570117,Antioch,,1491182777000.0,36.17,-86.88,doyi,TN,1491182777000.0,20780059
215195507,Nashville,,1476835440000.0,36.1,-86.66,Dvonte Wallace,TN,1476835440000.0,20780059
219114378,Nashville,,1483399674000.0,36.08,-86.72,Elliott Neece,TN,1483399674000.0,20780059
219359431,Murfreesboro,,1483682984000.0,35.85,-86.36,Emily Darcy,TN,1483682984000.0,20780059
228690173,Nashville,,1496197375000.0,36.08,-86.72,Emily McGinley,TN,1496197375000.0,20780059
188347016,Franklin,,1478827064000.0,35.92,-86.89,Erika,TN,1478827064000.0,20780059
215947278,Clarksville,,1477998534000.0,36.56,-87.41,Garland Cain,TN,1477998534000.0,20780059
9627667,Nashville,,1478295279000.0,36.15,-86.86,Garrett ,TN,1495665309000.0,20780059
219737983,Franklin,,1484160868000.0,35.99,-86.9,Gigi Garcia,TN,1484160868000.0,20780059
223615271,Pegram,,1489326407000.0,36.12,-87.03,Ginger Ohlman,TN,1489326407000.0,20780059
199453163,Nashville,,1477184877000.0,36.09,-86.82,Glen Sisk,TN,1481493223000.0,20780059
226247119,Greenbrier,,1492973009000.0,36.43,-86.8,Glenda Stephens,TN,1492973009000.0,20780059
228068237,Mount Juliet,Albuquerque ,1495423162000.0,36.21,-86.52,Grace Brown,TN,1495423162000.0,20780059
190237432,Nashville,Nashville,1500437474000.0,36.06,-86.96,Guy Murphree,TN,1505748323000.0,20780059
219254567,Hendersonville,,1483553343000.0,36.32,-86.61,Hannah Nuiver,TN,1483595366000.0,20780059
223088367,La Vergne,,1488567016000.0,36.01,-86.57,Heather Johnman,TN,1489281480000.0,20780059
181729622,Nashville,,1476762949000.0,36.11,-86.86,Heide,TN,1490468337000.0,20780059
217572070,Nashville,,1480638784000.0,36.11,-86.86,Hollie Ann,TN,1480638784000.0,20780059
164128362,Nashville,,1477335040000.0,36.16,-86.79,Holly Schario,TN,1489856475000.0,20780059
162810822,Nashville,,1492763859000.0,36.18,-86.74,J,TN,1495616125000.0,20780059
217195777,Nashville,,1479973714000.0,36.08,-86.72,James Upchurch,TN,1479973714000.0,20780059
228535821,Madison,,1496005679000.0,36.29,-86.72,Janelle Dawn,TN,1496005679000.0,20780059
219013169,Murfreesboro,,1483276634000.0,35.85,-86.36,Jared Shepler,TN,1483276634000.0,20780059
230821326,Nashville,,1498857036000.0,36.11,-86.78,Javaneh Hemmat,TN,1498857036000.0,20780059
194245116,Nashville,,1477155009000.0,36.17,-86.78,Jeannie Whitlock,TN,1477155009000.0,20780059
147518322,Nashville,,1485286556000.0,36.17,-86.78,Jeff Hardaway,TN,1485286556000.0,20780059
229316379,Clarksville,,1496969771000.0,36.56,-87.41,Jennifer Hiecke,TN,1496969771000.0,20780059
230980084,Mount Juliet,,1499053758000.0,36.21,-86.52,Jennifer Jones,TN,1499053758000.0,20780059
221738457,Madison,,1486680747000.0,36.26,-86.71,Jennifer Masterson,TN,1486680747000.0,20780059
38690452,Nashville,Cypress,1478013211000.0,36.11,-86.8,Jessica,TN,1481488506000.0,20780059
207509906,Nashville,,1477135423000.0,36.17,-86.78,Jessica Gong,TN,1477141821000.0,20780059
230559568,Nashville,,1498529473000.0,36.06,-86.96,Jessica Lea Nicholson,TN,1498529473000.0,20780059
216587756,Nashville,,1479018034000.0,36.11,-86.86,Jibin George,TN,1479018034000.0,20780059
3380276,Nashville,Nashville/Shelbyville,1478727040000.0,36.11,-86.78,Jim H,TN,1507412221000.0,20780059
218910289,Nashville,,1483117618000.0,36.17,-86.78,Jimmy Horton,TN,1483117618000.0,20780059
215529599,Murfreesboro,,1477341725000.0,35.87,-86.42,John Glasner,TN,1477341725000.0,20780059
66839232,Nashville,,1477144114000.0,36.17,-86.8,John McAndrew,TN,1489280992000.0,20780059
219105350,Nashville,,1483392308000.0,36.17,-86.78,Jon Jaffe,TN,1483392308000.0,20780059
228731982,Nashville,,1496254311000.0,36.15,-86.86,Joseph Lee,TN,1496254311000.0,20780059
228880275,Murfreesboro,,1496437635000.0,35.78,-86.33,Josh Fuchcar,TN,1496437635000.0,20780059
94703512,Nashville,,1477261387000.0,36.17,-86.79,Joshua Brunstad,TN,1477261387000.0,20780059
189875835,Cleveland,,,41.49,-81.67,,OH,,20780059
220592707,Murfreesboro,,1485238568000.0,35.78,-86.33,Justin Clem,TN,1485238568000.0,20780059
220018827,Hendersonville,,1484525167000.0,36.32,-86.61,Justin Hopkins,TN,1484823078000.0,20780059
5655924,Nashville,,1477183060000.0,36.17,-86.78,karen,TN,1489922873000.0,20780059
194063770,Nashville,,1477842343000.0,36.11,-86.78,Kelly Johnston,TN,1477842343000.0,20780059
72012832,Nashville,,1496368685000.0,36.13,-86.78,Kelly Thompson,TN,1496368685000.0,20780059
215773393,Nashville,,1477717279000.0,36.15,-86.8,Kevin Normandeau,TN,1477717279000.0,20780059
219125934,Nashville,,1483411012000.0,36.08,-86.72,Kick N Ought,TN,1483411012000.0,20780059
226135246,Nashville,,1492821617000.0,36.17,-86.78,Kristian,TN,1492821617000.0,20780059
230455324,Nashville,,1498408692000.0,36.17,-86.78,Kristin Marie,TN,1498408692000.0,20780059
8382891,Hermitage,"Austin, TX",1485373351000.0,36.19,-86.6,Kristina,TN,1485373351000.0,20780059
220013933,Madison,,1484519438000.0,36.26,-86.71,LaNeeca Cannon,TN,1484519438000.0,20780059
222487532,Nashville,,1487720091000.0,36.17,-86.78,Laya B,TN,1487720091000.0,20780059
215516732,Nashville,,1477327715000.0,36.15,-86.8,Leah Jones,TN,1477327715000.0,20780059
218829868,Nashville,,1482982004000.0,36.21,-86.77,Lenore Ellsworth,TN,1482982004000.0,20780059
141104092,Mullica Hill,,1483916664000.0,39.72,-75.22,Lisa,NJ,1488671735000.0,20780059
209048175,Nashville,,1477097826000.0,36.17,-86.78,Liz,TN,1477097826000.0,20780059
215371646,Franklin,,1477101930000.0,35.92,-86.89,Logan Gillis,TN,1477101930000.0,20780059
221070436,Nashville,,1485840061000.0,36.17,-86.78,Logan Vaughan,TN,1486071845000.0,20780059
225608139,Franklin,,1492106180000.0,35.93,-86.84,Lucille Pasley,TN,1492106180000.0,20780059
197301270,Murfreesboro,,1489262303000.0,35.87,-86.44,Mar'Londa Allison,TN,1489347277000.0,20780059
222367515,Clarksville,,1487562403000.0,36.53,-87.35,mary schillo,TN,1487562403000.0,20780059
230839591,Nashville,,1498878072000.0,36.11,-86.86,Matt Boyle,TN,1498878072000.0,20780059
635319,Nashville,Nashville,1477273384000.0,36.06,-86.96,Max,TN,1477273384000.0,20780059
222037956,Nashville,,1489169493000.0,36.17,-86.78,Mayra Flores,TN,1489169493000.0,20780059
226718448,Nashville,,1493605993000.0,36.17,-86.78,mazie galle,TN,1493605993000.0,20780059
92757362,Troy,,1477196129000.0,42.6,-83.12,Meg Fisher,MI,1477196129000.0,20780059
222533916,Nashville,,1487785994000.0,36.17,-86.78,Meghana Thunga,TN,1487785994000.0,20780059
149318742,Nashville,,1480626108000.0,36.1,-86.66,Melissa Holt,TN,1489961993000.0,20780059
126438462,Clarksville,,1487478127000.0,36.53,-87.35,Michael,TN,1487478127000.0,20780059
215970349,Nashville,,1478029061000.0,36.11,-86.86,Michael Butler,TN,1478029061000.0,20780059
226437965,La Vergne,,1493221272000.0,36.0,-86.57,Michael Nefzger,TN,1497317411000.0,20780059
228764733,La Vergne,,1496291511000.0,36.01,-86.57,Michael Pagan,TN,1496719982000.0,20780059
10702863,Nashville,,1480003745000.0,36.04,-86.78,Mike Blumberg,TN,1480003745000.0,20780059
87640112,Spring Hill,,1492957998000.0,35.76,-86.88,Mitch,TN,1492957998000.0,20780059
216415570,Antioch,,1478731617000.0,36.04,-86.64,Monica Word,TN,1478731617000.0,20780059
225853802,Clarksville,,1492454231000.0,36.53,-87.35,Ms. Flip,TN,1492454231000.0,20780059
219672175,Loudon,Nashville,1484076288000.0,35.71,-84.3,Natalie ,TN,1484076288000.0,20780059
223161983,Pleasant View,,1488671918000.0,36.38,-87.04,Natalie Hudgens,TN,1488671918000.0,20780059
53071102,Nashville,Nashville ,1477106261000.0,36.17,-86.72,Natalya,TN,1477106261000.0,20780059
223510403,Nashville,,1489172657000.0,36.18,-86.74,Nathan Aikins,TN,1490066919000.0,20780059
223580959,Nashville,,1489275093000.0,36.17,-86.79,nathan lopez,TN,1489275093000.0,20780059
234168251,Franklin,,1502888370000.0,35.93,-86.81,Olivia Oetjens,TN,1502888370000.0,20780059
228869429,Lebanon,,1496426595000.0,36.21,-86.31,Pam Earnest,TN,1496426595000.0,20780059
222652466,Hermitage,,1487954585000.0,36.19,-86.6,Pamela Freed,TN,1487954585000.0,20780059
68909682,Nashville,,1477090750000.0,36.14,-86.74,Patty,TN,1480458962000.0,20780059
137411322,Nashville,,1477088498000.0,36.17,-86.72,Phillip R. Jones,TN,1490244510000.0,20780059
210490585,Springfield,,1478053017000.0,36.52,-86.87,Rachel,TN,1481622954000.0,20780059
218209111,Nashville,,1481758910000.0,36.21,-86.72,Rachel Cox,TN,1481758910000.0,20780059
221734770,Goodlettsville,,1486676936000.0,36.32,-86.7,Rachel Glore,TN,1490196703000.0,20780059
228742071,Nashville,,1496265106000.0,36.17,-86.78,Rachel Mallard,TN,1496265106000.0,20780059
78741522,Brentwood,"Glendale, California",1479618705000.0,36.0,-86.79,Randy Tashjian,TN,1479618705000.0,20780059
222681978,Nashville,,1487994448000.0,36.17,-86.78,Rebecca Ware,TN,1488741122000.0,20780059
222721189,Nashville,,1488051925000.0,36.21,-86.72,RLB,TN,1488164011000.0,20780059
218210137,Murfreesboro,,1481760433000.0,35.78,-86.33,Robert Welin,TN,1481760433000.0,20780059
222120480,Nashville,,1487210393000.0,36.18,-86.74,Robin Guest,TN,1487210393000.0,20780059
185282355,Madison,,1477873951000.0,36.26,-86.71,Ron,TN,1477873951000.0,20780059
220450179,Seattle,,1485063524000.0,47.61,-122.33,Sabit,WA,1485063524000.0,20780059
224887394,Murfreesboro,,1491088935000.0,35.82,-86.45,Sabrina Adams,TN,1491088935000.0,20780059
219740784,Nashville,,1484164628000.0,36.15,-86.79,Sade,TN,1484164628000.0,20780059
46546712,Mount Juliet,,1487062828000.0,36.16,-86.5,Sandeep S Darawade,TN,1487062828000.0,20780059
226226126,Murfreesboro,,1492947752000.0,35.85,-86.4,Sandra Williams,TN,1492947752000.0,20780059
215059619,Smyrna,,1481678134000.0,35.97,-86.51,Sarah,TN,1498363271000.0,20780059
209224665,Nashville,,1477080475000.0,36.08,-86.72,Sarah Ashley Christian,TN,1489893078000.0,20780059
228682936,White House,,1496188237000.0,36.48,-86.69,Sean Michael Keyes,TN,1496188237000.0,20780059
193791049,Nashville,,1501485617000.0,36.13,-86.8,Sebastian,TN,1501485617000.0,20780059
10884374,Nashville,,1477235466000.0,36.16,-86.79,Sharon ,TN,1477235466000.0,20780059
230886298,Nashville,,1498937008000.0,36.15,-86.81,Stefan Zavalin,TN,1498937008000.0,20780059
215634002,Nashville,,1477499294000.0,36.18,-86.81,Stefano Scotti,TN,1477499294000.0,20780059
197157597,Nashville,,1499302858000.0,36.08,-86.72,Stephanie Conway,TN,1499302858000.0,20780059
229735280,Mount Juliet,,1497494417000.0,36.21,-86.52,Stephen Broyles,TN,1497494417000.0,20780059
218885959,Clarksville,,1483072573000.0,36.53,-87.34,Steven Williams,TN,1483072573000.0,20780059
12134295,Nashville,,1478667539000.0,36.15,-86.86,Suzanne,TN,1478667539000.0,20780059
206982417,Nashville,,1477272279000.0,36.17,-86.78,Ted Sahagian,TN,1489335845000.0,20780059
224273849,Hopkinsville,,1490226615000.0,36.87,-87.49,Terri Phelps Jones,KY,1490226615000.0,20780059
226209587,Nashville,,1492918808000.0,36.17,-86.78,Terry Barlow,TN,1492918808000.0,20780059
6294796,Mount Juliet,,1485218951000.0,36.22,-86.52,Theresia,TN,1485218951000.0,20780059
222476453,Nashville,,1487707500000.0,36.17,-86.78,Thomas Ribar,TN,1487707500000.0,20780059
218384976,Clarksville,,1482106137000.0,36.49,-87.23,THo? Beenboutdat,TN,1482106137000.0,20780059
229252958,Nashville,,1496887613000.0,36.16,-86.66,Tiffany H,TN,1496887613000.0,20780059
228048170,Franklin,,1495398292000.0,35.93,-86.81,Timothy Jaikissoon,TN,1495398292000.0,20780059
7550307,Nashville,,1477139017000.0,36.17,-86.78,Tom Feller,TN,1477139017000.0,20780059
223973544,Nashville,,1489820210000.0,36.15,-86.8,Tom Sanchez,TN,1489820210000.0,20780059
225301911,Nashville,,1491686541000.0,36.17,-86.78,Tony Hughes,TN,1491686541000.0,20780059
220958658,Nashville,,1485709498000.0,36.17,-86.78,Tony Mcclaren,TN,1485709498000.0,20780059
225935828,Nashville,,1492553478000.0,36.07,-86.73,Tori Shaw,TN,1492553478000.0,20780059
212132073,Nashville,,1494568090000.0,36.18,-86.74,Trevor Miller,TN,1494568090000.0,20780059
229526648,Clarksville,,1497235158000.0,36.53,-87.35,Tricia Hale,TN,1497235158000.0,20780059
225923443,Nashville,,1492539896000.0,36.15,-86.81,Triunn Maeginbiarnarson,TN,1492539896000.0,20780059
226149192,Chapel Hill,,1492841450000.0,35.62,-86.62,Tyler,TN,1492841450000.0,20780059
221676174,Nashville,,1486600169000.0,36.06,-86.96,Valerie Carter,TN,1486600169000.0,20780059
216943669,Clarksville,,1479564160000.0,36.56,-87.41,York Peters,TN,1479564160000.0,20780059
229496025,Nashville,,1497200495000.0,36.15,-86.86,Yuchen Zhang,TN,1497200495000.0,20780059
219275333,Nashville,,1483575367000.0,36.15,-86.86,Yusuf Gürbüz,TN,1483575367000.0,20780059
218340290,Hermitage,,1482020546000.0,36.19,-86.6,Zachary Hamilton,TN,1482020546000.0,20780059
13784936,Nashville,Nashville,1477195195000.0,36.1,-86.66,Zan Buckner,TN,1477195195000.0,20780059
