id,city,hometown,joined,lat,lon,name,state,visited,group_id
217135564,Franklin,,1479861613000,35.93,-86.81,Aaron Traylor,TN,1479861613000,20810939
217135553,Sevierville,,1482782679000,35.87,-83.53,Aaron Traylor,TN,1482782679000,20810939
209893741,Nashville,,1491963318000,36.14,-86.74,Abigail Hertz,TN,1491963318000,20810939
215738275,Nashville,,1477665468000,36.18,-86.81,Adiah M,TN,1477665468000,20810939
217030249,Franklin,,1479696956000,35.93,-86.81,Ajaa,TN,1479696956000,20810939
11872972,Nashville,,1484518978000,36.13,-86.8,Alan,TN,1484518978000,20810939
69111942,Nashville,,1477511246000,36.17,-86.78,Alan Hair,TN,1477511246000,20810939
216263885,Nashville,,1478481280000,36.1,-86.66,Alyssa Mitchard,TN,1478583005000,20810939
218950406,Gallatin,,1483157911000,36.39,-86.45,Amber McVicker,TN,1483157911000,20810939
108780202,Nashville,,1478229807000,36.17,-86.78,Ambrea,TN,1478229807000,20810939
59162062,Nashville,,1477633005000,36.11,-86.86,Ana Rivera,TN,1477633005000,20810939
155195962,Nashville,,1477511685000,36.13,-86.8,Andrea,TN,1483099568000,20810939
183530452,Nashville,,1489979660000,36.18,-86.74,Andrew Flood,TN,1489979660000,20810939
146030052,Nashville,,1479154638000,36.17,-86.72,Angela Hesse,TN,1479173983000,20810939
230452366,Gallatin,,1498406107000,36.39,-86.45,Angie,TN,1498406107000,20810939
203791756,Nashville,,1478533300000,36.18,-86.81,Annice ,TN,1478533300000,20810939
215524803,Nashville,,1478185877000,36.16,-86.66,Annie Paul,TN,1478185877000,20810939
215296602,Nashville,,1477659740000,36.08,-86.72,April Oberlin,TN,1477659740000,20810939
200686755,Nashville,,1477531844000,36.17,-86.72,Ariella Bocian,TN,1487654916000,20810939
205361764,Madison,,1479605997000,36.26,-86.71,Ashleigh,TN,1479605997000,20810939
216800941,Nashville,,1499833461000,36.21,-86.72,Ava Avila,TN,1499833461000,20810939
220624758,Nashville,,1485889707000,36.14,-86.74,BCaldwell,TN,1485889707000,20810939
191008886,Nashville,,1477674411000,36.16,-86.79,Becky,TN,1487007667000,20810939
208753729,Brentwood,,1496579242000,36.0,-86.79,Beth,TN,1496579242000,20810939
29969672,Nashville,Hendersonville,1495245987000,36.14,-86.64,Beth Bruce,TN,1495245987000,20810939
216191325,Nashville,,1485056004000,36.15,-86.85,Bobby,TN,1485056004000,20810939
13814459,Nashville,"Paris, TN",1492756960000,36.09,-86.82,Bobo,TN,1492756960000,20810939
216494258,Nashville,,1478867623000,36.17,-86.78,boiaryntseva,TN,1483123454000,20810939
208080105,Mount Juliet,,1492460731000,36.21,-86.52,Bradley ,TN,1492460731000,20810939
233297847,Madison,,1504929879000,36.19,-86.74,Brayden,TN,1504929879000,20810939
193977717,Nashville,"Raleigh, NC",1482847177000,36.13,-86.84,Brendan,TN,1482847177000,20810939
218264469,Nashville,,1481866373000,36.15,-86.86,Brian Brett,TN,1481866373000,20810939
125140382,Clarksville,,1480437631000,36.53,-87.35,Brian James Bergheger,TN,1480437631000,20810939
222062785,Nashville,,1487132412000,36.16,-86.79,Bryan,TN,1487132412000,20810939
227105808,Murfreesboro,,1494135190000,35.78,-86.33,Caelan C,TN,1494135190000,20810939
193035105,Nashville,Nashville,1477525016000,36.08,-86.72,CarlyAnn,TN,1477525016000,20810939
191966482,Nashville,Nashville,1497411256000,36.22,-86.77,cayala,TN,1497411256000,20810939
141140432,Mount Juliet,,1478779066000,36.22,-86.52,Charlie trotter,TN,1478779066000,20810939
229546184,Nashville,,1497493359000,36.17,-86.78,Chaurette,TN,1497493359000,20810939
228574593,Nashville,,1500501123000,36.17,-86.78,Chris garvey,TN,1500824624000,20810939
225925290,Nashville,,1492541582000,36.17,-86.78,Chris Sorter,TN,1493057876000,20810939
216943926,Huntsville,Nashville,1479564273000,34.78,-86.61,Chris Watson,AL,1479564273000,20810939
224072583,Nashville,,1490019321000,36.13,-86.8,Clayton Master,TN,1490019321000,20810939
228223953,Nashville,,1495587228000,36.17,-86.78,Colleen,TN,1495587228000,20810939
216372401,Nashville,,1478649202000,36.17,-86.78,Courtney Albs,TN,1478649202000,20810939
4014401,Nashville,Nashville,1503274322000,36.08,-86.72,craig,TN,1503274322000,20810939
9308963,Nashville,"Nashville, TN",1478749236000,36.16,-86.79,Cryssa Ravener,TN,1498076558000,20810939
203630223,Nashville,,1477645696000,36.17,-86.78,Cynthia ,TN,1480816087000,20810939
216019581,La Vergne,,1478106163000,36.01,-86.57,Damian Cox,TN,1478106163000,20810939
122189782,Hermitage,Ballina,1482033254000,36.19,-86.6,Danae,TN,1482033254000,20810939
185840888,Brentwood,,1491310808000,36.0,-86.79,Dani Morio,TN,1491310808000,20810939
216255211,Nashville,,1478469549000,36.14,-86.74,Danny Klema,TN,1481689725000,20810939
216092618,Murfreesboro,,1480120338000,35.85,-86.36,David Palomeque,TN,1480120338000,20810939
217864958,Nashville,,1481139647000,36.19,-86.8,Deborah Lederman,TN,1483233389000,20810939
206835363,Antioch,,1486156534000,36.17,-86.88,Deja Love,TN,1497749690000,20810939
197747344,Hyattsville,,1477512372000,38.95,-76.9,Deneen Mazzone,MD,1482801849000,20810939
64445472,Nashville,,1477623397000,36.11,-86.78,Dessica,TN,1477623397000,20810939
19528581,Nashville,,1483128486000,36.16,-86.79,Destiny,TN,1483128486000,20810939
217952018,Nashville,,1482309338000,36.17,-86.78,Doug Rhodes,TN,1492513698000,20810939
218468854,Murfreesboro,,1482267749000,35.78,-86.33,Dusti Dodd,TN,1482267749000,20810939
221177829,Nashville,,1486104881000,36.11,-86.86,Dwain Harpole II,TN,1486104881000,20810939
214521488,Nashville,,1477524401000,36.16,-86.79,Elaine McClure,TN,1477524401000,20810939
204078231,Nashville,,1478038094000,36.17,-86.78,Elizabeth Oguguam,TN,1478038094000,20810939
237804305,Nashville,,1506811010000,36.17,-86.72,Erik L.,TN,1508017831000,20810939
197435747,Antioch,Nashville,1486413707000,36.04,-86.64,Gankoya Leaman,TN,1490089913000,20810939
137425392,Franklin,,1493334948000,35.92,-86.89,Gaurav,TN,1493334948000,20810939
220422771,Nashville,,1489101345000,36.17,-86.78,Gem Davis,TN,1489101345000,20810939
219696007,Nashville,,1484101792000,36.17,-86.78,Graham,TN,1484101792000,20810939
231582835,Nashville,,1499779456000,36.18,-86.74,Hannah Beasley,TN,1499779456000,20810939
206997201,Nashville,Nashville,1477665378000,36.11,-86.86,Harding McCall,TN,1477665378000,20810939
218821463,Nashville,,1482969361000,36.07,-86.73,Henry Thomas Interiors,TN,1482969361000,20810939
183961953,Nashville,,1497464908000,36.15,-86.8,Jackie,TN,1498100040000,20810939
217028045,Nashville,,1479693260000,36.17,-86.78,Jacky Akbari,TN,1479693260000,20810939
217085195,Nashville,,1479874963000,36.17,-86.78,jacob Paul,TN,1479874963000,20810939
226199733,Nashville,,1499304559000,36.08,-86.72,James Ross,TN,1499304559000,20810939
228619193,Murfreesboro,,1496150249000,35.78,-86.33,Janee Carter,TN,1496150249000,20810939
216705642,Nashville,,1479183345000,36.08,-86.72,Janet janetbarton81.JB,TN,1479183345000,20810939
222899804,Nashville,,1488303664000,36.17,-86.78,Jaquelin,TN,1488303664000,20810939
223192128,Nashville,White House,1488736793000,36.16,-86.79,Jason,TN,1488736793000,20810939
181281282,Nashville,San Diego,1478436716000,36.15,-86.81,Jedrek Dineros,TN,1478436716000,20810939
8655376,Nashville,,1482793863000,36.17,-86.78,Jeff,TN,1482793863000,20810939
217710404,Hermitage,,1480987321000,36.19,-86.6,Jeff Minnick,TN,1490828345000,20810939
215963395,Nashville,,1478020805000,36.17,-86.78,Jeremy Harris,TN,1478020805000,20810939
38690452,Nashville,Cypress,1477992881000,36.11,-86.8,Jessica,TN,1477992881000,20810939
4725160,Nashville,"Brewton, AL",1503858214000,36.18,-86.74,Jessica J,TN,1503858214000,20810939
59475472,Nashville,,1477571608000,36.08,-86.72,Jessica Jernigan,TN,1477571608000,20810939
13573261,Clarksville,,1489112433000,36.53,-87.35,Jessica Saunders,TN,1489112433000,20810939
26792972,Nashville,,1477513248000,36.16,-86.79,Jim Nutter,TN,1477513248000,20810939
218054797,Nashville,,1481485703000,36.16,-86.79,Joann Young,TN,1481485703000,20810939
26621672,Nashville,,1477515549000,36.16,-86.79,Jodie G.,TN,1477662572000,20810939
182711453,Nashville,,1477806713000,36.1,-86.66,"John ""Nino Blac ""Lewis",TN,1478302216000,20810939
216365137,Nashville,Nashville,1485965039000,36.18,-86.81,John Herron,TN,1486486038000,20810939
5636006,Franklin,Franklin,1494300742000,35.93,-86.84,John Smith,TN,1494377472000,20810939
215808821,Nashville,,1477775306000,36.11,-86.78,Jon Eisen,TN,1488769296000,20810939
219211126,Goodlettsville,,1483497633000,36.32,-86.72,Jon Sheppard,TN,1483497633000,20810939
183013862,Antioch,,1505490550000,36.04,-86.64,Juanita,TN,1505490550000,20810939
193031238,Nashville,,1478932639000,36.17,-86.78,Kaite Faulkner,TN,1478932639000,20810939
216386888,Madison,,1478679763000,36.26,-86.71,kara gordon,TN,1478679763000,20810939
216583189,Franklin,,1479000472000,35.92,-86.89,Karrie McFadden,TN,1479000472000,20810939
205355080,Nashville,,1478033839000,36.17,-86.78,Katie Fiore,TN,1478033839000,20810939
207906513,Nashville,,1482553254000,36.17,-86.78,Katy,TN,1482553254000,20810939
209937694,Nashville,,1487080456000,36.17,-86.78,KB,TN,1487260433000,20810939
63128862,Gallatin,,1483019980000,36.39,-86.45,Kelley,TN,1483769521000,20810939
218805678,Murfreesboro,,1482958324000,35.87,-86.34,Kelsey McLaughlin,TN,1482958324000,20810939
216429718,Nashville,,1478754241000,36.16,-86.78,Keolis,TN,1478754241000,20810939
202939664,Nashville,"Old Saybrook, CT",1477930158000,36.09,-86.82,Kerry Burke,TN,1477930158000,20810939
197335395,Nashville,,1482784606000,36.09,-86.82,Kevin Pointer,TN,1482784606000,20810939
185107229,Nashville,,1478154232000,36.15,-86.86,Khalil Smith,TN,1478154232000,20810939
224577533,Nashville,,1491065187000,36.17,-86.78,Kimberly Johnson,TN,1491065187000,20810939
187294708,Antioch,,1493519588000,36.17,-86.88,Kita,TN,1498359644000,20810939
224281554,Nashville,,1490238908000,36.22,-86.86,Kristen Halverson,TN,1490238908000,20810939
232523612,Nashville,,1501638001000,36.08,-86.72,Kristen Murray,TN,1501638001000,20810939
115121022,Nashville,,1485700029000,36.17,-86.78,Kristin,TN,1485743490000,20810939
217412200,Nashville,,1488810484000,36.17,-86.78,kyle,TN,1488810484000,20810939
224377908,Manchester,,1490378099000,35.47,-86.08,Kyle Kriz,TN,1490378099000,20810939
192790056,Jersey City,,1499055622000,40.7,-74.1,Lalita,NJ,1499055622000,20810939
229292442,Nashville,,1496943870000,36.15,-86.79,Latha,TN,1496943870000,20810939
177286062,Nashville,"Grass Valley, CA",1477612568000,36.14,-86.82,Laura,TN,1491271712000,20810939
218802736,Nashville,,1482942876000,36.17,-86.78,Lauren Sharpe,TN,1482942876000,20810939
182916221,Nashville,,1477515571000,36.17,-86.78,Lauren W,TN,1477515571000,20810939
231169951,Nashville,,1499713223000,36.17,-86.78,Laurie,TN,1499895278000,20810939
215591384,Brentwood,,1477431181000,36.0,-86.79,Laverne Alexcee,TN,1483199811000,20810939
217671241,Spring Hill,,1480814467000,35.76,-86.88,Lesli Franklin,TN,1480814467000,20810939
16845731,Nashville,,1477657040000,36.1,-86.66,Lewis Tapp,TN,1477657040000,20810939
218627441,Nashville,,1482599466000,36.17,-86.78,Lina,TN,1483309273000,20810939
182500696,Lebanon,"Waterville, ME",1504042671000,36.21,-86.31,Lisa O.,TN,1504042671000,20810939
192853680,Columbia,,1476922292000,33.99,-81.03,Luke B,SC,1484524602000,20810939
153633002,Nashville,"Batavia, IL",1477518774000,36.18,-86.74,Marcus,TN,1482691313000,20810939
216957626,Nashville,,1479585823000,36.22,-86.74,Marissa DiCaprio,TN,1479585823000,20810939
151552972,Franklin,,1478009452000,35.93,-86.81,Mark A. DeMaio,TN,1482941589000,20810939
225483657,Thompsons Station,,1491939334000,35.8,-86.9,Mary Lou Bradley Casey,TN,1491939334000,20810939
5900662,Nashville,"Nashville, TN",1482442011000,36.07,-86.78,Matt Kenigson,TN,1482442011000,20810939
209663456,Nashville,,1477617562000,36.17,-86.78,Matthew,TN,1483100404000,20810939
214137530,Nashville,,1477653414000,36.14,-86.8,Maura Murphy,TN,1477653414000,20810939
222037956,Nashville,,1493218656000,36.17,-86.78,Mayra Flores,TN,1493218656000,20810939
20310521,Nashville,,1480468119000,36.17,-86.78,megan,TN,1480468119000,20810939
182814534,Nashville,,1477953154000,36.17,-86.78,Megan McDaniel,TN,1477953154000,20810939
219531642,Nashville,,1485791459000,36.08,-86.72,Mel,TN,1486259764000,20810939
129010832,Nashville,,1481084709000,36.17,-86.78,Melanie,TN,1481769052000,20810939
199824064,Nashville,,1483067549000,36.1,-86.66,Melissa,TN,1483067549000,20810939
217080543,Hendersonville,,1479774328000,36.3,-86.62,Michael Warren,TN,1479774328000,20810939
215073867,Nashville,,1477625481000,36.15,-86.86,Michelle Bilinski,TN,1483103934000,20810939
222796927,Nashville,,1488156794000,36.17,-86.78,Michelle C,TN,1488156794000,20810939
11994561,Nashville,,1483668698000,36.15,-86.79,Michelle denning,TN,1483668698000,20810939
146112942,Nashville,"Clarksville, TN",1504555112000,36.17,-86.78,Michelle James,TN,1504555112000,20810939
217332807,Nashville,,1480240821000,36.08,-86.72,Minnie Murphy,TN,1480240821000,20810939
90231142,Nashville,,1497666695000,36.17,-86.78,N.d. Bibbs,TN,1497666695000,20810939
4389320,Nashville,Charlotte,1484270810000,36.17,-86.78,Nat,TN,1484270810000,20810939
198714084,Nashville,,1479342523000,36.17,-86.72,Natasha MacDonald,TN,1479342523000,20810939
29332722,Hermitage,,1477600909000,36.19,-86.6,Natasha McGee,TN,1477600909000,20810939
236543112,Nashville,,1505445788000,36.16,-86.79,Nick,TN,1505445788000,20810939
221847746,Nashville,,1503452998000,36.15,-86.81,Nicole,TN,1503970058000,20810939
232695691,Old Hickory,,1501161888000,36.25,-86.63,Nicole C,TN,1501161888000,20810939
159247802,White House,White House,1486649748000,36.48,-86.69,Nicole Lawrence,TN,1498087132000,20810939
55342262,Smyrna,La Vergne,1486336083000,35.99,-86.5,Nina Lor,TN,1486336083000,20810939
234168251,Franklin,,1502888257000,35.93,-86.81,Olivia Oetjens,TN,1502888257000,20810939
92089242,Nashville,,1487882856000,36.08,-86.72,Oreyanna,TN,1496367467000,20810939
224927336,Nashville,,1491151489000,36.17,-86.78,Paige Brutus,TN,1491151489000,20810939
56561772,Madison,,1477527149000,36.26,-86.71,Paméla Campbell,TN,1482504655000,20810939
185873795,Nashville,"Miami, FL",1505700944000,36.15,-86.86,Paulina Alejandra,TN,1505700944000,20810939
216199669,Franklin,,1478384933000,35.92,-86.89,Rahul Raj,TN,1478384933000,20810939
195742141,Hendersonville,,1477520068000,36.32,-86.61,Renee,TN,1478484065000,20810939
221161925,Clarksville,,1485975690000,36.56,-87.41,Renee Palicia,TN,1485975690000,20810939
190611321,Nashville,,1483455689000,36.14,-86.74,Rhonda,TN,1483455689000,20810939
235635717,Nashville,,1504559158000,36.17,-86.78,Rhyane Wagner,TN,1504559158000,20810939
197157910,Nashville,,1480864394000,36.21,-86.72,Roy West,TN,1480864394000,20810939
218482741,Nashville,,1482562785000,36.17,-86.78,Rue Crowder,TN,1482562785000,20810939
217230236,Nashville,,1480042486000,36.17,-86.78,Samuel Baswell,TN,1480042486000,20810939
230022604,Nashville,,1498009814000,36.17,-86.72,Sara Hornberger,TN,1498009814000,20810939
190362101,Nashville,Nashville,1496399556000,36.08,-86.72,Sara K,TN,1496399556000,20810939
12651948,Nashville,,1478485424000,36.18,-86.74,Sarah,TN,1503842159000,20810939
218173260,Murfreesboro,,1486018437000,35.82,-86.45,Savannah Myers,TN,1486018437000,20810939
218101454,Nashville,,1481566405000,36.16,-86.78,Scott Hafley,TN,1481566405000,20810939
218333857,Nashville,,1482009976000,36.14,-86.74,Scott Webster,TN,1495586078000,20810939
193791049,Nashville,,1482064150000,36.13,-86.8,Sebastian,TN,1482064150000,20810939
210903142,Nashville,,1477516875000,36.17,-86.78,Selina,TN,1483138848000,20810939
157531122,Nashville,,1497058436000,36.17,-86.78,Sena Aqeel Agbeko,TN,1497058436000,20810939
218469613,Nashville,,1482268723000,36.17,-86.78,Sequoyah Teague,TN,1483045225000,20810939
214578793,Antioch,,1492040882000,36.04,-86.64,Shalee Marshall,TN,1492040882000,20810939
224824024,Gallatin,,1493330923000,36.39,-86.45,shan g,TN,1493330923000,20810939
217377860,Gallatin,,1480311920000,36.39,-86.45,Shawn Cole,TN,1480311920000,20810939
217927072,Nashville,,1481247429000,36.17,-86.78,sierra campbell,TN,1482930623000,20810939
226812534,Antioch,,1493735805000,36.04,-86.64,So Hollywood,TN,1493735805000,20810939
156753232,Nashville,,1478994023000,36.08,-86.72,Sonia,TN,1478994023000,20810939
192031693,Antioch,,1477757249000,36.17,-86.88,Sosa,TN,1477757249000,20810939
8921426,Hermitage,"Nashville, TN",1479220856000,36.0,-86.46,Stacy Cline,TN,1479220856000,20810939
181716662,Nashville,,1502898802000,36.22,-86.86,Stanton Parrish,TN,1502898802000,20810939
215634002,Nashville,,1477499345000,36.18,-86.81,Stefano Scotti,TN,1477499345000,20810939
217458903,Nashville,,1480447209000,36.17,-86.78,Steph Blick,TN,1483123389000,20810939
217874293,Madison,,1481153631000,36.26,-86.71,Stephen Joyce,TN,1481153631000,20810939
198066340,Nashville,,1479346230000,36.18,-86.81,Steppin in the Ville,TN,1500391820000,20810939
7625570,Nashville,,1483498515000,36.16,-86.79,Steven J,TN,1483498515000,20810939
217963953,Nashville,,1481458375000,36.08,-86.72,Stevie Fennessee,TN,1481458375000,20810939
207303389,Evansville,,1502077247000,37.98,-87.57,Sukhjot Singh,IN,1502077247000,20810939
204360367,Nashville,,1488065609000,36.22,-86.77,Takisha A.,TN,1488065609000,20810939
66464922,Hendersonville,,1492525111000,36.32,-86.61,Tamara Morgan,TN,1492525111000,20810939
207502987,Nashville,,1477794273000,36.1,-86.66,Tamesha Stewart,TN,1483157034000,20810939
234154899,Franklin,,1508403741000,35.92,-86.89,Tanya Parsley,TN,1508403741000,20810939
198191030,Nashville,,1477601682000,36.17,-86.72,Tara,TN,1483303310000,20810939
192668123,Franklin,,1482542578000,35.9,-86.82,Tarrah,TN,1483199589000,20810939
182472104,Loganville,,1490760896000,33.81,-83.89,Taylor Boice,GA,1490794125000,20810939
102267292,Nashville,,1482472334000,36.18,-86.74,Teade,TN,1483115186000,20810939
197928971,Franklin,,1477663282000,35.92,-86.89,Ted,TN,1477688234000,20810939
81924252,Nashville,,1487832090000,36.17,-86.78,Theresa,TN,1503877012000,20810939
201697542,Franklin,,1479767631000,35.92,-86.89,Tiger Webster,TN,1479767631000,20810939
210164732,Nashville,,1477650566000,36.17,-86.78,Tolu O,TN,1484736777000,20810939
217519811,Nashville,,1480680214000,36.17,-86.78,Toni,TN,1480680214000,20810939
235483765,Nashville,,1506054928000,36.17,-86.78,Travis Lawson,TN,1506054928000,20810939
216962893,Murfreesboro,,1479590364000,35.85,-86.36,Ukela Alred,TN,1479590364000,20810939
195580918,Hermitage,,1483451908000,36.19,-86.6,Veer,TN,1483451908000,20810939
201668158,Madison,,1477640509000,36.26,-86.71,Vela LaCasse,TN,1477640509000,20810939
209492166,Nashville,,1477512408000,36.17,-86.78,Vincent,TN,1477512408000,20810939
184012417,Nashville,,1497480412000,36.09,-86.9,VonB,TN,1498092388000,20810939
214776624,Nashville,,1477664056000,36.08,-86.72,Wayne Horne,TN,1483109416000,20810939
215894433,Clarksville,,1479398684000,36.49,-87.23,Wehilani Kaniho,TN,1479398684000,20810939
212627945,Nashville,,1477828330000,36.17,-86.79,Wendy Janes Spafford,TN,1508185834000,20810939
218340290,Hermitage,,1482020548000,36.19,-86.6,Zachary Hamilton,TN,1482020548000,20810939
