id,city,hometown,joined,lat,lon,name,state,visited,group_id
220762215,Nashville,,1485452949000,36.16,-86.79, Tihanna S.,TN,1485452949000,2237681
227344299,Nashville,,1494456474000,36.16,-86.79,08Domonique86,TN,1494456474000,2237681
184811336,Chennai,,1425083748000,13.09,80.27,Aadhi Vishwabhrama,,1425083748000,2237681
202724794,Nashville,,1459783158000,36.17,-86.78,Abhik Patel,TN,1459783158000,2237681
218005770,Antioch,,1481396508000,36.04,-86.64,AC Gordon,TN,1483414230000,2237681
236949705,Goodlettsville,,1505851108000,36.33,-86.74,Adam K,TN,1505851108000,2237681
239296233,Nashville,,1508472328000,36.18,-86.74,Addison H,TN,1508472328000,2237681
206481851,Nashville,,1474436335000,36.17,-86.78,Adia Tigney,TN,1478644351000,2237681
105499052,Nashville,,1375763141000,36.17,-86.72,Aerica Loveless,TN,1396996473000,2237681
216943083,Nashville,,1479615815000,36.17,-86.78,Ajanta,TN,1479615815000,2237681
134719642,Clarksville,,1423006181000,36.53,-87.35,Al,TN,1490482646000,2237681
231471032,Nashville,,1499645196000,36.15,-86.86,Alex Hanflink,TN,1499645196000,2237681
219754069,Nashville,,1484180237000,36.14,-86.74,Alex Johnson,TN,1484180237000,2237681
235742118,Nashville,,1504650445000,36.17,-86.78,Alex S,TN,1504650445000,2237681
221661367,Nashville,,1486584560000,36.16,-86.79,Alexandra Tacea,TN,1486584560000,2237681
132795192,Nashville,,1392159800000,36.17,-86.78,Alicia Wilson,TN,1392159800000,2237681
232964564,Nashville,,1501474365000,36.08,-86.72,Alina M Torres,TN,1501474365000,2237681
3466646,Oakland,Oakland,1478636415000,37.84,-122.22,Alison Gould,CA,1478636415000,2237681
90239152,Nashville,,1366579286000,36.17,-86.72,Allison,TN,1418582461000,2237681
210834592,Nashville,,1470973069000,36.17,-86.78,Ally Michelle,TN,1470973069000,2237681
220363069,Nashville,,1484948597000,36.21,-86.72,Alyson,TN,1484948597000,2237681
224642249,Nashville,,1490736905000,36.17,-86.78,Amanda Hopkins,TN,1490736905000,2237681
85390722,Nashville,Nashville,1442894455000,36.15,-86.86,Amanda Jay,TN,1442894455000,2237681
194283524,Nashville,,1445236009000,36.17,-86.78,Amber Michelle,TN,1445236009000,2237681
221472910,Nashville,,1486341697000,36.13,-86.8,Amber Narvaez,TN,1486341697000,2237681
235269212,Nashville,,1504127681000,36.08,-86.72,Amber Walters,TN,1504162945000,2237681
212099065,Nashville,,1472755738000,36.17,-86.78,Amelia Handshoe,TN,1472755738000,2237681
127556552,Nashville,,1475280116000,36.17,-86.78,Amy,TN,1489918781000,2237681
191284287,Burbank,,1458813525000,34.19,-118.3,Amy Barko,CA,1458813525000,2237681
222168008,Nashville,,1487278321000,36.1,-86.66,Amy Michelle Davis,TN,1487278321000,2237681
226402285,Goodlettsville,,1493167394000,36.32,-86.72,Amy Munguia,TN,1493167394000,2237681
211711324,Nashville,,1476252640000,36.08,-86.72,Amy Watts,TN,1476252640000,2237681
232760557,Nashville,,1501213209000,36.15,-86.79,An,TN,1501213209000,2237681
230257985,Gallatin,,1498244791000,36.39,-86.45,Andrew Burns,TN,1498244791000,2237681
218873173,Nashville,,1483060290000,36.17,-86.78,Angel Iwanowski,TN,1483132102000,2237681
155579312,Nashville,,1404938172000,36.17,-86.78,Angela Marie Durand,TN,1404942977000,2237681
183562282,Nashville,,1421194301000,36.17,-86.78,Angie T,TN,1499045796000,2237681
45178062,Nashville,"Columbus, OH",1491054891000,36.17,-86.78,Ann,TN,1505078188000,2237681
230489180,Nashville,,1498528661000,36.14,-86.81,Ann Tezak,TN,1499185759000,2237681
196757272,Nashville,Nashville,1488427816000,36.18,-86.81,Anna Maliere,TN,1488689760000,2237681
203791756,Nashville,,1461292685000,36.18,-86.81,Annice ,TN,1478560375000,2237681
222498565,Nashville,,1487735341000,36.08,-86.72,Annie Hallquist,TN,1487735341000,2237681
174965812,Los Angeles,,1420585520000,34.06,-118.24,Antonella Kalavati,CA,1420596136000,2237681
236431680,Clarksville,,1505337078000,36.53,-87.34,April Brobston,TN,1505337078000,2237681
78990442,Nashville,Potwin,1395969538000,36.08,-86.72,April V,TN,1412430656000,2237681
226712782,Franklin,,1493598625000,35.92,-86.89,Apurv ,TN,1493598625000,2237681
223262283,Nashville,,1488824141000,36.17,-86.78,Arminda,TN,1488824141000,2237681
22062541,Nashville,,1312640315000,36.17,-86.72,Arul Nayagadurai,TN,1312640315000,2237681
207722099,Nashville,,1466775966000,36.17,-86.78,Arun,TN,1498867541000,2237681
233305742,Hermitage,,1501891642000,36.19,-86.6,Ash Yenamandra,TN,1504879523000,2237681
205361764,Madison,,1498540750000,36.26,-86.71,Ashleigh,TN,1499802445000,2237681
231606929,Nashville,,1499801370000,36.17,-86.78,Ashley Elshaunte,TN,1499801370000,2237681
183163500,Unadilla,,1497833242000,32.26,-83.75,Ashley Sinyard,GA,1500089965000,2237681
183908524,Nashville,,1422246046000,36.17,-86.78,Ashley Smalling,TN,1422246046000,2237681
232060604,Nashville,,1500349790000,36.17,-86.78,Ashley Windorfer,TN,1500349790000,2237681
10427793,Atlanta,Atlanta,1312561637000,33.93,-84.39,Atlanta Sahaja Yoga Meditation,GA,1467820712000,2237681
86309012,Nashville,Nashville ,1364209231000,36.06,-86.96,Avery,TN,1364383653000,2237681
217516382,Nashville,,1480541754000,36.17,-86.78,Ayla Townsend,TN,1480541754000,2237681
185073710,Knoxville,,1425849752000,35.96,-83.92,Barry Braden,TN,1425849752000,2237681
232102021,Nashville,,1500402377000,36.17,-86.78,Becca Dawn,TN,1500402377000,2237681
132316772,Murfreesboro,,1483445504000,35.87,-86.34,Bella Estrella,TN,1483445504000,2237681
216255534,Nashville,,1486679346000,36.07,-86.73,Ben blue,TN,1498790409000,2237681
152948982,Brooklyn,,1477336623000,40.7,-73.99,Ben G,NY,1477336623000,2237681
158308792,Nashville,Nashville,1453684246000,36.1,-86.66,Bharat Shinde,TN,1508798664000,2237681
225555593,Nashville,,1492038687000,36.17,-86.78,bhavna sethi,TN,1508807023000,2237681
217656234,Nashville,,1480789889000,36.17,-86.78,Bianca Rae,TN,1480789889000,2237681
216494258,Nashville,,1478867637000,36.17,-86.78,boiaryntseva,TN,1491765360000,2237681
230413267,Nashville,,1498352798000,36.17,-86.79,Brandon Ikeman,TN,1501201115000,2237681
37802882,Nashville,,1328669332000,36.17,-86.72,Brandon sims,TN,1337948989000,2237681
224801267,Nashville,,1490967568000,36.17,-86.78,Brandy Howard,TN,1490967568000,2237681
226984291,Hermitage,,1493960538000,36.19,-86.6,Breanna Zapata,TN,1493960538000,2237681
237945957,Nashville,,1506972154000,36.16,-86.66,Brenda Hayes,TN,1506972154000,2237681
184068732,Smyrna,"Smyrna, TN",1422777788000,35.97,-86.51,Brian Chaney,TN,1423597965000,2237681
137459092,Nashville,,1410786563000,36.17,-86.78,Brie Tosolini,TN,1410900738000,2237681
223858171,Nashville,,1489655266000,36.16,-86.79,Brijesh Patel,TN,1490896090000,2237681
233991262,Nashville,,1504118671000,36.17,-86.78,Brit Van Laeken,TN,1504955358000,2237681
205460376,Saint Petersburg,,1503161400000,27.79,-82.67,Brittany Given,FL,1503161400000,2237681
218200194,Hermitage,Mount Juliet,1481744865000,36.19,-86.6,Bryan Saums,TN,1481744865000,2237681
235930141,Nashville,,1504836023000,36.19,-86.8,Camri Mixon,TN,1504836023000,2237681
227924568,Nashville,,1495226679000,36.06,-86.96,Candace M Winters ,TN,1495226679000,2237681
821311,Nashville,,1501727570000,36.17,-86.78,candiceraines,TN,1501727570000,2237681
184680462,Nashville,,1480810785000,36.15,-86.86,Carolyn,TN,1480833113000,2237681
198295814,Nashville,"Rochester, NY",1488645096000,36.17,-86.78,Casey Kelly,TN,1488645096000,2237681
220971240,Nashville,,1485721887000,36.11,-86.78,Catherine Kemper,TN,1485721887000,2237681
225844544,Nashville,,1492444231000,36.18,-86.74,Ce,TN,1492600695000,2237681
199865946,Nashville,,1498567164000,36.21,-86.72,Celeste Greene,TN,1498567164000,2237681
2817957,White Plains,San Diego,1311877847000,41.03,-73.78,Chaitanya,NY,1348925113000,2237681
213231489,Nashville,"Long Island, NY",1493069318000,36.13,-86.8,Chris,TN,1493069318000,2237681
205302212,Clarksville,,1507262254000,36.56,-87.35,Christi L.,TN,1507262254000,2237681
11264022,Manchester,"Manchester, TN",1453063514000,35.47,-86.08,Christina Silvers,TN,1460813960000,2237681
226207184,Nashville,,1492915714000,36.17,-86.78,Christine Wilcox,TN,1492915714000,2237681
218454282,Nashville,,1482242857000,36.17,-86.78,Christopher Russo,TN,1482242857000,2237681
229672964,Hermitage,,1497412093000,36.19,-86.6,Christy Whitworth,TN,1497412093000,2237681
222215242,Nashville,,1487348772000,36.17,-86.78,chuck wofford,TN,1487348772000,2237681
6953712,Smyrna,Goodlettsville,1328515850000,35.97,-86.51,Clay ,TN,1385673724000,2237681
218305128,Madison,,1481950156000,36.26,-86.71,Colleen Hawthorn,TN,1481950156000,2237681
206457912,Nashville,,1465059812000,36.08,-86.72,Collin Honeycutt,TN,1465059812000,2237681
85284672,Mount Juliet,,1392081505000,36.21,-86.52,Connie,TN,1402967073000,2237681
139341012,Woodlawn,,1508680296000,36.5,-87.54,Connie Pillow,TN,1508680296000,2237681
237319546,Nashville,,1506277165000,36.17,-86.78,corey castellanos,TN,1506277165000,2237681
159908952,Antioch,,1409756034000,36.04,-86.64,Craig Pendergrast,TN,1409756034000,2237681
43341692,Nashville,,1333329950000,36.06,-86.96,cristin childress,TN,1366671732000,2237681
219492719,Nashville,,1483854486000,36.17,-86.79,cvandyt,TN,1483854486000,2237681
138680642,Nashville,"Nashville, TN",1395614859000,36.1,-86.66,Cynthia Johnson,TN,1396346384000,2237681
16267501,Nashville,,1391698876000,36.18,-86.74,Danielle,TN,1391737305000,2237681
224709676,Nashville,,1490884645000,36.18,-86.74,Danny Adams,TN,1490884645000,2237681
232043973,Nashville,,1500330415000,36.18,-86.81,Danny Lozano,TN,1500330415000,2237681
195714467,Antioch,,1447806860000,36.17,-86.88,darryl cox,TN,1447806860000,2237681
229102995,Madison,,1496705187000,36.26,-86.71,David Jay,TN,1496705187000,2237681
216092618,Murfreesboro,,1480115786000,35.85,-86.36,David Palomeque,TN,1480115786000,2237681
229743553,White Bluff,,1497519195000,36.12,-87.23,Dawn Carr,TN,1497519195000,2237681
186078985,Hendersonville,,1428801204000,36.32,-86.61,Dawn Dittmer,TN,1452627514000,2237681
234367391,Nashville,,1503099192000,36.07,-86.73,Debi Avalon,TN,1503099192000,2237681
224682607,Nashville,,1490805246000,36.17,-86.78,Dee,TN,1490805246000,2237681
205877447,Hendersonville,,1464231829000,36.32,-86.61,Dee Kandice Dawkins,TN,1464231829000,2237681
220157863,Nashville,,1484690780000,36.11,-86.78,Denise Robinson ,TN,1484690780000,2237681
224881576,Nolensville,,1491081445000,35.94,-86.67,Denise Siegel,TN,1491081445000,2237681
218142049,Nashville,,1481640409000,36.22,-86.77,Deshaun Dè ,TN,1481640409000,2237681
234283796,Antioch,,1503010784000,36.04,-86.64,Diaminique Goodwin,TN,1505309869000,2237681
170952282,Nashville,,1410724140000,36.17,-86.72,diamonds,TN,1410724140000,2237681
47754592,Nashville,,1336927025000,36.17,-86.72,Dian Thompson,TN,1365277246000,2237681
162591182,Nashville,,1438593385000,36.17,-86.78,Diana Sinziana Neculcea,TN,1483102978000,2237681
204303024,Nashville,,1493009504000,36.13,-86.8,Diana Wells-English,TN,1493009504000,2237681
232260405,Nashville,,1500590769000,36.07,-86.73,Diane Spaeth,TN,1508799236000,2237681
222439070,Murfreesboro,,1487656423000,35.85,-86.36,Domonique Covel,TN,1487656423000,2237681
227488510,Nashville,,1494655444000,36.16,-86.79,donita oliver,TN,1494655444000,2237681
97481142,Nashville,,1370984829000,36.17,-86.72,donna,TN,1370984829000,2237681
238726284,Nashville,,1507819384000,36.17,-86.78,Dorismar Lormont,TN,1507819384000,2237681
230481260,Nashville,,1498436348000,36.19,-86.8,Douglas Hogan,TN,1498436348000,2237681
64288302,Clarksville,,1348945952000,36.53,-87.35,Douglas Payne,TN,1349319912000,2237681
221177829,Nashville,,1485979039000,36.11,-86.86,Dwain Harpole II,TN,1485979039000,2237681
223725528,Mount Juliet,,1489465721000,36.21,-86.52,Elliot,TN,1489465721000,2237681
190472333,Nashville,,1437961407000,36.11,-86.78,Emily,TN,1437961407000,2237681
219359431,Murfreesboro,,1483682984000,35.85,-86.36,Emily Darcy,TN,1483682984000,2237681
37079862,Nashville,,1360540737000,36.17,-86.78,Eric,TN,1366134646000,2237681
235472141,Nashville,,1504364420000,36.15,-86.86,Erica Johnson,TN,1504364420000,2237681
218206029,Nashville,,1503691936000,36.11,-86.86,Eryn Haber,TN,1503691936000,2237681
183438109,Nashville,,1448672588000,36.17,-86.78,Esther,TN,1448672588000,2237681
221625355,Nashville,,1486532489000,36.17,-86.72,Eva Smith,TN,1486532489000,2237681
204526194,Nashville,,1490973580000,36.16,-86.79,fiona gledhill,TN,1501254945000,2237681
233089457,Pleasant View,,1502509728000,36.38,-87.04,Gabriel Chastain,TN,1502509728000,2237681
189545800,Readyville,,1436180945000,35.82,-86.22,Garreth Gish,TN,1436180945000,2237681
183815492,Nashville,,1421948926000,36.17,-86.78,Garrett Eastep,TN,1421948926000,2237681
218941484,Portland,,1483145442000,36.57,-86.49,Garry Lueng,TN,1483145442000,2237681
204006929,Austin,,1461606269000,30.22,-97.75,Ginger Latham,TX,1461606269000,2237681
223465784,Hermitage,,1489105005000,36.19,-86.6,Giulia Vernaschi,TN,1489105005000,2237681
226247119,Greenbrier,,1492973009000,36.43,-86.8,Glenda Stephens,TN,1501942795000,2237681
94776102,Indianapolis,,1472489551000,39.66,-86.1,Grace,IN,1472489551000,2237681
217090867,Nashville,,1479790137000,36.22,-86.86,Haley Stone,TN,1498869795000,2237681
230553503,Nashville,,1498523958000,36.14,-86.74,Hannah Robison,TN,1498523958000,2237681
183262777,Nashville,,1420250988000,36.11,-86.86,Holly,TN,1420250988000,2237681
226311216,Nashville,,1493057775000,36.22,-86.77,Honey Simmons,TN,1493057775000,2237681
235999225,Nashville,,1504911063000,36.08,-86.72,Ileana Marie,TN,1504911063000,2237681
11360368,Indianapolis,,1413384723000,39.72,-86.0,Indiana Meditation,IN,1500652688000,2237681
230309457,Nashville,,1498224403000,36.15,-86.81,Indu Bal,TN,1498224403000,2237681
231253444,Nashville,,1499386664000,36.17,-86.78,Infinity Essence,TN,1499386664000,2237681
234338863,Nashville,,1503079485000,36.16,-86.79,Jack Rogers,TN,1503079485000,2237681
81012012,Nashville,,1379896707000,36.13,-86.8,Jackie,TN,1399903958000,2237681
197405466,Nashville,,1502518977000,36.17,-86.72,Jacob,TN,1502552292000,2237681
46978762,Nashville,,1336309159000,36.17,-86.72,Jade Taylor,TN,1344913500000,2237681
39138832,Nashville,nashville,1343079843000,36.06,-86.96,Jake,TN,1343079843000,2237681
224028226,Nashville,,1489899517000,36.17,-86.78,Jake McBrien,TN,1489899517000,2237681
227370891,Nashville,,1494494481000,36.13,-86.8,james adams,TN,1501755656000,2237681
237354879,Nashville,,1506311948000,36.17,-86.78,Jamica McGill,TN,1506311948000,2237681
200486654,Nashville,,1456519893000,36.18,-86.74,Jane Turner-Denner,TN,1456519893000,2237681
73012282,Lebanon,,1355763868000,36.21,-86.31,Janee Steele,TN,1355763868000,2237681
233009633,Nashville,,1501533543000,36.17,-86.78,Janie Selman,TN,1501533543000,2237681
233324729,Nashville,,1501917527000,36.15,-86.8,Jason Melborne,TN,1501917527000,2237681
230821326,Nashville,,1498857029000,36.11,-86.78,Javaneh Hemmat,TN,1499801063000,2237681
203085164,Nashik,Nashik,1460294338000,20.01,73.78,Jayesh Sarwar,,1460294338000,2237681
8655376,Nashville,,1505177192000,36.17,-86.78,Jeff,TN,1505177192000,2237681
153155622,Mount Juliet,,1404919594000,36.22,-86.52,Jen,TN,1410203857000,2237681
7325785,Nashville,,1313719631000,36.11,-86.86,Jenna Rose,TN,1374882012000,2237681
108105902,Nashville,,1377311144000,36.17,-86.72,jennifer,TN,1383838019000,2237681
225424130,Mount Juliet,,1491860964000,36.22,-86.52,Jennifer Dickenson,TN,1491860964000,2237681
185633232,Murfreesboro,,1455774436000,35.87,-86.34,Jennifer Neal,TN,1471654183000,2237681
168868862,Goodlettsville,,1410234641000,36.32,-86.72,Jennifer Strickland,TN,1421689188000,2237681
95599772,Nashville,,1458094895000,36.1,-86.66,Jenny,TN,1458094895000,2237681
186983343,Nashville,,1430881824000,36.22,-86.74,Jennye P-S,TN,1470756899000,2237681
183110694,Nashville,,1470623108000,36.17,-86.78,Jeremiah,TN,1470623108000,2237681
194813625,Nashville,,1446132733000,36.18,-86.81,Jeremy,TN,1446132733000,2237681
27235072,Greenbrier,,1354079003000,36.43,-86.8,Jessica,TN,1363960537000,2237681
120698172,Nashville,,1494614940000,36.17,-86.72,Jessica Baldwin,TN,1494614940000,2237681
231180727,Smyrna,,1499298464000,35.97,-86.51,Jessica Christine Gedeon,TN,1499298464000,2237681
235519264,Nashville,,1504414762000,36.17,-86.78,Jill Stephens,TN,1504414762000,2237681
218054797,Nashville,,1481485953000,36.16,-86.79,Joann Young,TN,1481485953000,2237681
223928135,Nashville,,1493494584000,36.11,-86.86,Joelelle,TN,1493494584000,2237681
8610830,Nashville,,1493138118000,36.17,-86.78,Joey,TN,1502211730000,2237681
14308592,Murfreesboro,Murfreesboro,1503315114000,35.87,-86.34,Joey McGuire,TN,1503315114000,2237681
226852992,Nashville,,1493782049000,36.23,-86.81,John Herman,TN,1493782049000,2237681
224842788,Nashville,,1491023763000,36.07,-86.78,John Whittaker,TN,1491023763000,2237681
222099947,Nashville,,1487189837000,36.16,-86.78,John-David Morgan,TN,1487189837000,2237681
117511892,Nashville,,1398953341000,36.17,-86.78,Johnny,TN,1426932030000,2237681
220281586,Murfreesboro,,1484841013000,35.78,-86.33,Jon Spikes,TN,1484841013000,2237681
4795733,Decherd,,1480707457000,35.21,-86.08,Jonathon McNeil,TN,1499643125000,2237681
122386062,Nashville,,1386098034000,36.16,-86.77,Jordan,TN,1386098034000,2237681
221628275,Nashville,,1486536663000,36.07,-86.73,Joseph Ramon Smith,TN,1486536663000,2237681
11244289,Nashville,Charlotte,1344033941000,36.17,-86.78,Josh,TN,1344033941000,2237681
234676455,Nashville,,1503454354000,36.17,-86.78,Josh Gull,TN,1503454354000,2237681
111792152,Linden,,1489063686000,38.02,-121.09,josh luck,CA,1489063686000,2237681
228647401,Franklin,,1496152469000,35.93,-86.84,Joshua Barbee,TN,1496152469000,2237681
212495047,Hollywood,,1473283311000,26.02,-80.2,Julie Rose,FL,1473283311000,2237681
177000932,Hermitage,,1496159968000,36.2,-86.61,JW,TN,1496159968000,2237681
227703106,Nashville,,1494949964000,36.17,-86.78,Kacie ,TN,1494949964000,2237681
222124762,Nashville,,1499015937000,36.13,-86.8,Kainani Littlejohn,TN,1499015937000,2237681
229501200,Franklin,,1497206297000,35.93,-86.84,Kandace Ward,TN,1497206297000,2237681
224051918,Franklin,,1489941050000,35.92,-86.89,karan,TN,1498325832000,2237681
55758852,Nashville,nasvhille,1501001197000,36.22,-86.77,Karlos Parham,TN,1501082694000,2237681
216266660,Harriman,,1478490167000,35.95,-84.48,Kassandra Collins,TN,1481331757000,2237681
144843312,Jacksonville,,1499176961000,30.33,-81.77,Katee Elizabeth,FL,1499176961000,2237681
231623537,Franklin,,1499818489000,35.92,-86.89,Katerina Harrington,TN,1507288178000,2237681
238177306,Nashville,,1507226979000,36.17,-86.72,Kathy Burton Rogers,TN,1507226979000,2237681
189997244,Nashville,,1437060667000,36.17,-86.78,Katie Chappell,TN,1437060667000,2237681
236314268,Dickson,,1505234552000,36.08,-87.38,Kayla Reeves,TN,1505234552000,2237681
221887191,Murfreesboro,,1486900011000,35.87,-86.44,Kaylee Shania Bennett,TN,1486900011000,2237681
119612112,Nashville,Columbus,1487947878000,36.09,-86.82,Kellie Barnhill,TN,1499024288000,2237681
214411277,Nashville,,1477517015000,36.09,-86.82,Kendre Parker,TN,1477517015000,2237681
3891728,Nashville,Nashville,1494431630000,36.19,-86.8,Kevin,TN,1494431630000,2237681
238163546,Nashville,,1507219689000,36.08,-86.72,Kevin Douglas,TN,1507219689000,2237681
197335395,Nashville,,1501708433000,36.09,-86.82,Kevin Pointer,TN,1501708433000,2237681
231089525,Nashville,,1499189239000,36.11,-86.78,Kevin Slattery,TN,1499189239000,2237681
11492902,Nashville,,1373919948000,36.1,-86.66,KidKate,TN,1373919948000,2237681
224684372,Nashville,,1490800589000,36.06,-86.96,Kiely Brown,TN,1490800589000,2237681
196728634,Nashville,,1450371367000,36.15,-86.86,Kim Estes,TN,1450371367000,2237681
216867961,Antioch,,1479434283000,36.04,-86.64,L F,TN,1479434283000,2237681
183047170,Franklin,,1419015654000,35.92,-86.89,LaCarrie,TN,1419015654000,2237681
197308725,Hermitage,,1451264040000,36.19,-86.6,Landon Funk,TN,1507608382000,2237681
216262903,Detroit,,1478479593000,42.42,-83.25,Landon Funk,MI,1478479593000,2237681
233517323,Hendersonville,,1502135819000,36.32,-86.61,Larry,TN,1502135819000,2237681
226128410,Thompsons Station,thompson station,1492813262000,35.8,-86.9,Larry Gooden,TN,1492813262000,2237681
224864985,Clarksville,,1491060994000,36.56,-87.35,Latanya Allen,TN,1491060994000,2237681
189966600,Franklin,,1436993746000,35.92,-86.89,Latha,TN,1442460476000,2237681
223596503,Nashville,,1489291492000,36.06,-86.96,Laura Wilson,TN,1489291492000,2237681
183633951,Nashville,,1421433196000,36.11,-86.78,Lauren,TN,1421433196000,2237681
78791602,Murfreesboro,,1482878338000,35.82,-86.45,Lauren,TN,1482878338000,2237681
196241045,Gallatin,,1448865209000,36.39,-86.45,Lauren Cozart,TN,1448865209000,2237681
220280832,Hendersonville,,1484840593000,36.32,-86.61,Lauren Moore,TN,1484840593000,2237681
227572269,Nashville,,1494778694000,36.17,-86.78,lavandermar,TN,1494778694000,2237681
7756161,Nashville,Nashville,1500121816000,36.08,-86.72,LayNa,TN,1500121816000,2237681
192050473,Nashville,,1440993453000,36.17,-86.72,Leah Newman ,TN,1440993453000,2237681
191666776,Nashville,,1462241308000,36.11,-86.86,Lee,TN,1462241308000,2237681
189078770,Madison,,1435191359000,36.26,-86.71,Leilani,TN,1435191359000,2237681
222739109,Nashville,,1488074746000,36.14,-86.74,Lese Jenea,TN,1488074746000,2237681
229802380,Nashville,,1497585072000,36.16,-86.77,Leshad Wilson,TN,1497585072000,2237681
199277854,Nashville,,1454800259000,36.14,-86.74,Liam Bonnie,TN,1454800259000,2237681
215962487,Columbia,,1478020106000,35.61,-87.05,Linda Fleming,TN,1478020106000,2237681
7640053,Nashville,,1336077331000,36.17,-86.78,Linda Scolaro,TN,1336077331000,2237681
43996202,Hermitage,,1360272447000,36.19,-86.6,Lisa Wallace,TN,1445185582000,2237681
26932862,Nashville,,1362351016000,36.09,-86.82,Lisa Wyatt,TN,1381060061000,2237681
236715254,Nashville,,1505626857000,36.17,-86.78,Liz Anderson,TN,1505626857000,2237681
129131022,Nashville,Nashville,1390245044000,36.17,-86.72,Lori,TN,1392758774000,2237681
13919027,Nashville,Nashville,1365996262000,36.11,-86.86,Lori Davis,TN,1372976845000,2237681
217488187,Lebanon,,1480492951000,36.21,-86.31,Loyse Cobb,TN,1480492951000,2237681
121021592,Nashville,,1385260325000,36.13,-86.8,Luisa Lane,TN,1391122735000,2237681
198307591,Nashville,,1453175823000,36.17,-86.78,Magie,TN,1453175823000,2237681
31668692,Nashville,,1322504027000,36.17,-86.72,Maia,TN,1322504027000,2237681
216636561,Nashville,,1479083844000,36.11,-86.78,Mala Siri,TN,1479083844000,2237681
208383056,Vanleer,,1467678277000,36.22,-87.46,Manny ,TN,1467678277000,2237681
113218182,Nashville,,1474065359000,36.1,-86.72,Manoja ,TN,1474065359000,2237681
183896400,Nashville,,1422213587000,36.15,-86.78,Marc Dixon,TN,1422213587000,2237681
157416302,Nashville,,1421715712000,36.21,-86.72,Margaret,TN,1421715712000,2237681
232129321,Nashville,,1500431077000,36.17,-86.78,María J,TN,1500431077000,2237681
223635928,Ashland City,,1489351240000,36.28,-87.07,Maria Johnson,TN,1489351240000,2237681
193100065,Old Hickory,,1493206410000,36.25,-86.63,Maria Mier,TN,1493206410000,2237681
227442993,Nashville,,1494594867000,36.17,-86.78,Mario  Mann,TN,1494594867000,2237681
187710981,Nashville,,1437750915000,36.08,-86.72,Mark,TN,1437750915000,2237681
115607372,Nashville,,1381781274000,36.17,-86.72,Mark F Williams,TN,1389130650000,2237681
209355111,Antioch,,1507945783000,36.05,-86.59,Mark Fuqua,TN,1507945783000,2237681
230888833,Antioch,,1498940399000,36.04,-86.64,Mark Fuqua,TN,1498940399000,2237681
223153097,Hermitage,,1488661068000,36.19,-86.6,Mark Hoke,TN,1488661068000,2237681
216999681,Nashville,,1479655088000,36.15,-86.86,Mark Patterson,TN,1481046354000,2237681
158907722,Franklin,,1504184333000,35.92,-86.89,Martine Lille,TN,1507648749000,2237681
219744699,Nashville,,1484171464000,36.14,-86.81,Mary Elizabeth Pellett,TN,1484171464000,2237681
221233112,Nashville,,1486053146000,36.17,-86.78,Mary Griffin,TN,1486053146000,2237681
221839613,Nashville,,1486832735000,36.16,-86.78,Mary Kate Egelston,TN,1486832735000,2237681
191365783,Clarksville,,1439926300000,36.53,-87.35,Matt Gochenauer,TN,1439926300000,2237681
122211352,Nashville,,1385997476000,36.17,-86.72,Matt Priya,TN,1385997476000,2237681
64957432,Nashville,,1349400159000,36.17,-86.72,McKel,TN,1349400159000,2237681
21542861,Nashville,,1312159615000,36.17,-86.72,Meaghan Stack,TN,1312159615000,2237681
137944342,Mount Juliet,Tallahassee,1482810108000,36.16,-86.51,Megan,TN,1482810108000,2237681
235111254,Nashville,,1503958794000,36.2,-86.77,Megan Lena,TN,1503958794000,2237681
203794696,Nashville,"Los Angeles, CA",1461508459000,36.17,-86.78,MéKyle,TN,1461508459000,2237681
185925504,Nashville,,1428431990000,36.17,-86.78,Mel J,TN,1428431990000,2237681
159463292,Antioch,,1416794800000,36.17,-86.88,Melissa,TN,1504640613000,2237681
111624082,Selbyville,,1479047957000,38.47,-75.15,Melissa Alesi,DE,1479047957000,2237681
201819133,Nashville,,1502166682000,36.15,-86.86,Melissa Rafalko,TN,1502166682000,2237681
239502942,Springfield,,1508711609000,36.52,-86.87,Melody Briley Ellis,TN,1508711609000,2237681
183308762,Nashville,"Indianapolis, IN",1477457677000,36.18,-86.74,Meredith Howe,TN,1477457677000,2237681
13711768,Nashville,,1457107888000,36.09,-86.82,Micah Judd,TN,1457107888000,2237681
130282572,Nashville,,1451055484000,36.08,-86.72,Michael Miraglia,TN,1452037713000,2237681
130303932,Tampa,,1392156941000,28.03,-82.37,Michelle Bryant,FL,1392745718000,2237681
222992580,Nashville,,1488430367000,36.17,-86.78,Michelle Williams,TN,1488430367000,2237681
148809192,Nashville,,1488493127000,36.14,-86.74,Mike Rogers,TN,1488493127000,2237681
217332807,Nashville,,1480241017000,36.08,-86.72,Minnie Murphy,TN,1480241017000,2237681
189481419,Hermitage,,1436044873000,36.19,-86.6,Misty Reneè,TN,1436044873000,2237681
155280262,Nashville,,1404790327000,36.17,-86.72,Mon D,TN,1404790327000,2237681
216930383,Nashville,,1479536266000,36.15,-86.86,Monica Bruno Nuñez,TN,1479536266000,2237681
73411402,Nashville,,1356159154000,36.17,-86.78,Morgan Janyja,TN,1357100443000,2237681
94149692,Nashville,,1369003487000,36.17,-86.72,Myra Stephens,TN,1391446883000,2237681
238646830,Nashville,,1507729337000,36.08,-86.72,N'Digo Kali,TN,1508801272000,2237681
233383958,Nashville,,1501982179000,36.22,-86.74,Nadia Dunlap,TN,1501982179000,2237681
208565143,Nashville,,1478461597000,36.15,-86.79,NashvilleExplorer,TN,1481040835000,2237681
4389320,Nashville,Charlotte,1484272358000,36.17,-86.78,Nat,TN,1484272358000,2237681
182481932,Pensacola,Pensacola,1484961753000,30.45,-87.21,Natalia Bayona,FL,1488221267000,2237681
175159382,Clarksville,"Hopkinsville, KY",1496157525000,36.56,-87.41,Natasha Thompson,TN,1498736133000,2237681
220688734,Nashville,,1485359499000,36.17,-86.78,Natasha Williams,TN,1485359499000,2237681
206040566,Franklin,nashville,1484507669000,35.93,-86.81,Nate,TN,1484507669000,2237681
62130852,Nashville,,1446499321000,36.17,-86.78,Natural Shanti,TN,1446499321000,2237681
229026621,Hermitage,,1496617433000,36.19,-86.6,Nealy,TN,1496617433000,2237681
223064098,Nashville,,1488552239000,36.17,-86.78,Neeloo,TN,1490337577000,2237681
223884983,Nashville,,1489693088000,36.16,-86.66,Nickie Denning,TN,1507246259000,2237681
237595064,Nashville,,1507583820000,36.17,-86.78,Nicole Guyton,TN,1507583820000,2237681
131194742,Nashville,Nashville,1480535296000,36.15,-86.86,Niki,TN,1480535296000,2237681
235591298,Nashville,,1504496084000,36.16,-86.79,Niki Norton Reese,TN,1504496084000,2237681
127433472,Nashville,,1500923355000,36.17,-86.78,Nikki deMesa,TN,1500923355000,2237681
227115504,Nashville,,1494163312000,36.17,-86.78,Nina,TN,1494163312000,2237681
225545388,Nashville,,1492026157000,36.17,-86.72,niraj joshi,TN,1492026157000,2237681
234168251,Franklin,,1502888162000,35.93,-86.81,Olivia Oetjens,TN,1502888162000,2237681
223397572,Nashville,,1490398391000,36.17,-86.78,Owen Melissa,TN,1490398391000,2237681
43942242,Raleigh,Durham,1472578983000,35.86,-78.54,Padmini Kirpalani,NC,1472578983000,2237681
113359802,New York,,1391776171000,40.75,-73.99,Pamela Wolfe,NY,1403316013000,2237681
61053602,Mount Juliet,,1497804558000,36.22,-86.52,Parvati Y,TN,1498420062000,2237681
4385357,Franklin,,1462284241000,35.93,-86.81,Peter Sajja,TN,1462284241000,2237681
234952526,Mount Juliet,,1503773617000,36.21,-86.52,prabhakar mishra,TN,1506396408000,2237681
19525331,Irvine,Irvine,1490465236000,33.7,-117.82,Preeti Singh,CA,1490503771000,2237681
196325631,Nashville,,1449031512000,36.18,-86.74,Rachel,TN,1449031512000,2237681
183564057,Nashville,Paducah,1479135613000,36.08,-86.72,Rachel Harrison,TN,1479135613000,2237681
106002382,Falls Church,"Fredericksburg, Va",1376074188000,38.89,-77.17,Rachel Hicks,VA,1376315497000,2237681
10971242,Nashville,,1361335893000,36.17,-86.78,Rajesh Jethwani,TN,1410839803000,2237681
238327439,Nashville,,1507383879000,36.17,-86.78,Randa Zeidan,TN,1507383879000,2237681
183421869,Murfreesboro,Murfreesboror,1420734400000,35.87,-86.34,Ray Jaco,TN,1420734400000,2237681
222681978,Nashville,,1487994448000,36.17,-86.78,Rebecca Ware,TN,1487994448000,2237681
183224270,Morrisville,Murfreesboro,1420810397000,42.91,-75.68,RembrandtLee Dittrich,NY,1420810397000,2237681
200849708,Nashville,,1457039285000,36.17,-86.72,Reshu Gupta,TN,1457039285000,2237681
56037902,Nashville,,1394492651000,36.17,-86.78,Rick,TN,1395056640000,2237681
218061898,Nashville,,1481495605000,36.17,-86.78,Rodney Chism,TN,1497885310000,2237681
191860934,Fort Campbell,,1496929910000,36.65,-87.46,Rodriques,KY,1496929910000,2237681
190227588,Franklin,,1439956229000,35.92,-86.89,Ron,TN,1439956229000,2237681
118031332,Nashville,,1383358416000,36.16,-86.79,Ronnielynne,TN,1383503755000,2237681
218482741,Nashville,,1482562271000,36.17,-86.78,Rue Crowder,TN,1482562271000,2237681
24688612,Nashville,,1315416974000,36.17,-86.72,Russell Brantley,TN,1315416974000,2237681
183621154,Smyrna,,1421386271000,35.97,-86.51,Russell Church,TN,1421386271000,2237681
218769855,Nashville,,1482883031000,36.17,-86.78,Ryan Hanlin,TN,1482883031000,2237681
221300007,Nashville,,1486125991000,36.22,-86.74,S Burress,TN,1489791981000,2237681
12159357,San Jose,Berkeley Bay area,1478373398000,37.41,-121.86,Sahaja Meditation,CA,1497400004000,2237681
21094341,Nashville,,1311692989000,36.17,-86.72,Sahaja Meditation,TN,1493827164000,2237681
213302747,Knoxville,,1475634642000,35.97,-84.11,Sahaja Yoga Meditation,TN,1505960795000,2237681
218027204,Fairview,,1481431001000,35.97,-87.13,Sam Gallagher,TN,1481431001000,2237681
232270953,Antioch,,1500603485000,36.04,-86.64,Samantha Marie Whittaker,TN,1500603485000,2237681
238815972,Nashville,,1507922569000,36.16,-86.77,Sammy D,TN,1507922569000,2237681
222756234,Lewisville,,1488103189000,33.05,-97.01,Sandeep Bonam,TX,1488469685000,2237681
221482535,Nashville,,1486355149000,36.21,-86.72,Sandy Hughes Bradley,TN,1486355149000,2237681
74610162,Murfreesboro,,1404827823000,35.82,-86.45,Sarah Bennett,TN,1405891133000,2237681
208829780,Nashville,,1468272544000,36.17,-86.78,Sarah Rebeiro,TN,1468272544000,2237681
66519902,Gallatin,Gallatin,1353352605000,36.39,-86.45,Scott,TN,1353357218000,2237681
8539046,Nashville,,1486212519000,36.13,-86.8,Shalini,TN,1488630666000,2237681
181605962,Murfreesboro,,1483066269000,35.78,-86.33,Shannon Parks,TN,1483066269000,2237681
139177952,Nashville,,1505053349000,36.16,-86.79,Shaun,TN,1505053349000,2237681
80922422,Hermitage,"West Dundee,IL",1431569911000,36.19,-86.6,Shawn,TN,1431569911000,2237681
223139602,Spring Hill,,1488645327000,35.76,-86.88,Shayna Clemmer,TN,1488645327000,2237681
151199082,Nashville,,1494261780000,36.17,-86.78,Shelby,TN,1494261780000,2237681
226650565,Nashville,,1493512024000,36.17,-86.72,Shelia Hughes,TN,1493512024000,2237681
222740881,Nashville,,1488078615000,36.08,-86.72,Sherman Megibben,TN,1488588907000,2237681
183724740,Nashville,,1421698802000,36.17,-86.72,Shirish Gupta,TN,1421698802000,2237681
231415178,Nashville,,1499581839000,36.1,-86.66,Shruti Luhach,TN,1499581839000,2237681
206865240,Antioch,,1466128664000,36.17,-86.88,shweta ,TN,1466128664000,2237681
228125989,Nashville,,1499659756000,36.11,-86.78,siddhesh tiwari,TN,1499965069000,2237681
101142012,Hermitage,"Danbury, CT",1481331503000,36.13,-86.67,Slyms Bazile,TN,1481331503000,2237681
226812534,Antioch,,1493735416000,36.04,-86.64,So Hollywood,TN,1493735416000,2237681
178963242,Springfield,,1492704575000,36.52,-86.87,Sondra Harper Barnes,TN,1492704575000,2237681
216524014,Nashville,,1478907587000,36.17,-86.78,Sonja,TN,1484322995000,2237681
186425049,Nashville,,1429653274000,36.17,-86.78,Sophia,TN,1429653274000,2237681
211988352,Orlinda,,1473867504000,36.61,-86.69,Stacey Haag,TN,1473867504000,2237681
236332354,Fairview,,1505246403000,35.97,-87.13,Stacey Joplin,TN,1505246403000,2237681
123939912,Hendersonville,,1387217963000,36.32,-86.68,Staci,TN,1397594710000,2237681
230338234,Nashville,,1498255859000,36.17,-86.78,Stacy,TN,1499188939000,2237681
126770072,Nashville,,1506980665000,36.09,-86.82,Stacy Schorr,TN,1506980665000,2237681
217458903,Nashville,,1480447208000,36.17,-86.78,Steph Blick,TN,1480447208000,2237681
50742382,Franklin,,1363839940000,35.93,-86.81,Stephanie Borbely,TN,1363839940000,2237681
111057232,Nashville,,1379040653000,36.17,-86.72,Stephen Nix,TN,1379040653000,2237681
28445462,Columbia,Columbia,1382557692000,35.61,-87.05,Steven B. Schnoor,TN,1495421806000,2237681
38874702,Smyrna,,1329576651000,35.97,-86.51,Sue Ellen Curtis,TN,1329576651000,2237681
190090308,Nashville,,1437251461000,36.18,-86.74,Summer,TN,1437251461000,2237681
183173081,Nashville,,1419841173000,36.18,-86.73,Summer Smith,TN,1419841173000,2237681
233654869,Nashville,,1502291699000,36.11,-86.86,Surya,TN,1502291699000,2237681
225097483,Nashville,,1491390535000,36.21,-86.72,Susan Ulrich,TN,1491390535000,2237681
188886262,Watertown,,1434807973000,36.11,-86.14,Suzanne Prince,TN,1434807973000,2237681
9371634,Brisbane,Murrumba Downs,1498447753000,-27.46,153.02,Tammy Penna,,1498447753000,2237681
234154899,Franklin,,1508399258000,35.92,-86.89,Tanya Parsley,TN,1508399258000,2237681
183648192,Arrington,,1421472358000,36.17,-86.78,Tara James,TN,1421472358000,2237681
90079182,Franklin,"Franklin, TN",1499191239000,35.93,-86.81,Tassel Shanebrook Baldwin,TN,1499191239000,2237681
188272690,Nashville,,1476762692000,36.17,-86.78,Tc Richards,TN,1476762692000,2237681
186250825,Gallatin,,1429228830000,36.39,-86.45,Teresa,TN,1429228830000,2237681
215689453,Nashville,,1477585905000,36.16,-86.79,Terisa Thorpe,TN,1477585905000,2237681
229320405,Antioch,,1496975196000,36.04,-86.64,Theresa Willis,TN,1496975196000,2237681
120390632,Chattanooga,,1418485156000,35.04,-85.31,Tiffany,TN,1418485156000,2237681
183207905,Chattanooga,Chattanooga,1424784024000,35.05,-85.3,Tiffany,TN,1424784024000,2237681
52641002,Nashville,,1401130095000,36.16,-86.79,Tiffany Dalton,TN,1403880220000,2237681
220613116,Nashville,,1485268235000,36.1,-86.66,Tiffany Hassell,TN,1485268235000,2237681
227566374,Franklin,,1494773018000,35.92,-86.89,Tiffany Hope,TN,1494773018000,2237681
205173724,Nashville,"Arkansas City, AR",1492486254000,36.14,-86.74,Tim,TN,1492877020000,2237681
201567747,Madison,,1458063609000,36.26,-86.71,Tima Imari Smith,TN,1458063609000,2237681
85972002,Nashville,,1363977661000,36.17,-86.72,TNashville,TN,1364434304000,2237681
108571182,Nashville,,1406082295000,36.17,-86.78,Toni,TN,1497968925000,2237681
112899382,Smyrna,Nashville,1468985960000,35.97,-86.51,Tonia,TN,1468985960000,2237681
219835964,Nashville,,1484287867000,36.18,-86.74,Trisha Brantley,TN,1485685747000,2237681
216431731,Nashville,,1478757986000,36.17,-86.78,Tyler Ashley,TN,1478757986000,2237681
12291145,Nashville,Donelson,1382405895000,36.17,-86.72,Tyler Hume,TN,1407165336000,2237681
102889902,Mount Juliet,,1454900725000,36.21,-86.52,Valerie Hoagland,TN,1503799317000,2237681
201930849,Nashville,,1484490876000,36.17,-86.77,Vane Quiroz,TN,1484490876000,2237681
224287185,Clarksville,,1490245270000,36.53,-87.34,Veronica Aguirre,TN,1490245270000,2237681
132077062,Hendersonville,,1399978892000,36.32,-86.61,Vickie Grandberry,TN,1401130731000,2237681
222826023,Goodlettsville,,1488763496000,36.31,-86.72,Vickie Martin,TN,1488763496000,2237681
197762741,Nashville,,1452182762000,36.11,-86.78,Victoria Couch,TN,1452182762000,2237681
20516401,Chicago,Vernon Hills,1410757250000,41.99,-87.66,Vikramaditya Singh,IL,1465267279000,2237681
38549732,Nashville,,1329311632000,36.17,-86.72,Vikrant Chouhan,TN,1376684470000,2237681
200946236,Franklin,,1457191422000,35.92,-86.89,Vincentzenno Cappelli,TN,1457191422000,2237681
195287936,Hendersonville,,1447015405000,36.32,-86.61,Virginia,TN,1447015405000,2237681
104152492,Nashville,,1374971670000,36.17,-86.72,virginia,TN,1396361568000,2237681
224282779,Nashville,,1490238121000,36.21,-86.72,Weston Sparks,TN,1490339100000,2237681
539971,Nashville,,1473637445000,36.17,-86.78,Whitney782003,TN,1473637445000,2237681
48232882,Nashville,Nashville,1491059871000,36.16,-86.79,Will Ward,TN,1505330474000,2237681
95932012,Nashville,,1370065150000,36.17,-86.72,Yaima Suarez,TN,1379895562000,2237681
89278792,Nashville,,1379139730000,36.17,-86.78,Yalonda,TN,1505346195000,2237681
231103049,Nashville,,1499202722000,36.17,-86.78,Yeraldy Marcano,TN,1499202722000,2237681
216328809,Nashville,,1478577981000,36.08,-86.72,Yesenia Mendoza,TN,1478577981000,2237681
229702960,Nashville,,1497458069000,36.18,-86.74,Yevette Smith-Hill,TN,1497458069000,2237681
219275333,Nashville,,1483575367000,36.15,-86.86,Yusuf Gürbüz,TN,1483575367000,2237681
