id,city,hometown,joined,lat,lon,name,state,visited,group_id
65072762,Brentwood,Saratoga,1489177272000.0,36.0,-86.79,Aaron,TN,1506018631000.0,22468329
235831507,Nashville,,1504735380000.0,36.16,-86.78,AD Wilson,TN,1504735380000.0,22468329
231441003,Franklin,,1499616845000.0,35.93,-86.81,Adam,TN,1499616845000.0,22468329
233733864,Nashville,,1502385374000.0,36.08,-86.72,Adam Boone,TN,1502385374000.0,22468329
222625283,Lebanon,,1487910966000.0,36.21,-86.31,Adam Hinds,TN,1487913511000.0,22468329
231084443,Nashville,,1499183748000.0,36.15,-86.86,Adam Intihar,TN,1499183748000.0,22468329
235501367,Hermitage,,1504392573000.0,36.19,-86.6,Adam Knight,TN,1504392573000.0,22468329
236913354,Nashville,,1505823334000.0,36.17,-86.79,Adam V,TN,1506167330000.0,22468329
228716402,Nashville,,1496237272000.0,36.15,-86.86,Adam Wiefling,TN,1496237272000.0,22468329
183828397,Murfreesboro,,1508554157000.0,35.82,-86.45,Adam Zuck,TN,1508554157000.0,22468329
235649293,Nashville,,1504555434000.0,36.13,-86.81,Agis D. Peebles,TN,1504555434000.0,22468329
234843128,Lebanon,,1503639671000.0,36.21,-86.29,Aisha Johnson,TN,1503639671000.0,22468329
228478397,Nashville,,1508027911000.0,36.17,-86.78,Akhil,TN,1508027911000.0,22468329
221373602,Nashville,,1487910966000.0,36.07,-86.73,alex alhaj,TN,1493258823000.0,22468329
235742118,Nashville,,1504650185000.0,36.17,-86.78,Alex S,TN,1504650185000.0,22468329
229592871,Hendersonville,,1497313172000.0,36.3,-86.62,Allen Alexander,TN,1497458660000.0,22468329
238681050,Nashville,,1507761261000.0,36.17,-86.77,American Illness,TN,1507761261000.0,22468329
206741636,Nashville,,1487608700000.0,36.17,-86.78,Andrew,TN,1490831406000.0,22468329
125908132,Nashville,,1489490215000.0,36.09,-86.82,Andrew Ball,TN,1493423054000.0,22468329
229319103,Nashville,,1496972760000.0,36.17,-86.78,andy dsouza,TN,1496972760000.0,22468329
225223803,Nashville,,1491575290000.0,36.16,-86.66,Andy Kelm,TN,1491575290000.0,22468329
230216065,Nashville,,1498099653000.0,36.08,-86.72,Araz Amedy,TN,1498190550000.0,22468329
224954611,Cookeville,,1491240218000.0,36.2,-85.52,Arveen Amiri,TN,1491240218000.0,22468329
232398895,Nashville,,1500769396000.0,36.17,-86.79,Askar Harith,TN,1500769396000.0,22468329
237344309,Antioch,,1506300313000.0,36.04,-86.64,Austin Ellison,TN,1506300313000.0,22468329
232108489,Nashville,,1500409190000.0,36.17,-86.78,Austin Hutchinson,TN,1505232444000.0,22468329
238498803,Nashville,,1507569947000.0,36.19,-86.8,Austin Monsrud,TN,1507569947000.0,22468329
226702045,Nashville,,1493586333000.0,36.17,-86.78,Avid Tuber,TN,1493586333000.0,22468329
225896740,Old Hickory,,1492513399000.0,36.25,-86.63,Beau Smith,TN,1492641706000.0,22468329
230354656,Nashville,,1498275301000.0,36.17,-86.78,Ben Harp,TN,1498275301000.0,22468329
234868825,Nashville,,1503675094000.0,36.17,-86.78,Ben Jones,TN,1503675094000.0,22468329
89916792,Nashville,,1487564783000.0,36.17,-86.78,Ben Purer,TN,1487559087000.0,22468329
228550348,Burns,,1496024304000.0,36.04,-87.26,Ben Spence,TN,1496024304000.0,22468329
225176675,Dickson,,1491503203000.0,36.08,-87.38,Billy Gann,TN,1491503203000.0,22468329
226836672,Gallatin,,1493762791000.0,36.39,-86.45,Bobby,TN,1493762791000.0,22468329
213499176,Mount Juliet,,1487603104000.0,36.21,-86.52,Brad Austin,TN,1493044370000.0,22468329
203909824,Orlando,,1487887174000.0,28.54,-81.37,BRAD B,FL,1487885453000.0,22468329
140876922,Madison,,1488068440000.0,36.27,-86.72,BradH,TN,1488067230000.0,22468329
239138209,Spring Hill,,1508289231000.0,35.76,-86.88,Brandon,TN,1508289231000.0,22468329
228155593,Murfreesboro,,1499219984000.0,35.78,-86.33,Brandon,TN,1502933768000.0,22468329
238259395,Nashville,,1507309727000.0,36.17,-86.78,Brandon Aquino,TN,1507309727000.0,22468329
228454326,Nashville,,1495895504000.0,36.11,-86.78,Brandon Boehme,TN,1495895504000.0,22468329
233205051,Gallatin,,1501775473000.0,36.39,-86.45,Brandon Holland,TN,1501775473000.0,22468329
234459307,Nashville,,1503205463000.0,36.1,-86.66,Brandon Hurst,TN,1503205463000.0,22468329
228025718,Nashville,,1495372893000.0,36.08,-86.72,Brandon Tucker,TN,1495372893000.0,22468329
233710560,Nashville,,1502347197000.0,36.17,-86.78,Brandon Williams,TN,1502347197000.0,22468329
70787512,Nashville,Knoxville,1487616161000.0,36.17,-86.72,Brant Ivey,TN,1487614029000.0,22468329
233297847,Madison,,1501883386000.0,36.19,-86.74,Brayden,TN,1501883386000.0,22468329
223222127,Nashville,,1488773184000.0,36.17,-86.78,Brent Mills,TN,1502915528000.0,22468329
209963734,Nashville,,1487524637000.0,36.17,-86.78,Brian,TN,1487524637000.0,22468329
159442722,Nashville,,1494914441000.0,36.17,-86.77,Brian F,TN,1494914441000.0,22468329
231849259,Nashville,,1500087432000.0,36.1,-86.66,Brian Niebel,TN,1500087432000.0,22468329
234762767,Antioch,,1503543672000.0,36.04,-86.64,Brian Snoddy,TN,1503543672000.0,22468329
59190862,Nashville,Nashville,1496750955000.0,36.15,-86.86,Bruce,TN,1503958679000.0,22468329
226642805,Shelbyville,,1493501678000.0,35.48,-86.46,Bryan Berry,TN,1493501678000.0,22468329
209776200,Columbia,,1505260123000.0,35.61,-87.05,Bud Todd,TN,1505260123000.0,22468329
179515502,Lebanon,,1498168095000.0,36.21,-86.3,Caleb Blanzy,TN,1498168095000.0,22468329
234074144,Nashville,,1502775488000.0,36.14,-86.74,Caleb Maurice Sprinkle,TN,1502775488000.0,22468329
231554495,Fort Campbell,,1499739433000.0,36.65,-87.46,Cameron Howell,KY,1500256217000.0,22468329
189531331,Murfreesboro,,1505066945000.0,35.85,-86.36,Carlos Polk,TN,1505066945000.0,22468329
225794967,Nashville,,1492369928000.0,36.13,-86.67,Carlos Romero,TN,1492369928000.0,22468329
225317791,Franklin,,1491708245000.0,35.93,-86.84,Chadd Bridwell,TN,1491708245000.0,22468329
227816832,Nashville,,1495083354000.0,36.11,-86.78,Chauncey Nahsco,TN,1495083354000.0,22468329
128205922,Nashville,"Port Charlotte, FL",1487780344000.0,36.18,-86.81,Chris,TN,1502574368000.0,22468329
236338727,Nashville,,1505252657000.0,36.18,-86.74,Chris ,TN,1505252657000.0,22468329
211437644,Nashville,Nashville,1487769905000.0,36.06,-86.96,Chris,TN,1504114050000.0,22468329
235847246,Clarksville,,1504750650000.0,36.58,-87.4,Chris Chase,TN,1504750650000.0,22468329
222962664,Nashville,,1488394759000.0,36.17,-86.78,Chris Colanero,TN,1488392550000.0,22468329
231162545,Nashville,,1499279831000.0,36.14,-86.8,Chris Maniscalco,TN,1502919024000.0,22468329
231112813,Lebanon,,1499213440000.0,36.15,-86.32,Chris Meggs,TN,1499213440000.0,22468329
227078289,Nashville,,1494099745000.0,36.08,-86.72,Chris White,TN,1503720168000.0,22468329
230416412,Mount Juliet,,1498354188000.0,36.21,-86.52,Christian Beere,TN,1502973348000.0,22468329
232281434,Nashville,,1505849711000.0,36.1,-86.66,Christian Garstin,TN,1505849711000.0,22468329
225999934,Clarksville,,1492635709000.0,36.53,-87.35,Christopher Davis,TN,1492635709000.0,22468329
239288151,Nashville,,1508463157000.0,36.15,-86.86,Chuck S,TN,1508463157000.0,22468329
234510721,Mount Juliet,,1503264367000.0,36.21,-86.52,Clay Jones,TN,1503264367000.0,22468329
236854156,Murfreesboro,,1508006481000.0,35.82,-86.45,Clayton Breen,TN,1508006481000.0,22468329
228223225,Nashville,,1495583917000.0,36.19,-86.8,Cody Hannah,TN,1495583917000.0,22468329
184092399,Hermitage,,1488901213000.0,36.19,-86.6,Colby Allen Cash,TN,1488902405000.0,22468329
233698074,Nashville,,1502331065000.0,36.17,-86.78,Cory Kiefer,TN,1502331065000.0,22468329
238174259,Murfreesboro,,1507224604000.0,35.87,-86.44,Cory Lawrence,TN,1507224604000.0,22468329
233676471,Nashville,,1502309919000.0,36.1,-86.78,Curtis porter,TN,1502309919000.0,22468329
232722660,Nashville,,1501168461000.0,36.17,-86.72,Dakota Brown,TN,1501168461000.0,22468329
236356975,Murfreesboro,,1505267283000.0,35.85,-86.36,Dallas Gossett,TN,1505267283000.0,22468329
238447511,Nashville,,1507513070000.0,36.1,-86.66,Dane Fowler,TN,1507513070000.0,22468329
234934472,Franklin,,1503756937000.0,35.99,-86.9,Daniel Bradley,TN,1503756937000.0,22468329
231709926,Murfreesboro,,1499916764000.0,35.87,-86.44,Daniel F,TN,1499916764000.0,22468329
232462526,Murfreesboro,,1500850503000.0,35.87,-86.44,Daniel Upton,TN,1502923854000.0,22468329
235750642,Nashville,,1504653208000.0,36.22,-86.77,Danny L Collier,TN,1504653208000.0,22468329
237624611,Fort Campbell,,1506607325000.0,36.65,-87.46,Darius Whiteside,KY,1506607325000.0,22468329
236348958,Nashville,,1505259915000.0,36.13,-86.8,Dave Wright,TN,1505259915000.0,22468329
227518458,Fort Campbell,,1494697725000.0,36.65,-87.46,David Bullard,KY,1494697725000.0,22468329
228361709,Antioch,,1495763762000.0,36.04,-86.64,David Carter,TN,1497988781000.0,22468329
182581819,Murfreesboro,,1502036939000.0,35.82,-86.45,David Duong,TN,1503737438000.0,22468329
230798730,Nashville,,1498831846000.0,36.16,-86.79,David Gerstein,TN,1498831846000.0,22468329
227270758,Nashville,,1494357378000.0,36.15,-86.79,David Heins,TN,1497986895000.0,22468329
228581299,Nashville,,1496230424000.0,36.19,-86.8,David Robinson,TN,1496230424000.0,22468329
227099990,Fairview,,,35.97,-87.13,,TN,,22468329
233790959,Nashville,,1502430822000.0,36.14,-86.74,Deasia Spikes,TN,1502430822000.0,22468329
195301990,Nashville,,1487564783000.0,36.17,-86.78,DJ Big K,TN,1502923504000.0,22468329
181963822,Lebanon,,1493505957000.0,36.21,-86.31,Dominic Chirchirillo,TN,1503263205000.0,22468329
231834990,Nashville,,1500600701000.0,36.11,-86.86,Donald Erich,TN,1500600701000.0,22468329
225901215,Nashville,,1492608964000.0,36.17,-86.78,Donelson ,TN,1493072394000.0,22468329
239322328,Murfreesboro,,1508511639000.0,35.85,-86.36,Doug Daigle,TN,1508511639000.0,22468329
205822921,Nashville,Nashville,1495122849000.0,36.17,-86.72,Dr Tank,TN,1495370925000.0,22468329
233867904,Franklin,,1505232192000.0,35.92,-86.89,Drew McNairy,TN,1505232192000.0,22468329
233152377,Mount Juliet,,1501707199000.0,36.21,-86.52,Dusty Belew,TN,1501707199000.0,22468329
231433247,Murfreesboro,,1499608689000.0,35.85,-86.36,Dylan Ruffra,TN,1499632487000.0,22468329
238029383,Clarksville,,1507061403000.0,36.56,-87.41,Edward,TN,1507061403000.0,22468329
233020311,Nashville,,1501543462000.0,36.14,-86.8,Edward Garcia,TN,1501543462000.0,22468329
214144312,Clarksville,,1499823402000.0,36.56,-87.41,Eli Ellison,TN,1499823402000.0,22468329
207251859,Nashville,,1487795383000.0,36.17,-86.78,Eli Rogers,TN,1487794660000.0,22468329
119331282,Nashville,,1492268713000.0,36.16,-86.78,Elwyn Gonzalez,TN,1492268713000.0,22468329
232447122,Smyrna,,1500833940000.0,35.97,-86.51,Em Britton,TN,1500833940000.0,22468329
237023682,Madison,,1505936235000.0,36.26,-86.71,Emanuel Escalante,TN,1505936235000.0,22468329
235520627,Nashville,,1504416398000.0,36.17,-86.78,Enoch Annunaki,TN,1504416398000.0,22468329
229446139,Brentwood,,1497277615000.0,36.0,-86.79,eric roll,TN,1499697850000.0,22468329
233136666,Nashville,,1501690739000.0,36.07,-86.78,Evan Landry,TN,1501690739000.0,22468329
237631303,Nashville,,1506613659000.0,36.17,-86.79,Fabulozz Okopido,TN,1506613659000.0,22468329
232595107,Nashville,,1501008876000.0,36.11,-86.78,Freddie,TN,1501008876000.0,22468329
232230702,Nashville,,1500559261000.0,36.16,-86.79,Gabe Wateski,TN,1500559261000.0,22468329
235589875,Nashville,,1504494498000.0,36.17,-86.77,Gabriel,TN,1504494498000.0,22468329
233089457,Pleasant View,,1502509729000.0,36.38,-87.04,Gabriel Chastain,TN,1502509729000.0,22468329
229384678,Nashville,,1497057510000.0,36.17,-86.78,Gage Carlsen,TN,1497057510000.0,22468329
231211172,Hermitage,,1499341114000.0,36.19,-86.6,GamerWithFlow,TN,1499341114000.0,22468329
229696707,Nashville,,1498514938000.0,36.17,-86.78,Gee  Rivera,TN,1502975650000.0,22468329
227695758,Beechgrove,,1494940905000.0,35.62,-86.17,Gene Bilderback Pierce,TN,1494940905000.0,22468329
161600672,Nashville,,1501243961000.0,36.13,-86.8,George Paul Comeaux,TN,1501243961000.0,22468329
74272472,Mount Juliet,,1492639208000.0,36.21,-86.52,Gerry,TN,1498018319000.0,22468329
236977317,Fort Campbell,,1505879777000.0,36.65,-87.46,Greg Ampadu,KY,1505879777000.0,22468329
231341416,Hermitage,,1499493984000.0,36.19,-86.6,Greg Minor,TN,1499493984000.0,22468329
229352465,Brentwood,,1497021136000.0,36.0,-86.79,Griffin,TN,1497021136000.0,22468329
235837616,Murfreesboro,,1504740976000.0,35.78,-86.33,GrizzlyXTC 615,TN,1504740976000.0,22468329
209579846,Nashville,,1504577881000.0,36.17,-86.78,Harrison,TN,1504577881000.0,22468329
238977823,Nashville,,1508111887000.0,36.07,-86.73,Harry Ross,TN,1508111887000.0,22468329
233712689,La Vergne,,1502350226000.0,36.01,-86.57,Hunter Fogg,TN,1502350226000.0,22468329
201760733,Nashville,,1487630598000.0,36.08,-86.72,Ian,TN,1495818481000.0,22468329
232381768,Franklin,,1500749743000.0,35.93,-86.84,Ian Parker,TN,1500749743000.0,22468329
221828503,Abu Dhabi,,1507950591000.0,24.48,54.37,Ilyas Warris,,1507950591000.0,22468329
231997258,Smyrna,,1500408242000.0,35.97,-86.51,Irfan Ali,TN,1500408242000.0,22468329
232377027,Nashville,,1500744663000.0,36.1,-86.66,Israel Garcia,TN,1500744663000.0,22468329
39601082,Clarksville,,1500125196000.0,36.56,-87.41,Izzy Garcia,TN,1500125196000.0,22468329
230873941,Nashville,,1498928547000.0,36.15,-86.8,Jabari,TN,1498928547000.0,22468329
229221844,Greenbrier,,1496852754000.0,36.43,-86.8,Jaben Campbell,TN,1496852754000.0,22468329
237930607,Smyrna,,1506959590000.0,35.97,-86.51,Jack Kellogg,TN,1507056160000.0,22468329
230973773,Fort Campbell,,1499046155000.0,36.65,-87.46,Jacob,KY,1499046155000.0,22468329
225607912,Nashville,,1492105002000.0,36.17,-86.78,Jacob Taylor,TN,1492105002000.0,22468329
179019412,Nashville,,1491237218000.0,36.08,-86.72,Jaime,TN,1491237218000.0,22468329
214699652,Hermitage,,1505922313000.0,36.17,-86.6,Jake Dunphy,TN,1505922313000.0,22468329
230628921,Goodlettsville,,1498611137000.0,36.32,-86.72,James C,TN,1498611137000.0,22468329
239504948,Nashville,,1508713864000.0,36.14,-86.8,James Cameron,TN,1508713864000.0,22468329
232924546,Clarksville,,1501429145000.0,36.53,-87.34,James Daniel McGrath,TN,1501429145000.0,22468329
234712454,Nashville,,1503496475000.0,36.17,-86.78,James Gardner,TN,1503496475000.0,22468329
234293094,Nashville,,1503020782000.0,36.1,-86.66,James Murphy,TN,1503020782000.0,22468329
187052923,Nashville,,1487583972000.0,36.17,-86.78,James Otis Runyon,TN,1492927561000.0,22468329
211869676,Nashville,,1508204093000.0,36.18,-86.74,James stevens,TN,1508204093000.0,22468329
236524142,Nashville,,1505423702000.0,36.17,-86.78,Jamie,TN,1505423702000.0,22468329
184316944,Nashville,,1487667743000.0,36.16,-86.66,Jamie B,TN,1494085534000.0,22468329
231077385,Nashville,,1499176615000.0,36.17,-86.79,Jared Mayo,TN,1503607192000.0,22468329
229430389,Nashville,,1498439168000.0,36.1,-86.66,Jarod,TN,1502931038000.0,22468329
235436771,Hendersonville,,1504317745000.0,36.32,-86.61,Jason Baxter,TN,1504317745000.0,22468329
227670876,Hendersonville,,1494904472000.0,36.32,-86.61,Jason Lamar Evans,TN,1503264295000.0,22468329
202084030,Smyrna,Smyrna,1506688558000.0,35.97,-86.51,Jay,TN,1506688558000.0,22468329
234565729,Goodlettsville,,1503332529000.0,36.32,-86.72,Jay Cooper,TN,1503332529000.0,22468329
227344539,Nashville,,1494456703000.0,36.15,-86.79,Jay H,TN,1494456703000.0,22468329
237762091,Lebanon,,1506765101000.0,36.21,-86.31,Jay J,TN,1506765101000.0,22468329
233399329,Nashville,,1502001406000.0,36.08,-86.72,Jay Jones,TN,1502001406000.0,22468329
226979503,Nashville,,1493952961000.0,36.17,-86.78,Jay Woolbright,TN,1493952961000.0,22468329
232504138,Fort Campbell,,1500906063000.0,36.65,-87.46,Jayson Rich,KY,1500906063000.0,22468329
3205027,Nashville,Charlotte,1494030027000.0,36.17,-86.78,Jeff,TN,1497978725000.0,22468329
239369656,Murfreesboro,,1508556068000.0,35.82,-86.45,Jeff Aldrich,TN,1508556068000.0,22468329
227009510,Nashville,,1495569290000.0,36.06,-86.96,Jeff Hill,TN,1495569290000.0,22468329
228296968,Franklin,,1495676701000.0,35.93,-86.81,Jeff Kruse,TN,1495676701000.0,22468329
239178233,Madison,,1508340683000.0,36.26,-86.71,JEM888,TN,1508340683000.0,22468329
221993940,Brentwood,,1491345920000.0,36.0,-86.79,Jerrell Sanders,TN,1491433343000.0,22468329
226749171,Nashville,,1493651865000.0,36.17,-86.78,Jerry Heath,TN,1493651865000.0,22468329
224870972,Woodbury,,1491360565000.0,35.81,-86.07,Jessee Burke,TN,1491360565000.0,22468329
238307094,Springfield,,1507357292000.0,36.52,-86.87,Jessica Whitman,TN,1507357292000.0,22468329
236699373,Hermitage,,1505607600000.0,36.19,-86.6,Jessica Wright,TN,1505607600000.0,22468329
229537333,Franklin,,1497248649000.0,35.92,-86.89,Jim Miller,TN,1506235879000.0,22468329
11628917,Hermitage,,1488237446000.0,36.19,-86.6,jim vazquez,TN,1508362561000.0,22468329
226013961,Hendersonville,,1492652607000.0,36.32,-86.61,Jimmy Dale,TN,1492693028000.0,22468329
224836897,Nashville,,1491231771000.0,36.17,-86.78,Joe McCarthy,TN,1503269302000.0,22468329
234049509,Nashville,,1502748392000.0,36.17,-86.78,Joe Stone,TN,1502748392000.0,22468329
230682473,Nashville,,1498678791000.0,36.08,-86.72,Joel,TN,1498678791000.0,22468329
62662372,Nashville,,1488901213000.0,36.08,-86.72,John,TN,1492953140000.0,22468329
225736515,Nashville,,1492277646000.0,36.07,-86.73,John Blackwell,TN,1492277646000.0,22468329
232474962,Nashville,,1500864956000.0,36.06,-86.96,John Pope,TN,1500864956000.0,22468329
237747930,Nashville,,1506744356000.0,36.15,-86.86,Jon Acevedo,TN,1506744356000.0,22468329
235859675,Murfreesboro,,1504765489000.0,35.78,-86.33,Jon Anderson,TN,1504765489000.0,22468329
238190815,Nashville,,1507233675000.0,36.16,-86.66,Jon Rosshirt,TN,1507233675000.0,22468329
231055009,Nashville,,1499143850000.0,36.13,-86.67,Jonah Alexander,TN,1499143850000.0,22468329
229258958,Nashville,,1496894177000.0,36.15,-86.86,Jonathon Ray,TN,1498343376000.0,22468329
235936819,Murfreesboro,,1504843642000.0,35.85,-86.36,Jordan Anderson,TN,1505535707000.0,22468329
221310673,Murfreesboro,,1495501796000.0,35.85,-86.36,Jordan Caswell,TN,1495538956000.0,22468329
232953136,Nashville,,1501460445000.0,36.14,-86.74,Jose Aguilar,TN,1501460445000.0,22468329
234015150,Murfreesboro,,1502712688000.0,35.87,-86.44,Jose Tapia,TN,1502712688000.0,22468329
220818716,Hendersonville,Hendersonville,1499737215000.0,36.32,-86.61,Joseph,TN,1507060586000.0,22468329
227662334,Spring Hill,,1498515899000.0,35.76,-86.88,Joseph Van Deusen,TN,1498515899000.0,22468329
230555088,Nashville,,1498524754000.0,36.17,-86.78,Josh,TN,1498524754000.0,22468329
231264992,Murfreesboro,,1499398999000.0,35.82,-86.45,Josh Adams,TN,1499398999000.0,22468329
232645615,Nashville,,1501072624000.0,36.15,-86.86,Josh Edwards,TN,1501157407000.0,22468329
229605346,Mount Juliet,,1497328375000.0,36.22,-86.52,Josh Reive,TN,1497328375000.0,22468329
226141112,Nashville,,1492829056000.0,36.07,-86.73,Josh Wolfe,TN,1492832783000.0,22468329
231084235,Lebanon,,1499183876000.0,36.21,-86.31,Joshua,TN,1499276734000.0,22468329
205997598,Johnson City,,1498069004000.0,36.33,-82.36,Joshua,TN,1498069004000.0,22468329
232061586,Hermitage,,1500350492000.0,36.19,-86.6,Joshua,TN,1500350492000.0,22468329
231335182,Hermitage,,1499483451000.0,36.19,-86.6,Joshua Brooks Cater,TN,1499483451000.0,22468329
234019198,Clarksville,,1502716442000.0,36.56,-87.41,Joshua Camara,TN,1502716442000.0,22468329
212864620,Nashville,,1487643084000.0,36.08,-86.72,Joshua Stagner,TN,1487642456000.0,22468329
233137572,Nashville,,1501691745000.0,36.16,-86.78,Julien,TN,1501691745000.0,22468329
10933380,Nashville,Nashville,1487769905000.0,36.21,-86.72,Justin Cutler,TN,1489960666000.0,22468329
230462038,Nashville,,1498415637000.0,36.17,-86.78,Justin D. Gillespie,TN,1498415637000.0,22468329
231842539,Nashville,,1500080156000.0,36.17,-86.78,Justin Hester,TN,1500080156000.0,22468329
228210914,Nashville,,1506726825000.0,36.17,-86.78,Justin kinnear,TN,1507031551000.0,22468329
214612979,Nashville,,1491875794000.0,36.14,-86.74,Justin Onslow,TN,1497994255000.0,22468329
234605657,Nashville,,1503373354000.0,36.17,-86.78,Justin Sandlin,TN,1503373354000.0,22468329
232192397,Franklin,,1500506368000.0,35.92,-86.89,Justin Shepherd,TN,1500506368000.0,22468329
177000932,Hermitage,,1496159971000.0,36.2,-86.61,JW,TN,1496159971000.0,22468329
238776922,Nashville,,1507874973000.0,36.17,-86.78,Kahlil G,TN,1507874973000.0,22468329
239429444,Nashville,,1508626641000.0,36.15,-86.81,Kalyan Bugata,TN,1508626641000.0,22468329
5297149,Nashville,Chattanooga,1496012636000.0,36.18,-86.81,Kenneth,TN,1496012636000.0,22468329
230843439,Nashville,,1498882323000.0,36.17,-86.78,Kevin Adamson,TN,1498882323000.0,22468329
237028388,Nashville,,1505940622000.0,36.1,-86.66,Kevin Seedorf,TN,1505940622000.0,22468329
200446785,Antioch,Philadelphia,1504989615000.0,36.04,-86.64,Kharí X Clark,TN,1504989615000.0,22468329
237358432,Clarksville,,1506316493000.0,36.56,-87.35,Krissy Hughes,TN,1506351101000.0,22468329
231038200,Nashville,,1499124155000.0,36.06,-86.96,Kristi W,TN,1499124155000.0,22468329
231150547,Nashville,,1499268024000.0,36.08,-86.72,Kristoff Hart,TN,1499949320000.0,22468329
229922037,Thompsons Station,,1501114874000.0,35.8,-86.9,Kyle Chambers,TN,1503270142000.0,22468329
129782542,Nashville,"Toronto, ON",1487645634000.0,36.17,-86.78,Kyle H,TN,1499978067000.0,22468329
227210681,Nashville,,1494276366000.0,36.09,-86.82,Kyle Mills,TN,1494276366000.0,22468329
229584064,Nashville,,1497303607000.0,36.11,-86.86,Kyle O'Leary,TN,1497303607000.0,22468329
227032191,Nashville,,1494026944000.0,36.07,-86.78,Kyle Weber,TN,1494026944000.0,22468329
225132186,Clarksville,,1491433785000.0,36.56,-87.41,Lamont Mallett,TN,1491433785000.0,22468329
222288505,Franklin,,1488888160000.0,35.93,-86.83,Latish Khubnani,TN,1491442905000.0,22468329
239149538,Nashville,,1508308436000.0,36.17,-86.78,Lawrence Coley,TN,1508308436000.0,22468329
181680832,Hermitage,,1502725899000.0,36.19,-86.6,Leonte Williams,TN,1502725899000.0,22468329
235533853,Murfreesboro,,1504436176000.0,35.85,-86.36,Lewanyé,TN,1504436176000.0,22468329
234433504,Clarksville,,1503175818000.0,36.57,-87.27,Logan Krieger,TN,1503175818000.0,22468329
229895228,Nashville,,1497716677000.0,36.14,-86.74,Lucas Rund,TN,1497716677000.0,22468329
234364278,Nashville,,1503094489000.0,36.12,-86.84,Maegan Hall,TN,1503094489000.0,22468329
215428911,Nashville,,1487564783000.0,36.17,-86.78,Marcus,TN,1492555096000.0,22468329
230552792,Nashville,,1498522637000.0,36.15,-86.81,Mario Cocco,TN,1498522637000.0,22468329
233759315,Nashville,,1502404144000.0,36.17,-86.78,Mark Daniel,TN,1502404144000.0,22468329
225391238,Fort Campbell,,1491819170000.0,36.65,-87.46,Mark Fatigato,KY,1491819170000.0,22468329
227089335,Nashville,,1494110285000.0,36.17,-86.78,Markus Lich,TN,1494110285000.0,22468329
234462720,Nashville,,1503210474000.0,36.21,-86.72,matt,TN,1503210474000.0,22468329
233455766,Nashville,,1502062695000.0,36.18,-86.74,Matt ,TN,1502062695000.0,22468329
230839591,Nashville,,1498878073000.0,36.11,-86.86,Matt Boyle,TN,1498878073000.0,22468329
234146158,Nashville,,1502854658000.0,36.17,-86.78,Matt Conley,TN,1502854658000.0,22468329
5900662,Nashville,"Nashville, TN",1489569388000.0,36.07,-86.78,Matt Kenigson,TN,1504272226000.0,22468329
229301028,Hermitage,,1496951841000.0,36.19,-86.6,Matt Sullivan,TN,1496951841000.0,22468329
225175771,Nashville,,1491502271000.0,36.07,-86.73,Matthew Alsup,TN,1491502271000.0,22468329
228614899,Manchester,,1496105979000.0,35.47,-86.11,Matthew B Powers,TN,1496105979000.0,22468329
222547301,Nashville,,1487802025000.0,36.17,-86.78,Matthew B. Long,TN,1489500521000.0,22468329
239132988,Mount Juliet,,1508283139000.0,36.21,-86.52,Matthew Howard,TN,1508703496000.0,22468329
230783464,Nashville,,1498807406000.0,36.14,-86.74,Meghann Bumbalough Shipman,TN,1498807406000.0,22468329
233978506,Hermitage,,1502660725000.0,36.19,-86.6,Mia Pa'u,TN,1502660725000.0,22468329
56097762,Lebanon,,1487679252000.0,36.21,-86.31,Michael,TN,1505169579000.0,22468329
200695272,Nashville,,1488646391000.0,36.08,-86.72,Michael,TN,1501292906000.0,22468329
231186159,Nashville,"Brooklyn, NY",1499304582000.0,36.17,-86.72,Michael Garcia,TN,1499304582000.0,22468329
232876964,Nashville,,1501363883000.0,36.17,-86.78,Michael Han,TN,1501363883000.0,22468329
226028895,Hermitage,,1492678297000.0,36.19,-86.6,Michael kat,TN,1492678297000.0,22468329
234733905,Nashville,,1503520325000.0,36.07,-86.73,Michael Locascio,TN,1507925653000.0,22468329
234234277,Nashville,,1502967592000.0,36.17,-86.78,Michael Mark,TN,1502967592000.0,22468329
214135279,Nashville,,1487695465000.0,36.16,-86.79,Michael Shapiro,TN,1487700531000.0,22468329
198128679,Nashville,,1487784100000.0,36.17,-86.72,michael tambornino,TN,1489983401000.0,22468329
221058442,Nashville,,1493224415000.0,36.14,-86.74,mike,TN,1493239915000.0,22468329
227248826,Clarksville,,1494331172000.0,36.53,-87.35,Mike Angelo,TN,1494331172000.0,22468329
183524041,Pleasant View,"Batavia, OH",1489006414000.0,36.38,-87.04,Mike Bower,TN,1489100321000.0,22468329
185666200,Nashville,,1487677731000.0,36.17,-86.72,Mike Brown,TN,1505816261000.0,22468329
230237578,Nashville,,1498133517000.0,36.16,-86.66,Mike Donahue,TN,1498133517000.0,22468329
229158831,Nashville,,1496774022000.0,36.14,-86.81,Mike Iavarone III,TN,1496774022000.0,22468329
238038098,Nashville,,1507069272000.0,36.19,-86.8,Mike Mineo,TN,1507069272000.0,22468329
209569974,Nashville,,1501431422000.0,36.08,-86.72,Mike Pearson,TN,1501431422000.0,22468329
228276344,Antioch,,1495652824000.0,36.04,-86.64,Mike Porter,TN,1495652824000.0,22468329
228327157,Nashville,,1495722931000.0,36.17,-86.78,MikeND2017,TN,1495722931000.0,22468329
235944027,Dickson,,1504853460000.0,36.08,-87.43,Mitchell Phy,TN,1504853460000.0,22468329
199460854,Nashville,,1500836824000.0,36.17,-86.78,Moet Ch,TN,1500836824000.0,22468329
233911212,Nashville,,1502578313000.0,36.17,-86.78,Mr. Mack,TN,1502578313000.0,22468329
238025114,Nashville,,1507057230000.0,36.17,-86.78,Nate Burrell,TN,1507057230000.0,22468329
229979437,Nashville,,1497832775000.0,36.15,-86.86,Nawaf Mulafikh,TN,1497832775000.0,22468329
203457314,Antioch,,1488753224000.0,36.17,-86.88,Nicholas,TN,1498236666000.0,22468329
183390527,Nashville,,1501197530000.0,36.16,-86.8,Nicholas Colella,TN,1501197530000.0,22468329
237744924,Nashville,,1506740605000.0,36.11,-86.78,Nicholas Farella,TN,1506740605000.0,22468329
236543112,Nashville,,1505496452000.0,36.16,-86.79,Nick,TN,1505496452000.0,22468329
3214423,Nashville,"Albany, NY",1492638133000.0,36.17,-86.78,Nick,TN,1493655108000.0,22468329
187273009,Nashville,Nashville,1491605461000.0,36.16,-86.78,Nick 'Legend Rival' Seawright,TN,1498864208000.0,22468329
235891300,Nashville,,1504800777000.0,36.08,-86.72,Nick Haddad,TN,1504800777000.0,22468329
231053231,Springfield,,1499141789000.0,36.52,-86.87,Nick McCants,TN,1502911393000.0,22468329
197998750,Fort Campbell,,1499972866000.0,36.65,-87.46,Nick Walters,KY,1499972866000.0,22468329
232107300,Brentwood,,1500407701000.0,36.0,-86.79,Nick Wilkerson,TN,1500407701000.0,22468329
236279994,Franklin,,1505202017000.0,35.93,-86.84,Nick.,TN,1505202017000.0,22468329
237680030,Nashville,,1506674618000.0,36.14,-86.8,Nirav Patel,TN,1506674618000.0,22468329
234168251,Franklin,,1502888517000.0,35.93,-86.81,Olivia Oetjens,TN,1502888517000.0,22468329
233445751,Nashville,,1502052744000.0,36.16,-86.79,Patrick M,TN,1502052744000.0,22468329
234409961,Murfreesboro,,1503152803000.0,35.82,-86.45,Patrick Malone,TN,1503152803000.0,22468329
184531258,Nashville,Knoxville,1503249552000.0,36.17,-86.78,Paul Paulus,TN,1508803877000.0,22468329
235438953,Antioch,,1504320510000.0,36.17,-86.88,Payge Berry,TN,1504320510000.0,22468329
205784208,Lebanon,,1504553809000.0,36.15,-86.32,Payton Hawkins,TN,1504553809000.0,22468329
226347211,Nashville,,1493100574000.0,36.13,-86.67,Phil Beasley,TN,1493100574000.0,22468329
226635416,Nashville,,1493493195000.0,36.06,-86.96,rafiq,TN,1493493195000.0,22468329
239058356,Nashville,,1508200476000.0,36.17,-86.72,Rahul Manay,TN,1508200476000.0,22468329
183324404,Nashville,,1508453324000.0,36.15,-86.86,Randall Pollard,TN,1508453324000.0,22468329
226752505,Nashville,,1493656000000.0,36.16,-86.77,Randy Gordon,TN,1493834627000.0,22468329
231480758,Nashville,,1499655959000.0,36.17,-86.78,Randy Green,TN,1499655959000.0,22468329
227934922,Murfreesboro,,1495247945000.0,35.82,-86.45,Randy Shaw,TN,1495247945000.0,22468329
6944960,Nashville,,1494345299000.0,36.15,-86.83,Ray,TN,1494445759000.0,22468329
233747337,Madison,,1502389651000.0,36.26,-86.71,Reginald Lewis,TN,1502389651000.0,22468329
105492502,Murfreesboro,,1487604607000.0,35.78,-86.33,Richard,TN,1507913796000.0,22468329
226502472,Nashville,,1493306841000.0,36.11,-86.67,Richard Beauchamp,TN,1493306841000.0,22468329
196940575,Smyrna,"Rockwood, TN",1494041399000.0,35.97,-86.51,Richard Montgomery,TN,1494041399000.0,22468329
140243342,Nashville,,1502221226000.0,36.14,-86.79,Rob Peek,TN,1502221226000.0,22468329
227254814,Nashville,,1494339571000.0,36.14,-86.74,Robert Dehmer,TN,1494339571000.0,22468329
232195588,Nashville,,1500509583000.0,36.11,-86.78,Robert James Abatteng,TN,1500509583000.0,22468329
237356890,Nashville,,1506314658000.0,36.07,-86.73,Robin Todd,TN,1506314658000.0,22468329
196871958,Nashville,,1487564783000.0,36.08,-86.72,Rocky James Rockwell,TN,1489367266000.0,22468329
212155589,Nashville,,1507083770000.0,36.15,-86.8,Roger Yang,TN,1507083770000.0,22468329
56231982,Nashville,Murfreesboro,1502123671000.0,36.16,-86.79,Ronak,TN,1502987299000.0,22468329
27465332,Nashville,Nashville,1508278849000.0,36.16,-86.79,Ruben Adery,TN,1508278849000.0,22468329
232399886,Franklin,,1500770317000.0,35.92,-86.89,Rusty Shackleford,TN,1500770317000.0,22468329
182678697,Nashville,,1496257519000.0,36.17,-86.78,Ryan,TN,1496257519000.0,22468329
9178731,Nashville,,1498188943000.0,36.13,-86.8,Ryan Koriya,TN,1503281731000.0,22468329
235715024,Spring Hill,,1504623902000.0,35.76,-86.88,Ryan McMahan,TN,1504623902000.0,22468329
233603843,Antioch,,1502231449000.0,36.04,-86.64,Ryan Sanders,TN,1502231449000.0,22468329
230833570,Hermitage,,1498870719000.0,36.19,-86.6,Ryan Winn,TN,1498870719000.0,22468329
226241618,Clarksville,,1492966918000.0,36.53,-87.35,S.O'Donnell,TN,1492966918000.0,22468329
221128997,Nashville,,1499024289000.0,36.17,-86.78,Sandeep Reddy,TN,1502951370000.0,22468329
233442860,Nashville,,1502120513000.0,36.18,-86.74,Schuyler Matthew Winans,TN,1502120513000.0,22468329
234251950,Nashville,,1502984849000.0,36.15,-86.86,Scott Anderson,TN,1502984849000.0,22468329
199603769,Ashland City,Muncie,1498906938000.0,36.28,-87.07,Scott G,TN,1498906938000.0,22468329
237966825,Nashville,,1506994082000.0,36.07,-86.73,Scott Hartsell,TN,1506994082000.0,22468329
82087612,Nashville,Donelson,1487564783000.0,36.17,-86.72,Scott Wolfe,TN,1487612761000.0,22468329
223354420,Spring Hill,,1488974329000.0,35.76,-86.88,Sean Casey Nash,TN,1490979545000.0,22468329
238891791,Murfreesboro,,1508011857000.0,35.87,-86.44,seth brown,TN,1508011857000.0,22468329
231641484,Nashville,,1499839312000.0,36.15,-86.81,Shubho,TN,1499839312000.0,22468329
236030601,Nashville,,1504948867000.0,36.17,-86.79,Spencer Kappelman,TN,1504948867000.0,22468329
231456508,Nashville,,1499630598000.0,36.07,-86.73,Squbbie,TN,1503271978000.0,22468329
230886298,Nashville,,1498937008000.0,36.15,-86.81,Stefan Zavalin,TN,1498937008000.0,22468329
236436486,Brentwood,,1505836901000.0,36.0,-86.79,Stephen Brooks,TN,1506266067000.0,22468329
229735280,Mount Juliet,,1497494417000.0,36.21,-86.52,Stephen Broyles,TN,1497494417000.0,22468329
237095934,Nashville,,1506017274000.0,36.21,-86.72,Stephen Harris,TN,1506017274000.0,22468329
227551023,Murfreesboro,,1494743143000.0,35.87,-86.34,Stephen Marx,TN,1506559133000.0,22468329
225407460,Clarksville,,1491841420000.0,36.56,-87.41,Stephen Thomas,TN,1491841420000.0,22468329
234154899,Franklin,,1508399259000.0,35.92,-86.89,Tanya Parsley,TN,1508399259000.0,22468329
214911035,Clarksville,,1507393576000.0,36.49,-87.23,Taylor Dunlap,TN,1507393576000.0,22468329
126066112,Nashville,Nashville,1487643084000.0,36.17,-86.78,Taylor Michael Matson,TN,1488596911000.0,22468329
226209587,Nashville,,1492918809000.0,36.17,-86.78,Terry Barlow,TN,1503419862000.0,22468329
227806705,Franklin,,1495070840000.0,35.99,-86.9,Theodore Brittan,TN,1495070840000.0,22468329
228046888,Nashville,,1495397223000.0,36.11,-86.86,Tim Tierney,TN,1495397223000.0,22468329
228048170,Franklin,,1495398604000.0,35.93,-86.81,Timothy Jaikissoon,TN,1495398604000.0,22468329
228727740,Murfreesboro,,1496249506000.0,35.87,-86.44,Tito Espinoza,TN,1496249506000.0,22468329
235768375,Nashville,,1504671416000.0,36.17,-86.78,tnbuckeye09,TN,1504671416000.0,22468329
239179769,Nashville,,1508342436000.0,36.21,-86.72,Todd Schlamp,TN,1508342436000.0,22468329
238751132,Lebanon,,1507843472000.0,36.21,-86.31,Tom McCauley,TN,1507843472000.0,22468329
239487085,Nashville,,1508697669000.0,36.08,-86.72,Tom Wiser,TN,1508697669000.0,22468329
220954403,Mount Juliet,,1488295114000.0,36.22,-86.52,Tommy Crowe,TN,1502320440000.0,22468329
235572033,Nashville,,1504474312000.0,36.16,-86.78,Toney Greer,TN,1504474312000.0,22468329
226202054,Nashville,,1505827152000.0,36.15,-86.79,Travis Swartz,TN,1505827152000.0,22468329
233982896,Nashville,,1502665310000.0,36.17,-86.78,Travis Swisher,TN,1502665310000.0,22468329
232466756,Nashville,,1500855357000.0,36.11,-86.78,Travis Welton,TN,1500855357000.0,22468329
220933065,Nashville,,1487725035000.0,36.17,-86.78,Trent Wade,TN,1497677561000.0,22468329
216635331,Madison,,1487564783000.0,36.26,-86.71,Trevor Lauri ,TN,1487562227000.0,22468329
212132073,Nashville,,1494568091000.0,36.18,-86.74,Trevor Miller,TN,1494568091000.0,22468329
42884882,Nashville,,1505220939000.0,36.17,-86.78,Tristan,TN,1506516351000.0,22468329
225846488,White House,,1492446064000.0,36.48,-86.69,Troy ,TN,1492446064000.0,22468329
236365985,Nashville,,1505277714000.0,36.17,-86.78,Tyler,TN,1506116524000.0,22468329
237324193,Madison,,1506280321000.0,36.26,-86.71,Tyler 'Cotton' Johns,TN,1506280321000.0,22468329
231529044,Hermitage,,1499714329000.0,36.19,-86.6,Tyler Gerondale,TN,1499714329000.0,22468329
233469471,Nashville,,1502077634000.0,36.13,-86.8,Tyler Pate,TN,1502077634000.0,22468329
232642581,Antioch,,1501068608000.0,36.04,-86.64,Vanessa Ray,TN,1501068608000.0,22468329
233280736,Nashville,,1501865465000.0,36.17,-86.78,Walt Bell,TN,1501865465000.0,22468329
212239029,Nashville,,1487601724000.0,36.17,-86.78,Wes Sparks,TN,1492608944000.0,22468329
233292764,Nashville,,1501878079000.0,36.17,-86.72,Weston Lazenby,TN,1501965604000.0,22468329
206748135,Nashville,,1490834512000.0,36.17,-86.78,Whit Joseph,TN,1492613130000.0,22468329
187929215,Nashville,Detroit,1487757209000.0,36.17,-86.78,Will,TN,1503275705000.0,22468329
230908403,Nashville,,1498963144000.0,36.22,-86.86,Will Blanton,TN,1498963144000.0,22468329
232689353,Nashville,,1501119764000.0,36.07,-86.78,William Blank,TN,1501119764000.0,22468329
220698601,Nashville,,1488132239000.0,36.17,-86.78,William Dyer,TN,1488131287000.0,22468329
195783853,Nashville,,1496924128000.0,36.17,-86.78,William Johnson,TN,1503171791000.0,22468329
238669220,Nashville,,1507750110000.0,36.07,-86.78,William Sheriff,TN,1507750110000.0,22468329
231374462,Antioch,,1499535464000.0,36.04,-86.64,Woody Havener,TN,1499535464000.0,22468329
239373225,Nashville,,1508561029000.0,36.17,-86.78,Xavier Purdy,TN,1508561029000.0,22468329
229924683,Carthage,,1497753430000.0,36.26,-85.99,Yassine ,TN,1497753430000.0,22468329
233267041,Nashville,,1502336959000.0,36.08,-86.72,Zach Reister,TN,1502336959000.0,22468329
236146602,Nashville,,1505072140000.0,36.16,-86.79,Zachary Gray,TN,1505072140000.0,22468329
237670910,Nashville,,1506653913000.0,36.17,-86.78,Zachery Perritt,TN,1506653913000.0,22468329
11149295,Nashville,Delphos,1488403259000.0,36.17,-86.72,Zack Benner,TN,1490209386000.0,22468329
