id,city,hometown,joined,lat,lon,name,state,visited,group_id
217030990,Nashville,,1493921019000.0,36.15,-86.86,Abdulaziz Buaishah,TN,1493921019000.0,23573879
229921525,Nashville,,1497749010000.0,36.17,-86.72,Abhishek Jaddu,TN,1500555151000.0,23573879
229729137,Nashville,,1497486929000.0,36.17,-86.78,Abigael Pence,TN,1497486929000.0,23573879
231084443,Nashville,,1499183749000.0,36.15,-86.86,Adam Intihar,TN,1499183749000.0,23573879
237980974,Nashville,,1507007969000.0,36.17,-86.77,Aimee Christine Donahue,TN,1507007969000.0,23573879
28048952,Indianapolis,Nashville,1494479964000.0,39.82,-86.17,Alan,IN,1499396141000.0,23573879
232035166,Nashville,,1500325292000.0,36.17,-86.78,Alejandro,TN,1500325292000.0,23573879
229577022,Nashville,,1497297199000.0,36.16,-86.79,Alena Colborn,TN,1497297199000.0,23573879
239133000,Nashville,,1508283338000.0,36.15,-86.86,Alex Mayer,TN,1508283338000.0,23573879
232964564,Nashville,,1501474367000.0,36.08,-86.72,Alina M Torres,TN,1501474367000.0,23573879
239285577,Clarksville,,1508459725000.0,36.56,-87.41,Alyssa Dixon,TN,1508459725000.0,23573879
229235285,Nashville,,1498275093000.0,36.08,-86.72,Amanda Hamilton,TN,1498275093000.0,23573879
236493159,Hendersonville,,1505400393000.0,36.32,-86.61,Amanda Lynch,TN,1505400393000.0,23573879
232741884,Nashville,,1501188739000.0,36.17,-86.78,Amy A B.,TN,1501188739000.0,23573879
226356932,Hendersonville,,1493906934000.0,36.32,-86.61,Amy Duffer,TN,1493906934000.0,23573879
231042950,Nashville,,1499129350000.0,36.17,-86.78,Amy Ketron,TN,1499129350000.0,23573879
231080742,Nashville,,1499180324000.0,36.17,-86.78,Amy Meade Mayfield,TN,1499180324000.0,23573879
231249359,Franklin,,1499381553000.0,35.93,-86.81,Amy Saffell,TN,1499381553000.0,23573879
187254868,Nashville,"Chattanooga, TN",1507652173000.0,36.17,-86.78,Andrew Clement,TN,1507652173000.0,23573879
239353936,Nashville,,1508538550000.0,36.07,-86.73,Andrew Ezekiel Troyer,TN,1508538550000.0,23573879
231986078,Murfreesboro,,1500259903000.0,35.87,-86.34,Anessa Smith Anderton,TN,1500259903000.0,23573879
239496987,Nashville,,1508706289000.0,36.11,-86.78,Anh Pham,TN,1508706289000.0,23573879
231616244,Clarksville,,1499810343000.0,36.56,-87.41,Anna Katherine,TN,1499810343000.0,23573879
204669023,Nashville,Buford,1493999580000.0,36.1,-86.66,Antonio,TN,1494348692000.0,23573879
192501596,Murfreesboro,,1507873610000.0,35.82,-86.45,April Faircloth Collier,TN,1507873610000.0,23573879
235296894,Gallatin,,1504156341000.0,36.39,-86.45,Ariel Wright,TN,1504156341000.0,23573879
189762088,Paris,,1496260649000.0,48.86,2.34,Ashley ,,1496521910000.0,23573879
226912477,Brentwood,,1493904337000.0,36.0,-86.79,August Bremer,TN,1499483827000.0,23573879
236804268,Nashville,,1505721256000.0,36.17,-86.78,Aurora Phommalysack,TN,1505768412000.0,23573879
228022854,Nashville,,1495368628000.0,36.06,-86.96,Beatrice Arriviste,TN,1495368628000.0,23573879
232804005,Nashville,,1501270115000.0,36.11,-86.86,Becky Fleckenstein,TN,1501270115000.0,23573879
233341800,Clarksville,,1502066359000.0,36.53,-87.35,Benjamin Thill,TN,1502066359000.0,23573879
230803091,Fort Campbell,,1498836126000.0,36.65,-87.46,Beth Rachlin,KY,1498836126000.0,23573879
234580821,Nashville,,1503347771000.0,36.06,-86.96,Bethany Rose,TN,1503347771000.0,23573879
235973153,Nashville,,1504886728000.0,36.08,-86.72,Betty B,TN,1504886728000.0,23573879
137623982,College Grove,College Grove ,1493930488000.0,35.77,-86.71,Billy V,TN,1507480233000.0,23573879
234324964,Nashville,,1503067453000.0,36.17,-86.72,Bingxu Ren,TN,1503067453000.0,23573879
231921088,Nashville,,1500178116000.0,36.15,-86.8,Blake W.,TN,1500212445000.0,23573879
239140834,Madison,,1508292796000.0,36.26,-86.71,Blanca,TN,1508292796000.0,23573879
205858578,Portland,,1493995867000.0,36.57,-86.49,Bob,TN,1493995867000.0,23573879
237138438,Smyrna,,1506063946000.0,35.97,-86.51,Brandon Tomlin,TN,1506063946000.0,23573879
235043620,Franklin,,1503882865000.0,35.92,-86.89,Brenda,TN,1503882865000.0,23573879
237211985,Nashville,,1506150615000.0,36.17,-86.78,Brette Ruff,TN,1506150615000.0,23573879
159442722,Nashville,,1494914441000.0,36.17,-86.77,Brian F,TN,1494914441000.0,23573879
231849259,Nashville,,1500087432000.0,36.1,-86.66,Brian Niebel,TN,1500087432000.0,23573879
231991527,Antioch,,1500267250000.0,36.04,-86.64,Brian Stanley,TN,1500267250000.0,23573879
228695611,Dickson,,1497568484000.0,36.08,-87.38,Brianna Miller,TN,1499038331000.0,23573879
239337839,Goodlettsville,,1508616456000.0,36.32,-86.72,Bridget McCloud,TN,1508616456000.0,23573879
151276872,Clarksville,,1500751515000.0,36.53,-87.35,Britney Gedeon,TN,1500751515000.0,23573879
230220310,Nashville,,1498104043000.0,36.08,-86.72,Britt Todd,TN,1508392729000.0,23573879
237646339,Nashville,,1506627859000.0,36.17,-86.78,Britton Strickland,TN,1506627859000.0,23573879
234109439,Nashville,,1502818151000.0,36.07,-86.73,Brooke Ellis,TN,1502818151000.0,23573879
229824484,Nashville,,1497622218000.0,36.17,-86.78,Caitlin Carlson,TN,1497622218000.0,23573879
230493587,Nashville,,1498451178000.0,36.22,-86.77,Caleb F,TN,1498451178000.0,23573879
233534591,Nashville,,1502152611000.0,36.08,-86.72,Caleb Mckenney,TN,1507155365000.0,23573879
481401,Nashville,,1493913035000.0,36.17,-86.78,Carey Rogers,TN,1508516248000.0,23573879
189531331,Murfreesboro,,1505066945000.0,35.85,-86.36,Carlos Polk,TN,1505066945000.0,23573879
222979606,Nashville,,1502576426000.0,36.08,-86.72,Carly Marmen,TN,1502576426000.0,23573879
198523782,Nashville,,1499611422000.0,36.17,-86.78,Caroline,TN,1499611422000.0,23573879
233318819,Nashville,,1501907757000.0,36.11,-86.78,Caroline Mayhew,TN,1501907757000.0,23573879
151944332,Nashville,,1498801712000.0,36.17,-86.78,Cassie,TN,1498801712000.0,23573879
236062321,Nashville,,1504981642000.0,36.15,-86.79,Catherine McDonald,TN,1504981642000.0,23573879
226698676,Nashville,,1494001874000.0,36.1,-86.66,Catherine Rusch,TN,1494348107000.0,23573879
207471782,Hendersonville,,1493907495000.0,36.32,-86.61,catra ,TN,1501178060000.0,23573879
229973635,Madison,,1497824658000.0,36.26,-86.71,Cesar E. Herrera,TN,1497824658000.0,23573879
238263852,Nashville,,1507314298000.0,36.16,-86.79,Chad,TN,1507774059000.0,23573879
232662148,Nashville,,1501092355000.0,36.11,-86.78,Chaneice Jackson,TN,1501092355000.0,23573879
228307254,Springfield,,1495691469000.0,36.52,-86.87,Chase Ditmore,TN,1500381474000.0,23573879
236803469,Springfield,,1505720031000.0,36.52,-86.87,Chester,TN,1505720031000.0,23573879
229668972,La Vergne,,1497406636000.0,36.0,-86.57,Cheyenne Hobgood,TN,1497406636000.0,23573879
236338727,Nashville,,1505252647000.0,36.18,-86.74,Chris ,TN,1505252647000.0,23573879
55222382,Clarksville,"Lebanon, TN",1507693493000.0,36.63,-87.32,Chris Bates,TN,1507693493000.0,23573879
213203760,Nashville,,1494526239000.0,36.17,-86.79,Chris Lindsay,TN,1494526239000.0,23573879
232191396,Nashville,,1500506012000.0,36.22,-86.86,Chris Michaels,TN,1500506012000.0,23573879
215633771,Monument,,1508553836000.0,39.1,-104.85,Chris Wilson,CO,1508553836000.0,23573879
232121093,Nashville,Nashville,1500422648000.0,36.13,-86.8,Christine Joy,TN,1500422648000.0,23573879
113623962,Nashville,,1494002136000.0,36.14,-86.74,Christy M.,TN,1501641916000.0,23573879
34633322,Smyrna,,1504032505000.0,35.97,-86.51,Chuck Guy,TN,1508446212000.0,23573879
102311062,Nashville,,1494258173000.0,36.17,-86.72,Cindy Carrell,TN,1494258173000.0,23573879
9741025,Ashland City,,1493987986000.0,36.28,-87.07,Cindy Martin,TN,1493987986000.0,23573879
227011445,Nashville,,1494002622000.0,36.17,-86.78,cl4dogs,TN,1508708337000.0,23573879
236343935,Franklin,,1505255467000.0,35.92,-86.87,Claudia Keeys,TN,1505255467000.0,23573879
237351764,Nashville,,1506310769000.0,36.15,-86.79,Clay H,TN,1507154418000.0,23573879
232584990,Nolensville,,1500998910000.0,35.94,-86.67,Codi-Rick Kyle,TN,1500998910000.0,23573879
239589903,Nashville,,1508803501000.0,36.13,-86.8,Cody Karr,TN,1508803501000.0,23573879
238698883,Murfreesboro,,1507781473000.0,35.82,-86.45,Conni Vong,TN,1507781473000.0,23573879
181737072,Smyrna,,1494167598000.0,35.97,-86.51,Corinne Morgan,TN,1498957196000.0,23573879
228194872,Franklin,,1495553546000.0,35.93,-86.81,Crystal Howe,TN,1495553546000.0,23573879
237261334,Murfreesboro,,1506206945000.0,35.87,-86.34,Dan,TN,1506206945000.0,23573879
214288417,Toronto,,1506347027000.0,43.74,-79.36,Daniel Bishara,ON,1508003101000.0,23573879
234934472,Franklin,,1503756367000.0,35.99,-86.9,Daniel Bradley,TN,1503756367000.0,23573879
11313416,Nashville,Nashville,1493901251000.0,36.08,-86.72,Danny,TN,1493901251000.0,23573879
225050356,Nashville,,1493993499000.0,36.16,-86.79,Darius ,TN,1508148404000.0,23573879
218876515,Nashville,,1499808977000.0,36.17,-86.78,Daryl,TN,1499808977000.0,23573879
51102692,Murfreesboro,TN,1501684850000.0,35.82,-86.45,Dave,TN,1501684850000.0,23573879
200689717,Springfield,,1500060069000.0,36.48,-86.88,Dave Coates,TN,1507155424000.0,23573879
231192788,Nashville,,1499312232000.0,36.14,-86.81,David Allan Edwards,TN,1499742327000.0,23573879
229102995,Madison,,1496704175000.0,36.26,-86.71,David Jay,TN,1496704175000.0,23573879
222962875,Franklin,,1494272213000.0,35.93,-86.81,David Parks,TN,1494272213000.0,23573879
14370663,Nashville,,1493902960000.0,36.11,-86.78,Davide V,TN,1494613987000.0,23573879
232262550,Nashville,,1501591956000.0,36.17,-86.78,dbaun14,TN,1501591956000.0,23573879
232456201,Greenbrier,,1500843498000.0,36.43,-86.8,Deanna Shoemake ,TN,1500843498000.0,23573879
234367391,Nashville,,1503099194000.0,36.07,-86.73,Debi Avalon,TN,1503099194000.0,23573879
197628825,Spring Hill,"Spring Hill, TN",1496344062000.0,35.76,-86.88,Dee,TN,1496344062000.0,23573879
228008070,La Vergne,,1495342093000.0,36.01,-86.57,Demond Thompson,TN,1495342093000.0,23573879
237517482,Nashville,,1506483893000.0,36.17,-86.78,Dena,TN,1506483893000.0,23573879
191707748,Clarksville,Ewa Beach,1505950592000.0,36.56,-87.41,Denise Medeiros,TN,1508263490000.0,23573879
227271982,Nashville,,1494358761000.0,36.17,-86.72,Denise Weiland Robertson,TN,1495248873000.0,23573879
232825253,Nashville,,1501294489000.0,36.21,-86.72,Derek Britton,TN,1501294489000.0,23573879
227414637,Columbia,,1494546956000.0,35.62,-87.03,Deva Andrews- Warren,TN,1498855290000.0,23573879
45016312,Smyrna,,1493906730000.0,35.97,-86.51,Devin,TN,1497902353000.0,23573879
237515782,Nashville,,1506886475000.0,36.07,-86.78,Dhara,TN,1506886475000.0,23573879
186701089,Fairview,,1495375599000.0,36.0,-87.09,Dillon Stanco,TN,1495375599000.0,23573879
222981893,Goodlettsville,,1495203422000.0,36.32,-86.72,Dominique SALANDRE,TN,1508547068000.0,23573879
7822773,Nashville,"Little Rock, AR",1493939923000.0,36.17,-86.78,Doug,TN,1494543654000.0,23573879
217952018,Nashville,,1494379851000.0,36.17,-86.78,Doug Rhodes,TN,1500452613000.0,23573879
29111062,Clarksville,,1498697635000.0,36.53,-87.35,Douglas Daech,TN,1498697635000.0,23573879
230638397,La Vergne,,1498622318000.0,36.01,-86.57,Drake Knight,TN,1498622318000.0,23573879
219480410,Hollywood,,1497593960000.0,25.99,-80.21,Dreamer 305,FL,1501437936000.0,23573879
233867904,Franklin,,1505232192000.0,35.92,-86.89,Drew McNairy,TN,1505232192000.0,23573879
231288345,Nashville,,1499435120000.0,36.18,-86.81,Dustin Hines,TN,1499435120000.0,23573879
234485312,Clarksville,,1503239915000.0,36.56,-87.41,Ed B,TN,1503239915000.0,23573879
234864340,Nashville,,1503670349000.0,36.17,-86.78,Ed Carr,TN,1503670349000.0,23573879
199456791,Mount Juliet,Mount Juliet,1494108497000.0,36.22,-86.52,Ed Stinson,TN,1507320700000.0,23573879
237023682,Madison,,1505936235000.0,36.26,-86.71,Emanuel Escalante,TN,1505936235000.0,23573879
231052896,Dickson,,1499141280000.0,36.08,-87.43,Emily,TN,1499141280000.0,23573879
11783375,Hendersonville,Gallatin,1493905629000.0,36.32,-86.61,emily roberts,TN,1495457196000.0,23573879
238439738,Shelbyville,,1507504601000.0,35.48,-86.47,Eric Harrell,TN,1507504601000.0,23573879
235428814,Nashville,,1507729539000.0,36.17,-86.78,Eric Massey,TN,1508608245000.0,23573879
233418351,Scottsville,,1502027456000.0,36.78,-86.19,Eric West,KY,1502027456000.0,23573879
63823852,Nashville,,1494037381000.0,36.08,-86.72,Erica Clanton,TN,1494820454000.0,23573879
229260277,Nashville,,1496896154000.0,36.08,-86.72,Erin Fitzgerald,TN,1496896154000.0,23573879
10324709,Nashville,"Huntington, NY",1502164614000.0,36.08,-86.72,Erin O'Rourke,TN,1502164614000.0,23573879
237273448,Spring Hill,,1506219601000.0,35.76,-86.88,Erin Willitts,TN,1506219601000.0,23573879
207059821,Nashville,,1496182385000.0,36.17,-86.78,Estela,TN,1496182385000.0,23573879
231849870,Nashville,,1500087435000.0,36.1,-86.66,Esther Niebel,TN,1500087435000.0,23573879
230764140,Nashville,,1498778913000.0,36.17,-86.78,Evan Murphy,TN,1499108538000.0,23573879
228092489,Nashville,,1495433508000.0,36.17,-86.78,Eve Sundeen,TN,1495433508000.0,23573879
233135381,Nashville,,1501691127000.0,36.07,-86.78,Fozia Ahmed,TN,1501691127000.0,23573879
36527312,Nashville,,1493905723000.0,36.13,-86.8,Fred Bergman,TN,1493905723000.0,23573879
232595107,Nashville,,1501008876000.0,36.11,-86.78,Freddie,TN,1507770491000.0,23573879
235589875,Nashville,,1504494498000.0,36.17,-86.77,Gabriel,TN,1504494498000.0,23573879
185169224,Nashville,,1493908293000.0,36.08,-86.72,Gail,TN,1496632904000.0,23573879
196543277,Madison,,1500581002000.0,36.26,-86.71,gary W. Luster,TN,1500581002000.0,23573879
238880832,Antioch,,1508000882000.0,36.04,-86.64,George G,TN,1508000882000.0,23573879
232866982,Smyrna,,1501352847000.0,35.97,-86.51,Georgianna Gaither,TN,1501352847000.0,23573879
236489204,Clarksville,,1505396949000.0,36.53,-87.35,Giselle Pokorny,TN,1505396949000.0,23573879
228068237,Mount Juliet,Albuquerque ,1495422674000.0,36.21,-86.52,Grace Brown,TN,1500270102000.0,23573879
213868661,Nashville,"Nashville, TN",1495325932000.0,36.11,-86.78,Greg,TN,1504563042000.0,23573879
220581376,Nashville,,1503268716000.0,36.06,-86.96,Greg,TN,1503268716000.0,23573879
232339946,Smyrna,,1500693109000.0,35.97,-86.51,Greg D,TN,1507219921000.0,23573879
236935136,Brentwood,,1505840026000.0,36.0,-86.79,Gregg Hooker,TN,1505840026000.0,23573879
190237432,Nashville,Nashville,1500436162000.0,36.06,-86.96,Guy Murphree,TN,1508332172000.0,23573879
234145627,Mount Juliet,,1502854074000.0,36.21,-86.52,Haley Bennett,TN,1502854074000.0,23573879
228355034,Nashville,,1497830985000.0,36.08,-86.72,Harikumar Challa,TN,1497830985000.0,23573879
233872016,Thompsons Station,,1502534214000.0,35.8,-86.9,Hayley,TN,1502534214000.0,23573879
222737109,Nashville,,1503096026000.0,36.14,-86.79,Hillary,TN,1506057044000.0,23573879
13037304,Nashville,"Lupton, MI",1494035200000.0,36.13,-86.8,Holly,TN,1499202556000.0,23573879
237778105,Franklin,,1506786048000.0,35.92,-86.89,Ida,TN,1506786048000.0,23573879
128695822,Franklin,,1504555063000.0,35.92,-86.89,Igor Mokhovyk,TN,1507153965000.0,23573879
230465992,Nashville,,1498419781000.0,36.15,-86.8,Infiniti,TN,1498419781000.0,23573879
237100490,Nashville,,1506021702000.0,36.1,-86.66,Isabel Johnson-Bann,TN,1506021702000.0,23573879
14017051,Murfreesboro,Murfreesboro,1494031802000.0,35.82,-86.45,J. Graves,TN,1494031802000.0,23573879
7915902,Nashville,Nashville,1501231935000.0,36.22,-86.77,Jacque Lewis,TN,1501231935000.0,23573879
229025056,Goodlettsville,,1496615342000.0,36.32,-86.72,Jacquline C,TN,1496615342000.0,23573879
235708140,Nashville,,1504618026000.0,36.08,-86.72,Jadi Rae Curtis,TN,1504618026000.0,23573879
235733726,Nashville,,1504639505000.0,36.19,-86.8,James Beacher,TN,1507153966000.0,23573879
195156689,Hermitage,Nowhere in these parts,1493900171000.0,36.19,-86.6,Jamie Matthews,TN,1508077686000.0,23573879
209101344,Murfreesboro,,1494186256000.0,35.78,-86.33,Jan,TN,1494186256000.0,23573879
223024938,Nashville,,1493985720000.0,36.17,-86.78,Jan Iyengar,TN,1496506366000.0,23573879
238193981,Hendersonville,,1507235997000.0,36.32,-86.61,Jarrett Jarvis,TN,1508623047000.0,23573879
78772892,Nashville,,1493900093000.0,36.08,-86.72,Jason,TN,1499524316000.0,23573879
218111530,Brentwood,,1495162247000.0,36.0,-86.79,Jaspreet Nagra,TN,1495162247000.0,23573879
202084030,Smyrna,Smyrna,1506685953000.0,35.97,-86.51,Jay,TN,1507154086000.0,23573879
178917532,Clarksville,Clarksville,1505306489000.0,36.6,-87.31,Jaylen Baker,TN,1505306489000.0,23573879
80239212,Murfreesboro,,1494008388000.0,35.78,-86.33,Jeff Young,TN,1494008388000.0,23573879
196315467,La Vergne,,1493841775000.0,36.01,-86.57,Jefferson Roberts,TN,1508708302000.0,23573879
83833622,Nashville,,1493900099000.0,36.08,-86.72,Jennifer R.,TN,1500821325000.0,23573879
230483516,Murfreesboro,,1498439230000.0,35.86,-86.37,Jeremy,TN,1498439230000.0,23573879
213333199,Hendersonville,,1493904142000.0,36.32,-86.61,Jeremy Teran,TN,1493904142000.0,23573879
44371442,Nashville,,1500948706000.0,36.24,-86.73,Jerrett Franklin,TN,1500948706000.0,23573879
3130713,Murfreesboro,Snellville,1497202027000.0,35.85,-86.42,Jessica,TN,1497202027000.0,23573879
238307094,Springfield,,1507357292000.0,36.52,-86.87,Jessica Whitman,TN,1507357292000.0,23573879
232617227,Columbia,,1501030979000.0,35.62,-87.03,Jessica Wilson,TN,1501030979000.0,23573879
232516840,Mount Juliet,,1500918684000.0,36.21,-86.52,Jeyadevi Bathejanardhanan,TN,1500918684000.0,23573879
224472697,Columbia,,1501409159000.0,35.6,-87.03,Jhon Doe,TN,1501409159000.0,23573879
230014838,Nashville,,1497885212000.0,36.17,-86.78,Jill M,TN,1497885212000.0,23573879
183513239,Brentwood,,1493901481000.0,36.0,-86.79,Jill R.,TN,1499483120000.0,23573879
106459412,Berkeley,,1496447206000.0,37.88,-122.26,Jill Sanders,CA,1496539924000.0,23573879
3539610,Smyrna,"Bartow, Florida",1493929980000.0,35.97,-86.51,Jim Bradford,TN,1498835787000.0,23573879
14246638,Gallatin,,1493936684000.0,36.39,-86.45,Jim Daughtry,TN,1499318360000.0,23573879
227994368,Nashville,,1495323658000.0,36.17,-86.72,Joe Jones,TN,1500831062000.0,23573879
20686341,Mount Juliet,,1494264680000.0,36.16,-86.47,John Davis,TN,1508500451000.0,23573879
209874571,Nashville,,1494207177000.0,36.17,-86.78,John Fuller,TN,1499412508000.0,23573879
198709566,Murfreesboro,,1494766280000.0,35.78,-86.33,John Pernestti,TN,1508693391000.0,23573879
50678432,Nashville,Florence,1500525384000.0,36.17,-86.78,Johnny Benton,TN,1500525384000.0,23573879
229503683,Nashville,,1497209388000.0,36.16,-86.79,Jonah Sain,TN,1499048246000.0,23573879
237053120,Clarksville,,1505966658000.0,36.56,-87.35,Jonathan Basham,TN,1505966658000.0,23573879
228113575,Nashville,,1495464077000.0,36.22,-86.74,Joseph Daniel Northcutt,TN,1495464077000.0,23573879
234676455,Nashville,,1503454355000.0,36.17,-86.78,Josh Gull,TN,1503454355000.0,23573879
233867396,Murfreesboro,,1502526880000.0,35.85,-86.36,Josh Ivey,TN,1502526880000.0,23573879
229975060,Clarksville,,1500414641000.0,36.56,-87.41,Joshua Geer,TN,1502337316000.0,23573879
9713320,Nashville,Nashville,1493913578000.0,36.21,-86.72,Julie,TN,1493943973000.0,23573879
229767728,Franklin,,1497544225000.0,35.92,-86.89,Julie Pinkerton,TN,1498094233000.0,23573879
233137572,Nashville,,1501691745000.0,36.16,-86.78,Julien,TN,1501691745000.0,23573879
177000932,Hermitage,,1496159971000.0,36.2,-86.61,JW,TN,1496700626000.0,23573879
229457228,Nashville,,1497152479000.0,36.17,-86.79,Kaitlin Kemmerly,TN,1500522562000.0,23573879
232479194,Nashville,,1500870169000.0,36.17,-86.78,Kara Mercer,TN,1500870169000.0,23573879
233024665,Oak Grove,,1501548157000.0,36.68,-87.45,Karica Zeeb,KY,1501605377000.0,23573879
227006595,Nashville,,1494001617000.0,36.17,-86.78,Kassidy McElheney,TN,1494001617000.0,23573879
2807913,Franklin,"Tulsa, OK",1494299079000.0,35.93,-86.81,Katelin C.,TN,1499279208000.0,23573879
213071115,Nashville,,1493957418000.0,36.17,-86.78,Kathe Losapio Oppenheimer,TN,1494283297000.0,23573879
232860787,Franklin,,1501345697000.0,35.92,-86.89,Katherine Hard,TN,1501345697000.0,23573879
232449210,Nashville,,1500836106000.0,36.07,-86.73,Katherine Walsh,TN,1500836106000.0,23573879
233623910,Murfreesboro,,1502249276000.0,35.87,-86.34,Kathy ,TN,1502249276000.0,23573879
614090,Hermitage,Hermitage,1495124782000.0,36.19,-86.6,Kathy,TN,1508517212000.0,23573879
13962628,Smyrna,albuquerque,1502322607000.0,35.97,-86.51,Kathy P.,TN,1502468933000.0,23573879
203068761,Nashville,,1496286166000.0,36.07,-86.8,Kathy Tenison Trawick,TN,1496510436000.0,23573879
224687362,Nolensville,,1493996422000.0,35.94,-86.67,Katie B,TN,1495414643000.0,23573879
233248636,Spring Hill,,1501823864000.0,35.76,-86.88,Katie Herrel,TN,1501823864000.0,23573879
238307807,Nashville,,1507360410000.0,36.19,-86.8,Kei Johnson,TN,1507360410000.0,23573879
228702513,Portland,,1496214944000.0,36.57,-86.49,Kellie Brianna,TN,1496214944000.0,23573879
226696415,Franklin,,1493988362000.0,35.92,-86.89,Kelly Clement Spivey,TN,1494093039000.0,23573879
236305070,Madison,,1505226482000.0,36.26,-86.71,Kelly Kerby,TN,1505226482000.0,23573879
239514625,Gallatin,,1508723542000.0,36.39,-86.45,Ken Henderson,TN,1508723542000.0,23573879
229194242,Pleasant View,,1496813342000.0,36.38,-87.04,Kendall Hitchcox,TN,1496813342000.0,23573879
227480320,Nashville,,1494642463000.0,36.17,-86.78,Kenneth Drew,TN,1494642463000.0,23573879
228222877,Antioch,,1495583887000.0,36.04,-86.64,Kerron Keith,TN,1495583887000.0,23573879
232388675,Nashville,,1500757549000.0,36.17,-86.78,Kevin Glatt,TN,1500757549000.0,23573879
35234632,Nashville,"Detroit, MI",1493998197000.0,36.15,-86.86,Kim Wallace Thompson,TN,1507638496000.0,23573879
184815878,Nashville,,1493924948000.0,36.17,-86.78,Kimber Lanell,TN,1495317018000.0,23573879
227802971,Clarksville,,1495065507000.0,36.56,-87.41,Kimberly,TN,1495065507000.0,23573879
229939928,Nashville,,1497781727000.0,36.17,-86.78,Kris Sanchez,TN,1497781727000.0,23573879
229665778,Columbia,,1497408174000.0,35.62,-87.03,Krista Nice,TN,1497408174000.0,23573879
233144895,Hermitage,,1501698835000.0,36.19,-86.6,Kristen Pace,TN,1501698835000.0,23573879
237891884,Nashville,,1506910132000.0,36.17,-86.78,Kristin LeRoy,TN,1507859585000.0,23573879
238349220,Clarksville,,1507405956000.0,36.53,-87.35,Kristin Nicole,TN,1507405956000.0,23573879
221789220,Nashville,,1494943571000.0,36.17,-86.72,Kristy,TN,1494943571000.0,23573879
236116659,Whites Creek,,1505043943000.0,36.27,-86.83,Kristy West,TN,1505043943000.0,23573879
124310602,Nashville,Providence,1496935834000.0,36.17,-86.78,Kumar,TN,1500773740000.0,23573879
235442625,Nashville,,1504324719000.0,36.14,-86.74,Kyle Horan,TN,1504386980000.0,23573879
229584064,Nashville,,1497303647000.0,36.11,-86.86,Kyle O'Leary,TN,1497303647000.0,23573879
233401363,Murfreesboro,,1502003787000.0,35.85,-86.4,Kylee Odom,TN,1502003787000.0,23573879
230729805,Nashville,,1498793654000.0,36.08,-86.72,Laura Beth Snipes,TN,1498868143000.0,23573879
223564593,Murfreesboro,,1493911140000.0,35.78,-86.33,Laura Carignan,TN,1493911140000.0,23573879
237352638,Murfreesboro,,1506308887000.0,35.85,-86.4,Laura Enoch,TN,1506308887000.0,23573879
232060561,Nashville,,1501647204000.0,36.17,-86.78,Laura Viviana Ariza,TN,1508470145000.0,23573879
229111317,Nashville,,1498418307000.0,36.17,-86.78,Lauren,TN,1503238647000.0,23573879
229973494,Nashville,,1497824710000.0,36.17,-86.78,LaWanda Parsons-Buendía,TN,1497824710000.0,23573879
239149538,Nashville,,1508305577000.0,36.17,-86.78,Lawrence Coley,TN,1508305577000.0,23573879
38783652,Nashville,"Nashville, TN",1495418440000.0,36.07,-86.73,Lee Perry,TN,1495418440000.0,23573879
235533853,Murfreesboro,,1504436176000.0,35.85,-86.36,Lewanyé,TN,1504436176000.0,23573879
232179153,Nashville,,1500492987000.0,36.17,-86.78,Lianna Martinez ,TN,1500492987000.0,23573879
236169630,Nashville,,1505095418000.0,36.17,-86.72,lillian glover,TN,1505095418000.0,23573879
229662757,Murfreesboro,,1497399474000.0,35.85,-86.36,Lin H,TN,1497486842000.0,23573879
13135928,Franklin,"Franklin, TN",1494252216000.0,35.92,-86.89,LisaAnn,TN,1494252216000.0,23573879
224064745,La Vergne,,1506893533000.0,36.01,-86.57,Liz Del Angel,TN,1508304103000.0,23573879
184842362,Nashville,,1495019782000.0,36.17,-86.78,Lolita Medina,TN,1498009763000.0,23573879
234503346,Nashville,,1503256914000.0,36.18,-86.74,Luke Myers,TN,1503256914000.0,23573879
4390904,Hollywood,"Hollywood, FL/Nashville TN",1493900020000.0,26.02,-80.12,Lynne ,FL,1498842375000.0,23573879
190441496,Hermitage,,1493912293000.0,36.19,-86.6,Lynne Y,TN,1508007722000.0,23573879
231546059,Hermitage,,1499731558000.0,36.19,-86.6,Mac Bright,TN,1499731558000.0,23573879
233599190,Clarksville,,1502225101000.0,36.53,-87.35,Madam Casha Ming,TN,1502225101000.0,23573879
232210550,Lebanon,,1500528070000.0,36.21,-86.29,Madison A Brown,TN,1500528070000.0,23573879
189867506,Nashville,"Elizabethtown, KY",1499909722000.0,36.15,-86.86,Marchele Rowe,TN,1508502005000.0,23573879
207205581,Nashville,,1501733098000.0,36.17,-86.78,Marco,TN,1501733098000.0,23573879
233939885,Antioch,,1502617249000.0,36.17,-86.88,Marcy M,TN,1502617249000.0,23573879
237866839,Brentwood,,1506885150000.0,36.0,-86.79,Margaret Callahan,TN,1506885150000.0,23573879
61112372,Brentwood,,1494007383000.0,36.0,-86.79,Maria Fink,TN,1508085634000.0,23573879
233516178,Hermitage,,1502134092000.0,36.19,-86.6,Mariana Souza,TN,1502134092000.0,23573879
196512638,Nashville,,1507902292000.0,36.17,-86.78,Marie Hindman,TN,1507902292000.0,23573879
60607062,Dickson,Dickson TN,1493924653000.0,36.08,-87.43,Martha Kinel,TN,1508600262000.0,23573879
233231433,Nashville,,1501802879000.0,36.17,-86.78,Mary Ann G,TN,1501802879000.0,23573879
208629354,Nashville,,1501551723000.0,36.17,-86.78,Mary Phelps,TN,1502642766000.0,23573879
227348908,Smyrna,,1494462285000.0,35.97,-86.51,Marybeth Steffey,TN,1494462285000.0,23573879
235815790,Murfreesboro,,1504722119000.0,35.85,-86.36,Mason Mamoun,TN,1504722119000.0,23573879
233470650,Murfreesboro,,1502078910000.0,35.85,-86.36,Matthew Hasan,TN,1502078910000.0,23573879
231582111,Huntingdon,,1499777218000.0,36.0,-88.42,Maureen Thibodeau,TN,1499777218000.0,23573879
235346322,Nashville,,1504214123000.0,36.07,-86.78,Meagan & Eric ,TN,1504214123000.0,23573879
230555309,Murfreesboro,,1498524937000.0,35.87,-86.44,Megan Smoak,TN,1498524937000.0,23573879
227923819,Nashville,,1495226894000.0,36.17,-86.78,Melanie,TN,1495226894000.0,23573879
106386262,Springfield,,1501897788000.0,36.52,-86.87,Melanie Webb,TN,1501897788000.0,23573879
223848537,Nashville,,1504475011000.0,36.08,-86.72,Melody Bailey,TN,1504475011000.0,23573879
238160598,Nashville,,1507211763000.0,36.17,-86.78,Mia Muschek,TN,1507211763000.0,23573879
43608832,Spring Hill,Spring Hill,1493902071000.0,35.76,-86.88,Michael Brashier,TN,1506166773000.0,23573879
183476005,Franklin,,1497661563000.0,35.95,-86.82,Michael Coleman Grondin,TN,1497661563000.0,23573879
228029745,Fort Campbell,,1495377706000.0,36.65,-87.46,Michael Cox,KY,1495377706000.0,23573879
232312915,Nashville,,1500661751000.0,36.13,-86.8,Michael Kennedy,TN,1500661751000.0,23573879
199209760,Hendersonville,,1493903243000.0,36.32,-86.61,Michael M.,TN,1493903243000.0,23573879
202203213,Antioch,,1493904969000.0,36.04,-86.64,Michael O.,TN,1499711806000.0,23573879
227809463,Franklin,,1495073361000.0,35.99,-86.9,Michael Rudowski,TN,1495073361000.0,23573879
219178700,Nashville,,1494004985000.0,36.13,-86.67,Michael Walker,TN,1494004985000.0,23573879
230237578,Nashville,,1498133517000.0,36.16,-86.66,Mike Donahue,TN,1498181938000.0,23573879
10493478,Nashville,"Sandusky, MI",1494705832000.0,36.17,-86.72,Mikel Phillips,TN,1501344635000.0,23573879
210713896,Franklin,,1493993843000.0,35.92,-86.89,Mindy DeLange Boggs,TN,1500320983000.0,23573879
61402882,Ashland City,St Louis,1496549292000.0,36.28,-87.07,Monika Farmer,TN,1496549292000.0,23573879
238802649,Nashville,,1507908975000.0,36.16,-86.77,Moo Jin Oh,TN,1507908975000.0,23573879
233541924,Fort Campbell,,1502160478000.0,36.65,-87.46,Morgan Daley,KY,1502160478000.0,23573879
233911212,Nashville,,1502577413000.0,36.17,-86.78,Mr. Mack,TN,1502577413000.0,23573879
58682932,Nashville,,1494947483000.0,36.17,-86.78,Nancy,TN,1496778893000.0,23573879
216186230,Nashville,,1499311557000.0,36.17,-86.78,Nancy Harlan,TN,1499311557000.0,23573879
231017596,Nashville,,1499103166000.0,36.1,-86.66,Nasheeda Shaikh,TN,1499103166000.0,23573879
229026621,Hermitage,,1496617434000.0,36.19,-86.6,Nealy,TN,1496877996000.0,23573879
230829647,Nashville,,1498865645000.0,36.18,-86.74,Nell Barber,TN,1498865645000.0,23573879
227268200,Nashville,,1494354561000.0,36.15,-86.8,Nicholas Kellum,TN,1494379667000.0,23573879
233173232,Smyrna,,1501729600000.0,35.97,-86.51,Nicholas Walker,TN,1501729600000.0,23573879
232221301,London,,1501889738000.0,51.6,-0.24,Nicola Grotbags Finnegan,17,1501889738000.0,23573879
97305012,Old Hickory,Old Hickory,1493913240000.0,36.25,-86.63,Nicole,TN,1493913240000.0,23573879
234168251,Franklin,,1502887998000.0,35.93,-86.81,Olivia Oetjens,TN,1502887998000.0,23573879
8334399,Nashville,"Huntsville, AL",1494525410000.0,36.17,-86.78,Pamela,TN,1494525410000.0,23573879
238373672,Murfreesboro,,1507431069000.0,35.87,-86.44,Patrick LeBlanc,TN,1507431069000.0,23573879
230846288,Thompsons Station,,1498885695000.0,35.8,-86.9,Patrick Newsom,TN,1498885695000.0,23573879
233824056,Murfreesboro,,1502474391000.0,35.78,-86.33,Patty,TN,1502474391000.0,23573879
152698362,Mount Juliet,,1493902591000.0,36.22,-86.52,Patty D,TN,1493942978000.0,23573879
11398119,Nashville,,1500734971000.0,36.17,-86.78,Paul Nicholson,TN,1507262634000.0,23573879
234422968,Brentwood,,1503165865000.0,36.0,-86.79,Paula Blattner,TN,1503165865000.0,23573879
235438953,Antioch,,1504320510000.0,36.17,-86.88,Payge Berry,TN,1504320510000.0,23573879
228155210,Nashville,,1495499643000.0,36.17,-86.78,Peyton Marie,TN,1495499643000.0,23573879
228242962,Nashville,,1495610525000.0,36.11,-86.78,Philip,TN,1499150568000.0,23573879
110905242,Nashville,Oakridge,1500660500000.0,36.17,-86.78,Phoenix Elliott,TN,1500839929000.0,23573879
230315417,Nashville,,1498230272000.0,36.08,-86.72,Pooja Jain,TN,1498230272000.0,23573879
229705817,Nashville,,1497460524000.0,36.08,-86.72,Portrait Chen,TN,1508036794000.0,23573879
212552102,Nashville,,1503637559000.0,36.07,-86.73,Rachel,TN,1503637559000.0,23573879
228879583,Mount Juliet,,1496437701000.0,36.22,-86.52,Rachel Beth Elliott,TN,1496437701000.0,23573879
233512670,Nashville,,1502130752000.0,36.11,-86.67,Rachel Haws,TN,1502130752000.0,23573879
230942958,Smyrna,,1499012117000.0,35.98,-86.5,rachel laing,TN,1499012117000.0,23573879
229049863,Nashville,,1496645036000.0,36.15,-86.8,Ray Li,TN,1503506290000.0,23573879
230581243,Memphis,,1498562450000.0,35.13,-90.05,Rebecca Edzard,TN,1499460095000.0,23573879
227427032,Fort Campbell,,1494565599000.0,36.65,-87.46,Rebekah Tupps,KY,1494565599000.0,23573879
229460350,Antioch,,1497156896000.0,36.04,-86.64,Reese Johnson,TN,1497311610000.0,23573879
120050222,Nashville,,1495816747000.0,36.17,-86.78,Renee Williams,TN,1496590346000.0,23573879
236455959,Murfreesboro,,1505358744000.0,35.87,-86.34,Rhiannon Gilbert,TN,1505358744000.0,23573879
237342428,Nashville,,1506298005000.0,36.08,-86.72,Rhiannon Ramos,TN,1506298005000.0,23573879
235918583,Murfreesboro,,1504824654000.0,35.85,-86.4,Rhonda,TN,1506378249000.0,23573879
7383330,Murfreesboro,Murfreesboro,1505399329000.0,35.87,-86.34,Rhonda,TN,1505399329000.0,23573879
234888395,Nashville,Nashville,1503695374000.0,36.16,-86.79,Rich Seiling,TN,1503695374000.0,23573879
108223912,Nashville,Charlotte,1494023833000.0,36.18,-86.81,Rick Snyder,TN,1494023833000.0,23573879
198007692,Mount Juliet,,1493912080000.0,36.22,-86.52,Robert Browning,TN,1496584211000.0,23573879
13789517,Thompsons Station,,1505750275000.0,35.8,-86.9,Robin,TN,1505750275000.0,23573879
232020780,College Grove,,1500307494000.0,35.77,-86.71,Robin Putulowski,TN,1500307494000.0,23573879
230288023,Smyrna,,,35.97,-86.51,,TN,,23573879
192852943,Goodlettsville,,1494289411000.0,36.33,-86.74,Rusty Lacy,TN,1494376159000.0,23573879
233603843,Antioch,,1502231449000.0,36.04,-86.64,Ryan Sanders,TN,1502231449000.0,23573879
227718206,Nashville,,1496771908000.0,36.11,-86.86,Sabrina Canup,TN,1501525296000.0,23573879
67724862,Nashville,Nashville,1507152042000.0,36.17,-86.72,Sai Kishore,TN,1507152042000.0,23573879
77956882,Nashville,nashville,1495469274000.0,36.1,-86.66,Sai Nadh,TN,1499170587000.0,23573879
234829316,Nashville,,1503622430000.0,36.08,-86.72,Sam Koenig,TN,1504231495000.0,23573879
10766784,Nashville,Pittsburgh,1493899269000.0,36.08,-86.72,Sandrene Mathews,TN,1493899269000.0,23573879
226937410,Nashville,,1493901902000.0,36.17,-86.78,sandy Overton,TN,1493901902000.0,23573879
187751956,Nashville,,1503031494000.0,36.17,-86.78,Sara Kathryn,TN,1503031494000.0,23573879
238324286,Hendersonville,,1507380683000.0,36.3,-86.62,Sarah Abel,TN,1507380683000.0,23573879
232037404,Nashville,,1500323926000.0,36.16,-86.79,Saydi Miller,TN,1500323926000.0,23573879
234251950,Nashville,,1502984849000.0,36.15,-86.86,Scott Anderson,TN,1502984849000.0,23573879
237966825,Nashville,,1506994083000.0,36.07,-86.73,Scott Hartsell,TN,1506994083000.0,23573879
4490979,Nashville,,1504605171000.0,36.17,-86.78,Scruggs,TN,1508084030000.0,23573879
235162560,Mount Juliet,,1504020711000.0,36.21,-86.52,Sean Korb,TN,1504020711000.0,23573879
230280638,Nashville,,1498183290000.0,36.17,-86.78,Sean Teeple,TN,1498183290000.0,23573879
214578793,Antioch,,1494114466000.0,36.04,-86.64,Shalee Marshall,TN,1494114466000.0,23573879
8539046,Nashville,,1500775000000.0,36.13,-86.8,Shalini,TN,1500815511000.0,23573879
227474692,Nashville,,1494633772000.0,36.17,-86.78,Shane Dyer,TN,1494633772000.0,23573879
224042204,Brentwood,,1493948444000.0,36.0,-86.79,Shannon Moses Johnson,TN,1500954179000.0,23573879
91831972,Nashville,,1494043173000.0,36.18,-86.74,Shannon O'Leary,TN,1494906203000.0,23573879
10560415,Hyderabad,"Hyderabad, India",1495318953000.0,17.4,78.48,Shashi Jeevan M. P.,,1496599315000.0,23573879
228392881,Nashville,,1495812349000.0,36.1,-86.66,Sherri Costes,TN,1499451444000.0,23573879
236510155,Nashville,,1505413551000.0,36.17,-86.78,Shiv,TN,1505413551000.0,23573879
188228226,Nashville,,1495131358000.0,36.13,-86.8,Shohreh ,TN,1507210031000.0,23573879
229007958,Nashville,,1496598645000.0,36.15,-86.86,Showers,TN,1496598645000.0,23573879
232538159,Mount Juliet,,1500940387000.0,36.22,-86.52,Silvia Gray-Fournier,TN,1500940387000.0,23573879
228263800,Nashville,,1495640259000.0,36.17,-86.78,Simone,TN,1500749721000.0,23573879
232956266,Nashville,,1501464288000.0,36.06,-86.96,Sonia Alam,TN,1501464288000.0,23573879
236332354,Fairview,,1505246405000.0,35.97,-87.13,Stacey Joplin,TN,1505246405000.0,23573879
228827230,Brentwood,,1496370685000.0,36.0,-86.79,Stanley Rajkumar Samala Melchias,TN,1496370685000.0,23573879
208371858,Mount Juliet,,1502144882000.0,36.21,-86.52,Stephanie,TN,1502144882000.0,23573879
13303434,Hendersonville,,1498191961000.0,36.32,-86.61,Stephanie Lee,TN,1498191961000.0,23573879
239303068,Clarksville,,1508482464000.0,36.56,-87.35,Stephen B,TN,1508482464000.0,23573879
239296621,Murfreesboro,,1508472891000.0,35.82,-86.45,Steve F,TN,1508472891000.0,23573879
229069048,Nashville,,1496671240000.0,36.17,-86.78,Steve Hardesty,TN,1496671240000.0,23573879
229114345,Franklin,,1496716568000.0,35.92,-86.89,Sue Manley Lombardo,TN,1496716568000.0,23573879
238409397,Franklin,,1507476154000.0,35.92,-86.89,Susan J.,TN,1507476154000.0,23573879
238268603,Franklin,,1507318478000.0,35.92,-86.89,Susan M,TN,1507318478000.0,23573879
207698640,Nashville,,1498239174000.0,36.17,-86.78,Suzie,TN,1500342452000.0,23573879
238037892,Nashville,,1507068836000.0,36.17,-86.78,T,TN,1507068836000.0,23573879
231401681,Nashville,,1499563842000.0,36.17,-86.78,TaKeiah Biddix,TN,1499563842000.0,23573879
192512131,Smyrna,Shelbyville,1498184129000.0,35.97,-86.51,Tammy Bryant,TN,1507155468000.0,23573879
195725452,Nashville,,1507387077000.0,36.17,-86.78,Tarence Rice,TN,1507387077000.0,23573879
126525082,Nashville,,1498352433000.0,36.13,-86.8,TeamLockhart,TN,1498352433000.0,23573879
238129849,Murfreesboro,,1507171043000.0,35.82,-86.45,Terika,TN,1507171043000.0,23573879
137381312,Nashville,Nashville,1505660115000.0,36.18,-86.74,Terri Swann,TN,1505660115000.0,23573879
227806705,Franklin,,1495070973000.0,35.99,-86.9,Theodore Brittan,TN,1495070973000.0,23573879
229065335,White House,,1496667327000.0,36.48,-86.69,Theresa Dixon,TN,1496667327000.0,23573879
229320405,Antioch,,1496975197000.0,36.04,-86.64,Theresa Willis,TN,1496975197000.0,23573879
222088346,Murfreesboro,,1504837032000.0,35.85,-86.4,Tiffany Spangler,TN,1504837032000.0,23573879
7687311,Nashville,Nashville,1499200767000.0,36.09,-86.82,Tim,TN,1499200767000.0,23573879
234601062,Nashville,,1503368573000.0,36.11,-86.78,Timothy Jacobs,TN,1503368573000.0,23573879
237699891,Mount Juliet,,1506693089000.0,36.21,-86.52,Tina Guererri,TN,1506693089000.0,23573879
3524506,Murfreesboro,,1494127117000.0,35.87,-86.44,Tracy Wilson,TN,1494127117000.0,23573879
232995292,Nashville,,1501517405000.0,36.17,-86.78,Tracye,TN,1501517405000.0,23573879
229895339,Fort Campbell,,1497717530000.0,36.65,-87.46,Trish,KY,1497717530000.0,23573879
232165465,Madison,,1500479360000.0,36.26,-86.71,Trivillian,TN,1500479360000.0,23573879
205101066,Nashville,,1494976626000.0,36.17,-86.78,Ty,TN,1495631965000.0,23573879
232615857,La Vergne,,1501029454000.0,36.01,-86.57,ty bo,TN,1501029454000.0,23573879
231529044,Hermitage,,1499714325000.0,36.19,-86.6,Tyler Gerondale,TN,1499714325000.0,23573879
202340913,Franklin,,1501301706000.0,35.92,-86.87,Tyler Welker,TN,1501301706000.0,23573879
8364973,Nashville,Jacksonville,1494027701000.0,36.17,-86.78,Vallarie,TN,1495202215000.0,23573879
235368725,Mount Juliet,,1504237923000.0,36.21,-86.52,Vanessa Niu,TN,1508115570000.0,23573879
195580918,Hermitage,,1493899828000.0,36.19,-86.6,Veer,TN,1507306566000.0,23573879
6812541,Hermitage,Hermitage,1504356610000.0,36.19,-86.6,Vern Sahlyeh,TN,1504356610000.0,23573879
233777157,Nashville,,1502413447000.0,36.17,-86.72,Vestavia Smith,TN,1502413447000.0,23573879
220285065,Mount Juliet,,1494214375000.0,36.21,-86.52,Vicki Graham,TN,1508701229000.0,23573879
234642782,Lebanon,,1503427495000.0,36.15,-86.32,Vickie Walter,TN,1503427495000.0,23573879
237540696,Antioch,,1506515407000.0,36.04,-86.64,Vincent Gilmore,TN,1506515407000.0,23573879
222656771,Nashville,"Cairo, Egypt",1498420035000.0,36.16,-86.79,Wael Hassan,TN,1508726259000.0,23573879
230664082,Nashville,,1498660475000.0,36.15,-86.86,Wali Johnson,TN,1498660475000.0,23573879
4387980,Nashville,"Warrensburg, NY",1493952454000.0,36.21,-86.72,Wanda Ross,TN,1493952454000.0,23573879
239376218,Murfreesboro,,1508565514000.0,35.87,-86.34,Weave Meister,TN,1508565514000.0,23573879
232689353,Nashville,,1501119764000.0,36.07,-86.78,William Blank,TN,1501119764000.0,23573879
202522505,La Vergne,Denham Springs. LA,1498865304000.0,36.01,-86.57,William Wolfe,TN,1508543991000.0,23573879
228296209,Franklin,,1495676483000.0,35.92,-86.89,xd,TN,1497055335000.0,23573879
238562122,Nashville,,1507637544000.0,36.15,-86.86,Yanina Bonetto,TN,1507637544000.0,23573879
10575223,Nashville,Nolensville,1494180207000.0,36.17,-86.78,Yvonne Sexton,TN,1494676870000.0,23573879
182992991,Nashville,,1499612230000.0,36.17,-86.78,Zach Swift,TN,1499612230000.0,23573879
236146602,Nashville,,1505072140000.0,36.16,-86.79,Zachary Gray,TN,1505072140000.0,23573879
13978388,Nashville,BRENTWOOD,1507240984000.0,36.16,-86.79,Zary,TN,1507240984000.0,23573879
