id,city,hometown,joined,lat,lon,name,state,visited,group_id
232333818,Nashville,,1500684317000.0,36.17,-86.78,A. Robinson,TN,1500684317000.0,23688313
233293976,Nashville,,1501891475000.0,36.08,-86.72,Abby F,TN,1501891475000.0,23688313
232826742,Nashville,,1501299212000.0,36.17,-86.78,Abigail ,TN,1501299212000.0,23688313
231250580,Nashville,,1499534338000.0,36.16,-86.79,Agatha Bukowski,TN,1508196953000.0,23688313
228618128,Nashville,,1499534337000.0,36.06,-86.96,Aidan Desmarais,TN,1496109060000.0,23688313
231471032,Nashville,,1499645221000.0,36.15,-86.86,Alex Hanflink,TN,1499645221000.0,23688313
235742118,Nashville,,1504650168000.0,36.17,-86.78,Alex S,TN,1504650168000.0,23688313
236269317,Nashville,,1505189049000.0,36.14,-86.81,Alex Shaw,TN,1505189049000.0,23688313
201257006,Brentwood,,1494546853000.0,36.0,-86.79,Alice Jones,TN,1494546853000.0,23688313
232964564,Nashville,,1501474367000.0,36.08,-86.72,Alina M Torres,TN,1501474367000.0,23688313
231954083,Nashville,,1500227916000.0,36.1,-86.66,Alison B,TN,1502332746000.0,23688313
237960088,Nashville,,1506984702000.0,36.11,-86.86,Allie LaCombe,TN,1506984702000.0,23688313
239411816,Nashville,,1508609856000.0,36.17,-86.78,Allie Lanza,TN,1508609856000.0,23688313
234264254,Clarksville,,1502997007000.0,36.56,-87.41,Allie Sanchez,TN,1502997007000.0,23688313
232162112,Nashville,,1500476220000.0,36.17,-86.78,Allison Martin,TN,1501685115000.0,23688313
232588197,Nashville,,1501003856000.0,36.17,-86.78,Allison Plattsmier,TN,1501003856000.0,23688313
237953094,Nashville,,1506978408000.0,36.15,-86.81,Ally,TN,1506978408000.0,23688313
232646693,Nashville,,1501073723000.0,36.06,-86.96,Alycia Piper,TN,1501114940000.0,23688313
235325566,Nashville,,1504192218000.0,36.17,-86.78,Alysha B,TN,1507154322000.0,23688313
232401175,Nashville,,1500771900000.0,36.17,-86.78,Alysha Garrett,TN,1500771900000.0,23688313
232874359,Chapel Hill,,1501361113000.0,35.62,-86.62,Alyvia Griggs,TN,1501361113000.0,23688313
234803891,Nashville,,1503596038000.0,36.11,-86.86,Amanda Bloom Gill,TN,1503596038000.0,23688313
232470766,Franklin,,1500860594000.0,35.92,-86.89,Amanda J Judice,TN,1500860594000.0,23688313
232759641,Nashville,,1501209247000.0,36.17,-86.78,Amanda Mahabir,TN,1503964994000.0,23688313
229928874,Nashville,,1500775365000.0,36.15,-86.86,Amanda Richey,TN,1503411679000.0,23688313
235253295,Madison,,1504115089000.0,36.26,-86.71,Amanda Worlds,TN,1504115089000.0,23688313
234499782,Gladeville,,1503254219000.0,36.19,-86.28,Amani Loggins,TN,1503254219000.0,23688313
237739615,Nashville,,1506735707000.0,36.17,-86.78,Amber,TN,1506812250000.0,23688313
197933436,Nashville,,1494677995000.0,36.17,-86.78,Amber,TN,1494677995000.0,23688313
228327145,Nashville,,1499534337000.0,36.07,-86.73,Amber Myers,TN,1495722671000.0,23688313
238877673,Hendersonville,,1507997513000.0,36.32,-86.61,Amberlyn Richardson,TN,1507997513000.0,23688313
128469822,Nashville,,1501132938000.0,36.18,-86.74,Amy,TN,1501132938000.0,23688313
229180677,Mount Juliet,,1499534337000.0,36.21,-86.52,Amy Matherly,TN,1496796495000.0,23688313
231887052,Nashville,,1500139266000.0,36.08,-86.72,Ana Lucio,TN,1500139266000.0,23688313
227713726,Nashville,,1500399531000.0,36.18,-86.81,Anand,TN,1501894267000.0,23688313
182574366,Nashville,Nashville,1499534336000.0,36.11,-86.78,Andrea,TN,1501465456000.0,23688313
193912459,Franklin,,1499534337000.0,35.93,-86.81,Andrea,TN,1499738231000.0,23688313
228205967,Nashville,,1499534336000.0,36.18,-86.81,Andrea Law,TN,1495565330000.0,23688313
232746995,Nashville,,1501196310000.0,36.17,-86.78,Andrea McFadden,TN,1501196310000.0,23688313
185707313,Nashville,"Racine, WI",1500253387000.0,36.08,-86.72,Andrea Wilkinson,TN,1501209626000.0,23688313
206741636,Nashville,,1494544033000.0,36.17,-86.78,Andrew,TN,1494973546000.0,23688313
231624788,Nashville,,1499819382000.0,36.15,-86.81,Anna Fogg,TN,1499819382000.0,23688313
237811459,Pleasant View,,1506817386000.0,36.38,-87.04,annette,TN,1506817386000.0,23688313
139196262,Nashville,,1494558788000.0,36.17,-86.78,Annie Greaney,TN,1494558788000.0,23688313
192501596,Murfreesboro,,1507873609000.0,35.82,-86.45,April Faircloth Collier,TN,1507873609000.0,23688313
217883458,Nashville,,1494340482000.0,36.15,-86.86,April McKinney,TN,1502063906000.0,23688313
236539870,Hermitage,,1505438398000.0,36.19,-86.6,Arieal Simo'ane Burton,TN,1505438398000.0,23688313
224017951,Nashville,,1499534336000.0,36.11,-86.86,Ashley Caroline Nelson,TN,1495300446000.0,23688313
238417571,Nashville,,1507483482000.0,36.11,-86.86,Ashley Sanford,TN,1507483482000.0,23688313
222914852,Lebanon,,1494636953000.0,36.21,-86.31,Ashley Watkins,TN,1494802442000.0,23688313
225462607,Nashville,,1494555540000.0,36.17,-86.79,Ashlynn Fincher,TN,1501622774000.0,23688313
236169075,Nashville,,1505094515000.0,36.13,-86.8,Auburn Cottle,TN,1505094515000.0,23688313
238952926,Murfreesboro,,1508087555000.0,35.84,-86.39,Autumn Davila,TN,1508087555000.0,23688313
204536318,Nashville,Nashville,1501548317000.0,36.18,-86.81,Barbara Peck,TN,1501548317000.0,23688313
232804005,Nashville,,1501270114000.0,36.11,-86.86,Becky Fleckenstein,TN,1501818417000.0,23688313
228396794,Nashville,,1499534337000.0,36.17,-86.78,Belen Padilla,TN,1495818409000.0,23688313
49518282,Brentwood,,1499534337000.0,36.0,-86.79,Beth holt,TN,1502032331000.0,23688313
236814848,Fort Campbell,,1505735813000.0,36.65,-87.46,Bethany Baker,KY,1505735813000.0,23688313
118100402,Hendersonville,Huntsville,1499915344000.0,36.32,-86.61,Bethany Boyer,TN,1499915344000.0,23688313
237553990,Nashville,,1506528886000.0,36.17,-86.78,Bianca Grant,TN,1506528886000.0,23688313
236454262,Hendersonville,,1505357269000.0,36.32,-86.61,BlackWings1994,TN,1505357269000.0,23688313
205858578,Portland,,1499534335000.0,36.57,-86.49,Bob,TN,1494708069000.0,23688313
228836758,Nashville,,1499534337000.0,36.11,-86.78,boomer trujillo,TN,1496383793000.0,23688313
199190565,Nashville,,1499534337000.0,36.17,-86.78,Brandi Montgomery,TN,1495942824000.0,23688313
235202710,Clarksville,,1504062161000.0,36.53,-87.36,Brandi Post,TN,1504062161000.0,23688313
228454326,Nashville,,1499534337000.0,36.11,-86.78,Brandon Boehme,TN,1495895504000.0,23688313
102878332,Nashville,,1499534337000.0,36.11,-86.86,Bria,TN,1496527017000.0,23688313
238583768,Nashville,,1507657461000.0,36.22,-86.74,Bridget Chandler,TN,1507657461000.0,23688313
203619085,Nashville,,1499984830000.0,36.16,-86.78,Brie Ana Vogt,TN,1499984830000.0,23688313
102258412,Nashville,,1499534336000.0,36.22,-86.77,Brigid Katla Lindveit,TN,1505234311000.0,23688313
235570425,Nashville,,1504472889000.0,36.17,-86.78,Brittany Bloom,TN,1504472889000.0,23688313
237820845,Murfreesboro,,1506828918000.0,35.82,-86.45,Brittney P.,TN,1506828918000.0,23688313
237134152,Madison,,1506057534000.0,36.26,-86.71,Bro Den,TN,1506057534000.0,23688313
228853027,Goodlettsville,,1499534337000.0,36.33,-86.74,Brooke,TN,1496408796000.0,23688313
232805369,Nashville,,1501271288000.0,36.17,-86.78,Caitlin Mudd,TN,1501271288000.0,23688313
228123593,Hendersonville,,1499534336000.0,36.32,-86.61,Caleb Dossman,TN,1501514798000.0,23688313
228542197,Nashville,,1499534337000.0,36.17,-86.78,Caley Caito,TN,1499542948000.0,23688313
12777110,Nashville,,1500436173000.0,36.17,-86.78,Cameron,TN,1500436173000.0,23688313
226254594,Old Hickory,,1499534335000.0,36.25,-86.63,Cara,TN,1494696278000.0,23688313
52190822,Nashville,,1494683234000.0,36.11,-86.78,Carla Williams,TN,1494683234000.0,23688313
234503129,Nashville,,1503257431000.0,36.17,-86.78,Carleigh Gray-Lermy,TN,1503796317000.0,23688313
233318819,Nashville,,1501907755000.0,36.11,-86.78,Caroline Mayhew,TN,1501907755000.0,23688313
228605401,Nashville,,1499534337000.0,36.19,-86.8,Casey Funtal,TN,1496096536000.0,23688313
186657231,Nashville,,1499534336000.0,36.08,-86.72,Casey Gymrek,TN,1494974172000.0,23688313
232816641,Franklin,,1501284184000.0,35.92,-86.89,Cat Hoort,TN,1501284184000.0,23688313
232538888,Nashville,,1500940947000.0,36.13,-86.8,Cathy Ellis,TN,1500940947000.0,23688313
193989437,Old Hickory,,1506205993000.0,36.25,-86.63,Cerri Frederick Shelton,TN,1506205993000.0,23688313
11888037,Goodlettsville,"Goodlettsville, TN",1499534336000.0,36.29,-86.71,Charity High Law,TN,1494731798000.0,23688313
232615734,Nashville,,1501030167000.0,36.06,-86.96,Chauntrell Clay,TN,1501030167000.0,23688313
185553370,Fort Collins,,1499534336000.0,40.53,-105.04,Chelsea,CO,1495326110000.0,23688313
239525920,Nashville,,1508736704000.0,36.17,-86.78,Chelsey Souder,TN,1508736704000.0,23688313
232121093,Nashville,Nashville,1500422647000.0,36.13,-86.8,Christine Joy,TN,1500422647000.0,23688313
20574181,Nashville,Raleigh,1499534337000.0,36.17,-86.78,Christine McDevitt,TN,1501462490000.0,23688313
233017503,Nashville,,1501561047000.0,36.17,-86.78,Claire Elaine Sanders,TN,1501561047000.0,23688313
233016191,Nashville,,1501539066000.0,36.15,-86.8,Claire McClain,TN,1501539066000.0,23688313
224461910,Nashville,,1494553200000.0,36.18,-86.81,Colleen Daw,TN,1494553200000.0,23688313
232824102,Columbia,,1501293413000.0,35.61,-87.05,Connie Fowler,TN,1501293413000.0,23688313
233035960,La Vergne,,1501560858000.0,36.01,-86.57,Corey Garner,TN,1501560858000.0,23688313
230045695,Nashville,,1500607010000.0,36.08,-86.72,Courtney,TN,1500770274000.0,23688313
234683257,Nashville,,1503458074000.0,36.06,-86.96,Courtney Hill,TN,1503458074000.0,23688313
233676471,Nashville,,1502309918000.0,36.1,-86.78,Curtis porter,TN,1502309918000.0,23688313
118495742,Nashville,"Portland, OR",1499701500000.0,36.16,-86.79,Dallas Jessup,TN,1500665948000.0,23688313
191759053,Brentwood,,1499534338000.0,36.0,-86.79,Dana C.,TN,1501855360000.0,23688313
238128288,Nashville,,1507169009000.0,36.06,-86.96,Dani Kawkaba,TN,1507169009000.0,23688313
235365244,Nashville,,1504233463000.0,36.19,-86.8,Dani McQuoid,TN,1505832050000.0,23688313
238265933,Nashville,,1507317798000.0,36.17,-86.78,Danielle F.,TN,1507317798000.0,23688313
233078642,Nashville,,1501616906000.0,36.08,-86.72,Darnell Billups,TN,1501616906000.0,23688313
235307665,Franklin,,1504172675000.0,35.92,-86.89,Dawn Beatty,TN,1504172675000.0,23688313
239129976,Nashville,,1508280091000.0,36.14,-86.81,Deanna Smith,TN,1508280091000.0,23688313
231629423,Nashville,,1499825497000.0,36.1,-86.66,Deb Ellison,TN,1501464431000.0,23688313
234458158,Nashville,,1503203672000.0,36.15,-86.86,Demi Marks,TN,1503203672000.0,23688313
217974131,Nashville,,1494546586000.0,36.17,-86.78,Denise Freitag,TN,1501630710000.0,23688313
12538845,Nashville,,1499534336000.0,36.17,-86.78,Denise Mitchell,TN,1495153828000.0,23688313
64445472,Nashville,,1501546165000.0,36.11,-86.78,Dessica,TN,1501546165000.0,23688313
99739302,Gallatin,,1507951723000.0,36.39,-86.45,Diana Gross,TN,1507951723000.0,23688313
233434024,Nashville,,1502049290000.0,36.14,-86.81,Dianne Hotvedt,TN,1502049290000.0,23688313
34405092,Nashville,,1502587690000.0,36.07,-86.78,Donald Baer,TN,1502587690000.0,23688313
229212075,Nashville,,1499534338000.0,36.16,-86.77,Donjurea Daniels,TN,1496842436000.0,23688313
222542647,Nashville,Nashville,1499534336000.0,36.06,-86.96,Dylan Irons,TN,1499535654000.0,23688313
233521288,Nashville,,1502140673000.0,36.16,-86.78,Ebony E. Wiggins,TN,1502140673000.0,23688313
233098241,Nashville,,1501638865000.0,36.21,-86.72,Eleanor Roberts,TN,1501638865000.0,23688313
238970272,Nashville,,1508103809000.0,36.14,-86.8,Elena Brown,TN,1508103809000.0,23688313
190000436,Antioch,,1507684336000.0,36.04,-86.64,Elizabeth Manning,TN,1507684336000.0,23688313
199079448,Nashville,,1494544048000.0,36.08,-86.72,Elizabeth Metcalf,TN,1494544048000.0,23688313
236795548,Nashville,,1505709755000.0,36.17,-86.78,Ella Hoogenboezem,TN,1505709755000.0,23688313
236851425,Nashville,,1505762965000.0,36.17,-86.78,Ellen Niarhos,TN,1505762965000.0,23688313
238845945,Nashville,,1507956345000.0,36.17,-86.77,Emily,TN,1507956345000.0,23688313
239046110,Nashville,,1508188148000.0,36.17,-86.78,Emily Haas,TN,1508188148000.0,23688313
227414553,Nashville,,1494546524000.0,36.17,-86.78,Emily Phillips,TN,1494652727000.0,23688313
236845714,Nashville,,1505758772000.0,36.08,-86.72,Emily Pierce,TN,1505758772000.0,23688313
235472141,Nashville,,1504364420000.0,36.15,-86.86,Erica Johnson,TN,1504364420000.0,23688313
101674432,Franklin,,1494540671000.0,35.92,-86.89,Erin,TN,1499116941000.0,23688313
7865879,Nashville,,1504185180000.0,36.16,-86.79,Evy Mellichamp,TN,1504910182000.0,23688313
233832556,Nashville,,1502489938000.0,36.17,-86.78,Frances Varallo ,TN,1502489938000.0,23688313
214184798,Nashville,,1508592618000.0,36.17,-86.78,Fred Johnson,TN,1508592618000.0,23688313
232595107,Nashville,,1501008875000.0,36.11,-86.78,Freddie,TN,1501008875000.0,23688313
202664443,Nashville,Nashville,1494603865000.0,36.16,-86.79,Freeder Pronounced Freeda Bartle,TN,1498617217000.0,23688313
223167558,Goodlettsville,,1499534336000.0,36.32,-86.72,Georgia Nejus,TN,1495540160000.0,23688313
237184061,Nashville,,1506116243000.0,36.15,-86.79,Georgia Nilsson,TN,1506116243000.0,23688313
235797729,Brentwood,,1504706718000.0,36.0,-86.79,GFH,TN,1504822668000.0,23688313
235133688,La Vergne,,1503984532000.0,36.0,-86.57,Giulianna McKenney,TN,1503984532000.0,23688313
232313099,Nashville,,1500661416000.0,36.11,-86.78,Grace Cummings,TN,1500661416000.0,23688313
236020975,Nashville,,1504935300000.0,36.17,-86.78,Grace Harrison,TN,1504935300000.0,23688313
235259207,Nashville,,1504119683000.0,36.08,-86.72,Grace Swihart,TN,1504119683000.0,23688313
228642916,Nashville,,1499534337000.0,36.17,-86.78,Gregory Thomas Jeffers - Author,TN,1496146269000.0,23688313
232551944,Brentwood,,1500955602000.0,36.0,-86.79,H Cook,TN,1500955602000.0,23688313
206869851,Nashville,,1494647328000.0,36.17,-86.78,Hannah Glenn,TN,1499443722000.0,23688313
233872016,Thompsons Station,,1502534213000.0,35.8,-86.9,Hayley,TN,1502534213000.0,23688313
227851935,Hendersonville,,1499534336000.0,36.32,-86.61,Heather Holle,TN,1495130877000.0,23688313
235402264,Nashville,,1504282558000.0,36.16,-86.78,Heather Vandergrift,TN,1504282558000.0,23688313
234214118,Nashville,,1502935062000.0,36.15,-86.81,Henry Downes,TN,1502935062000.0,23688313
232087948,Antioch,,1500388012000.0,36.04,-86.64,Hopi Zapico,TN,1500388012000.0,23688313
228221105,Nashville,,1499534336000.0,36.17,-86.78,Ingrid,TN,1495582502000.0,23688313
227220528,Nashville,,1499534335000.0,36.17,-86.78,Iris Royal,TN,1501962003000.0,23688313
236343325,Nashville,,1505254782000.0,36.17,-86.78,Isabel Barnett,TN,1505254782000.0,23688313
234343748,Nashville,,1503084187000.0,36.17,-86.78,Jackie Lazzaro,TN,1503084187000.0,23688313
229025056,Goodlettsville,,1499534337000.0,36.32,-86.72,Jacquline C,TN,1496615341000.0,23688313
162605352,Madison,,1499534338000.0,36.26,-86.71,Jafar,TN,1496829083000.0,23688313
185129727,Nashville,,1499534335000.0,36.17,-86.72,Jan Evett,TN,1494711311000.0,23688313
236166655,La Vergne,,1505092177000.0,36.01,-86.57,JaNiene Peoples,TN,1505441781000.0,23688313
231823787,Nashville,,1500057242000.0,36.17,-86.78,Jay Franklin,TN,1501588167000.0,23688313
232504138,Fort Campbell,,1500906062000.0,36.65,-87.46,Jayson Rich,KY,1500906062000.0,23688313
80861082,Nashville,Clarksville,1494551893000.0,36.17,-86.78,Jeane,TN,1506990208000.0,23688313
3575885,Nashville,Great Neck NY,1500502569000.0,36.11,-86.86,Jenna R,TN,1500502569000.0,23688313
8286556,Nashville,"Houston, TX",1499534336000.0,36.18,-86.74,Jennifer,TN,1501889017000.0,23688313
239466838,Hermitage,,1508677063000.0,36.19,-86.6,Jennifer Acree,TN,1508713355000.0,23688313
83833622,Nashville,,1494599606000.0,36.08,-86.72,Jennifer R.,TN,1494599606000.0,23688313
222906914,Nashville,,,36.18,-86.73,,TN,,23688313
233752750,Nashville,,1502394238000.0,36.17,-86.78,Jenny Dyer Vinson,TN,1502394238000.0,23688313
215521985,Nashville,,1499534335000.0,36.17,-86.78,Jesse Cunningham,TN,1499539298000.0,23688313
232604353,Nashville,,1501018102000.0,36.17,-86.78,Jessica Jones,TN,1501018102000.0,23688313
231673605,Nashville,,1499879931000.0,36.18,-86.74,Jessica Lindsey Snyder,TN,1499879931000.0,23688313
222794245,Nashville,,1494560286000.0,36.11,-86.78,Jessica Nicole,TN,1494899842000.0,23688313
228812078,Nashville,,1499534337000.0,36.16,-86.79,Jessie Ellison,TN,1496352771000.0,23688313
222982998,Nashville,,1501674645000.0,36.17,-86.78,Jessie Mai Landry,TN,1501674645000.0,23688313
239440826,Nashville,,1508639838000.0,36.07,-86.73,Jill Burns,TN,1508639838000.0,23688313
233218798,Nashville,,1501789916000.0,36.11,-86.78,Joe Lawrence,TN,1502503523000.0,23688313
235501266,Nashville,,1504394925000.0,36.18,-86.74,Joe Luckey,TN,1504394925000.0,23688313
5173876,Nashville,,1494553859000.0,36.16,-86.79,Johanna,TN,1494553859000.0,23688313
236937916,Murfreesboro,,1505847453000.0,35.84,-86.39,Johanna Nicole Hunter,TN,1505847453000.0,23688313
91187252,Clarksville,,1500942258000.0,36.53,-87.34,Jon Hackler,TN,1500942258000.0,23688313
238147249,Ashland City,,1507195316000.0,36.28,-87.07,Jon Sylvia,TN,1507195316000.0,23688313
238084851,Nashville,,1507126387000.0,36.17,-86.72,Jonny Humble,TN,1507126387000.0,23688313
237768924,Nashville,,1506774589000.0,36.17,-86.78,Jordan Castelloe,TN,1506774589000.0,23688313
233393574,Mount Juliet,,1501993269000.0,36.21,-86.52,Jordan Jones,TN,1501993269000.0,23688313
234685403,Nashville,,1503459775000.0,36.16,-86.79,Juan Carlos Rueda,TN,1503459775000.0,23688313
146488962,Nashville,Nashville,1503181266000.0,36.18,-86.74,Julia,TN,1504265091000.0,23688313
27409242,Nashville,,1494551662000.0,36.1,-86.66,Julie,TN,1501465285000.0,23688313
231880737,Nashville,,1500133297000.0,36.11,-86.78,Justin Judson,TN,1500133297000.0,23688313
160274132,Franklin,Franklin,1499534335000.0,35.93,-86.81,k,TN,1499552885000.0,23688313
234063415,Nashville,,1502763336000.0,36.15,-86.86,Kaitlyn Pelletier,TN,1502763336000.0,23688313
2756586,Nashville,,1505355301000.0,36.15,-86.86,Kallie,TN,1508166473000.0,23688313
232845757,Nashville,,1501327130000.0,36.17,-86.78,KalonDevo,TN,1501327130000.0,23688313
5655924,Nashville,,1494674356000.0,36.17,-86.78,karen,TN,1504268480000.0,23688313
179404432,Nashville,,1494558365000.0,36.17,-86.78,Karen,TN,1499574209000.0,23688313
8823502,Franklin,Chattanooga,1499534336000.0,35.92,-86.89,Karen L,TN,1494819487000.0,23688313
221255856,Nashville,Nashville,1494542244000.0,36.18,-86.74,Karen Ramos,TN,1499114605000.0,23688313
154895632,Hendersonville,,1501617054000.0,36.32,-86.61,Kari,TN,1501617054000.0,23688313
223085993,Nashville,,1494590507000.0,36.17,-86.72,Kasey Terrebonne,TN,1494590507000.0,23688313
237885987,Nashville,,1506903722000.0,36.17,-86.79,Kate Jablonski,TN,1506903722000.0,23688313
221131467,Nashville,,1499534337000.0,36.17,-86.78,KateLynn Bundy,TN,1496781502000.0,23688313
238084563,Franklin,,1507126580000.0,35.92,-86.87,Katherine Bloomfield,TN,1507126580000.0,23688313
69234962,Nashville,Nashville,1499534338000.0,36.17,-86.78,Katherine Rogers,TN,1506920953000.0,23688313
187804395,Nashville,,1506889636000.0,36.17,-86.78,Katie,TN,1506889636000.0,23688313
232590411,Nashville,,1501178308000.0,36.17,-86.78,Katie Campbell,TN,1501178308000.0,23688313
233248636,Spring Hill,,1501823864000.0,35.76,-86.88,Katie Herrel,TN,1501823864000.0,23688313
237511484,Clarksville,,1506476973000.0,36.56,-87.41,Kay Donahue,TN,1506476973000.0,23688313
199491149,Nashville,,1499534338000.0,36.22,-86.71,Kelly B.,TN,1499394744000.0,23688313
235669902,Nashville,,1504574573000.0,36.17,-86.78,Kelly Kraisinger,TN,1504574573000.0,23688313
231122104,Nashville,,1499534338000.0,36.17,-86.78,Kelly L,TN,1501958296000.0,23688313
72012832,Nashville,,1499534337000.0,36.13,-86.78,Kelly Thompson,TN,1496368685000.0,23688313
231902205,Nashville,,1500155514000.0,36.17,-86.78,Kellye Chyrall,TN,1500155514000.0,23688313
226953668,Nashville,,1494592295000.0,36.17,-86.78,Kelsey P.,TN,1505226785000.0,23688313
232746216,Nashville,,1501193591000.0,36.11,-86.78,Kelsey Sorensen,TN,1501193591000.0,23688313
217957267,Nashville,,1499534338000.0,36.1,-86.66,Kendall Blakely,TN,1499518314000.0,23688313
9485306,Nashville,,1499534335000.0,36.17,-86.78,Kenneth,TN,1503635950000.0,23688313
232388675,Nashville,,1500757572000.0,36.17,-86.78,Kevin Glatt,TN,1500757572000.0,23688313
233810692,Mount Juliet,,1502460358000.0,36.21,-86.52,Kim ,TN,1502460358000.0,23688313
225534592,Franklin,,1500172400000.0,35.92,-86.89,Kim,TN,1502045974000.0,23688313
233828439,Nashville,,1502478263000.0,36.17,-86.78,KimberlyB,TN,1502478263000.0,23688313
233001692,Nashville,,1501524666000.0,36.14,-86.8,Kristen Lemaster,TN,1501524666000.0,23688313
120669372,Nashville,,1499694806000.0,36.16,-86.79,Kristin,TN,1501465903000.0,23688313
235897278,Dickson,,1504805937000.0,36.08,-87.38,Kristin Gabriel,TN,1504805937000.0,23688313
236616215,Nashville,,1505517251000.0,36.13,-86.8,Kristin Pena,TN,1505517251000.0,23688313
207088273,Nashville,,1494540397000.0,36.17,-86.78,Kristy Barnes,TN,1494540397000.0,23688313
236116659,Whites Creek,,1505043943000.0,36.27,-86.83,Kristy West,TN,1505043943000.0,23688313
229168006,Nolensville,,1499534337000.0,35.94,-86.67,Kyle Koehler,TN,1496783156000.0,23688313
233879799,Nashville,,1502545112000.0,36.17,-86.78,Lacey,TN,1502545112000.0,23688313
192790056,Jersey City,,1499055910000.0,40.7,-74.1,Lalita,NJ,1499610806000.0,23688313
238213259,Hohenwald,,1507255709000.0,35.55,-87.55,Lana Love,TN,1507255709000.0,23688313
235971489,Nashville,,1504885149000.0,36.18,-86.74,Lane Kohl,TN,1504885149000.0,23688313
13775973,Nashville,,1499534335000.0,36.14,-86.74,laura ,TN,1494684828000.0,23688313
228032468,Nashville,,1499534336000.0,36.17,-86.78,Laura Bland,TN,1495380687000.0,23688313
233514386,Nashville,,1502132114000.0,36.16,-86.78,Laura Evans,TN,1502132114000.0,23688313
233159757,Franklin,Franklin,1501713853000.0,35.92,-86.89,Laura Howard McEvoy,TN,1501713853000.0,23688313
233227793,Clarksville,,1501798804000.0,36.56,-87.35,Laura Moran,TN,1501798804000.0,23688313
97800132,Nashville,"Indianapolis, IN",1494631890000.0,36.04,-86.72,Lauren Hight,TN,1501974754000.0,23688313
239014470,Fort Campbell,,1508158608000.0,36.65,-87.46,Lauren Plum,KY,1508158608000.0,23688313
239149538,Nashville,,1508305576000.0,36.17,-86.78,Lawrence Coley,TN,1508305576000.0,23688313
238125078,Franklin,,1507165324000.0,35.92,-86.89,Leslie Stamper,TN,1507165324000.0,23688313
232197856,White House,,1500512411000.0,36.48,-86.69,Lilly,TN,1504540229000.0,23688313
235587530,Nashville,,1504491410000.0,36.13,-86.67,Lisa Shakachite,TN,1504491410000.0,23688313
207856282,White House,,1494596480000.0,36.48,-86.69,Lisa Simonds,TN,1499102583000.0,23688313
10503110,Nashville,,1499534338000.0,36.08,-86.72,Lori,TN,1501960283000.0,23688313
222720044,Nashville,,1494547081000.0,36.08,-86.72,Lynda achord ,TN,1502048727000.0,23688313
237973749,Nashville,,1506999027000.0,36.17,-86.78,Macey Alonnah,TN,1506999027000.0,23688313
233599190,Clarksville,,1502225099000.0,36.53,-87.35,Madam Casha Ming,TN,1502225099000.0,23688313
227904870,Nashville,,1503846303000.0,36.12,-86.78,Madison Gerdes,TN,1508690193000.0,23688313
227943178,Brentwood,Antioch,1499534336000.0,36.0,-86.79,Maggie Beilfuss,TN,1502040022000.0,23688313
41587052,Nashville,Nashville,1494551260000.0,36.06,-86.96,Margaret,TN,1494551260000.0,23688313
13317813,Nashville,,1499534336000.0,36.16,-86.79,Margo,TN,1501465616000.0,23688313
228743785,Murfreesboro,,1499534337000.0,35.78,-86.33,Maria Antonia Gutiérrez Moncalea,TN,1496266661000.0,23688313
228942697,Nashville,,1499534337000.0,36.13,-86.8,Marian D.,TN,1496516753000.0,23688313
227734948,Nashville,,1499534338000.0,36.09,-86.82,Marsha,TN,1497736317000.0,23688313
233231433,Nashville,,1501802879000.0,36.17,-86.78,Mary Ann G,TN,1501943211000.0,23688313
239498454,Nashville,,1508707466000.0,36.07,-86.73,Mary Bond,TN,1508707466000.0,23688313
239513213,Nashville,,1508722497000.0,36.22,-86.74,McKinna Anderson,TN,1508722497000.0,23688313
235346322,Nashville,,1504214544000.0,36.07,-86.78,Meagan & Eric ,TN,1504214544000.0,23688313
235267221,Nashville,,1504125970000.0,36.17,-86.78,Megan Landberg,TN,1504125970000.0,23688313
210432273,Nashville,,1494591350000.0,36.17,-86.78,Megan Taylor,TN,1501944561000.0,23688313
205887282,Nashville,,1502649930000.0,36.06,-86.96,Meghan Robertson,TN,1502649930000.0,23688313
140274692,Nashville,,1499534336000.0,36.17,-86.78,Melanie,TN,1501804953000.0,23688313
230543097,Nashville,,1499534338000.0,36.17,-86.78,Melia Oakes Clark,TN,1498526897000.0,23688313
201887711,Nashville,,1499534337000.0,36.06,-86.96,Melissa,TN,1495671636000.0,23688313
62106992,Nashville,,1499534336000.0,36.14,-86.74,Melissa Harris,TN,1499883167000.0,23688313
125505682,Franklin,Nashville,1501634762000.0,35.92,-86.89,Melissa K,TN,1501634762000.0,23688313
214208608,Mount Juliet,,1502438427000.0,36.21,-86.52,Melody Foust,TN,1502438427000.0,23688313
233472336,Nashville,,1502081580000.0,36.08,-86.72,Meredith Rice,TN,1502081580000.0,23688313
227780445,Nashville,,1499534336000.0,36.11,-86.78,Michaun Olliver,TN,1495040893000.0,23688313
228954490,Nashville,,1499534337000.0,36.17,-86.79,Michele McCann,TN,1496529494000.0,23688313
229186705,Antioch,,1499534338000.0,36.04,-86.64,Michelle d,TN,1496803167000.0,23688313
237406464,Nashville,,1506369282000.0,36.17,-86.78,Mimi,TN,1506369282000.0,23688313
227869544,Nashville,,1499534336000.0,36.08,-86.72,Monica L Sims,TN,1499534672000.0,23688313
13747900,Nashville,,1494540667000.0,36.17,-86.78,Monnie Murray,TN,1505909458000.0,23688313
238953497,Nashville,,1508087735000.0,36.15,-86.86,Morgan Hill,TN,1508087735000.0,23688313
233217959,Nashville,,1501789139000.0,36.17,-86.78,Natalie,TN,1501789139000.0,23688313
75967532,Franklin,,1505961428000.0,35.95,-86.8,Natalie Michelle,TN,1505961428000.0,23688313
195819125,Nashville,Nashville,1505053631000.0,36.06,-86.96,Natasha Kozlyuk,TN,1507125231000.0,23688313
183421366,Nashville,Birmingham,1494553287000.0,36.16,-86.79,Nisha,TN,1499129074000.0,23688313
231332660,Lebanon,,1499534338000.0,36.21,-86.31,Ntombi Newbern,TN,1499480779000.0,23688313
234168251,Franklin,,1502888676000.0,35.93,-86.81,Olivia Oetjens,TN,1502888676000.0,23688313
222353401,Memphis,,1494540855000.0,35.07,-89.96,Penny,TN,1508425822000.0,23688313
232051047,Nashville,,1500338367000.0,36.17,-86.78,Phoebe C,TN,1500338367000.0,23688313
235631786,Gallatin,,1504541379000.0,36.39,-86.45,Phyllis Tabb Adcock,TN,1504541379000.0,23688313
237813278,Clarksville,,1506819692000.0,36.56,-87.41,Pit,TN,1506819692000.0,23688313
190923299,Franklin,,1499534336000.0,35.95,-86.84,Racheal Conrad,TN,1499546003000.0,23688313
238792314,Nashville,,1507897687000.0,36.15,-86.86,Rachel Baker,TN,1507897687000.0,23688313
238379463,Murfreesboro,,1507438039000.0,35.84,-86.39,Rachel Lambert,TN,1507438039000.0,23688313
238127754,Nashville,,1507168577000.0,36.17,-86.77,Rayne Leonard,TN,1507168577000.0,23688313
236455959,Murfreesboro,,1505358743000.0,35.87,-86.34,Rhiannon Gilbert,TN,1505358743000.0,23688313
14103969,Nashville,Nashville,1494548696000.0,36.08,-86.72,Riane,TN,1498060201000.0,23688313
235745275,Fort Campbell,,1504648620000.0,36.65,-87.46,Richard Castro,KY,1504648620000.0,23688313
235655737,Nashville,,1504560881000.0,36.17,-86.78,Riley Wagner,TN,1504733199000.0,23688313
189928455,Gallatin,,1494591481000.0,36.39,-86.45,Robin Schaffer,TN,1494591481000.0,23688313
233088804,Nashville,,1501631138000.0,36.07,-86.73,Ruth Cante,TN,1501631138000.0,23688313
238480158,Nashville,,1507552835000.0,36.22,-86.77,Ryan Keesecker,TN,1507552835000.0,23688313
228687013,Nashville,,1499534337000.0,36.17,-86.78,Ryan Olivia MacDonald,TN,1496193381000.0,23688313
35074372,New York,,1501014153000.0,40.75,-73.99,Ryan Scott Sarver,NY,1501014153000.0,23688313
232308183,Nashville,,1500655714000.0,36.17,-86.78,Sabrina Nelson,TN,1500655714000.0,23688313
198948482,Murfreesboro,,1507240769000.0,35.85,-86.4,Sam Buschling,TN,1507240769000.0,23688313
233404896,Nashville,,1502009221000.0,36.14,-86.8,Samantha Rohman,TN,1504751679000.0,23688313
231888974,Nashville,,1500142072000.0,36.21,-86.72,Samantha Smith,TN,1500142072000.0,23688313
236706828,Lebanon,,1505616908000.0,36.21,-86.31,Sandra Roberson,TN,1505616908000.0,23688313
189570992,New York,,,40.75,-73.99,,NY,,23688313
89609732,Nashville,,1501345574000.0,36.14,-86.84,Sarah Jack,TN,1501345574000.0,23688313
157021032,Portland,,1499553579000.0,36.57,-86.49,Savannah McDreblow,TN,1499553579000.0,23688313
237966825,Nashville,,1506994082000.0,36.07,-86.73,Scott Hartsell,TN,1506994082000.0,23688313
238836409,Nashville,,1507944613000.0,36.14,-86.74,Sean Kendall,TN,1507944613000.0,23688313
214578793,Antioch,,1499534335000.0,36.04,-86.64,Shalee Marshall,TN,1494685717000.0,23688313
104299812,Nashville,Waikoloa,1499534337000.0,36.17,-86.78,Shannon,TN,1501202305000.0,23688313
232134606,Clarksville,,1500437565000.0,36.53,-87.35,sharon heaphy,TN,1500437565000.0,23688313
234063243,Nashville,,1502761833000.0,36.18,-86.74,Shauna Basques,TN,1502761833000.0,23688313
235675134,Nashville,,1504579188000.0,36.13,-86.82,Shea Wilson,TN,1504579188000.0,23688313
233002984,Nashville,,1501525053000.0,36.17,-86.78,Shelby Livingston,TN,1505779737000.0,23688313
219925336,Murfreesboro,Milwaukee,1499534336000.0,35.82,-86.45,Shelly Reed,TN,1500903890000.0,23688313
229007958,Nashville,,1499534337000.0,36.15,-86.86,Showers,TN,1496598645000.0,23688313
235259928,Franklin,,1504142596000.0,35.92,-86.89,Smita P,TN,1505323290000.0,23688313
224685747,Nashville,,1499534335000.0,36.15,-86.79,Stacie Quick,TN,1507926055000.0,23688313
232433501,Nashville,,1500820682000.0,36.16,-86.66,Stella Yarbrough,TN,1500820682000.0,23688313
4828588,Nashville,"Petersburg, IN",1494544077000.0,36.17,-86.78,Steph,TN,1503794073000.0,23688313
70340222,Nashville,Nashville,1501173339000.0,36.16,-86.79,Stephanie,TN,1501173339000.0,23688313
224859828,Nashville,,1494609156000.0,36.17,-86.78,Stephanie,TN,1494609156000.0,23688313
227874716,Nashville,,1499534336000.0,36.11,-86.78,Susan McCracken Booth,TN,1502576446000.0,23688313
226782929,Joelton,,1499534337000.0,36.33,-86.91,Susanne,TN,1496248863000.0,23688313
228190851,Springfield,,1499534336000.0,36.52,-86.87,Tamara Beard,TN,1499986232000.0,23688313
14288622,Kenosha,Seymour,1494540655000.0,42.58,-87.83,Tammy,WI,1494898219000.0,23688313
235428205,Nashville,,1504307531000.0,36.15,-86.85,Tara Fleck,TN,1504307531000.0,23688313
192668123,Franklin,,1501438863000.0,35.9,-86.82,Tarrah,TN,1501961030000.0,23688313
233432118,Nashville,,1502040892000.0,36.17,-86.78,Taylor Hughes,TN,1502040892000.0,23688313
232749202,Franklin,,1501197104000.0,35.92,-86.89,Taylor Means,TN,1501197104000.0,23688313
226907530,Nashville,,1499534336000.0,36.17,-86.78,Ted,TN,1501985463000.0,23688313
231748915,Columbia,,1499963382000.0,35.61,-87.05,Tekara Meeks,TN,1501465669000.0,23688313
238194928,Gallatin,,1507237078000.0,36.39,-86.45,Tera P,TN,1507237078000.0,23688313
9157977,Nashville,,1499534335000.0,36.16,-86.79,Terri,TN,1503320258000.0,23688313
6318745,Nashville,"Fort Walton Beach, FL",1494541392000.0,36.07,-86.78,Terri,TN,1494541392000.0,23688313
94990812,Nashville,,1499534337000.0,36.17,-86.78,Tess,TN,1496757236000.0,23688313
227806705,Franklin,,1499534336000.0,35.99,-86.9,Theodore Brittan,TN,1495071031000.0,23688313
81924252,Nashville,,1494545686000.0,36.17,-86.78,Theresa,TN,1503271195000.0,23688313
183474201,Clarksville,,1501774486000.0,36.52,-87.26,Theresa W.,TN,1501774486000.0,23688313
219258324,Hermitage,,1494631971000.0,36.19,-86.6,Timothy,TN,1494631971000.0,23688313
225777543,Joelton,,1499534336000.0,36.33,-86.91,Tina Pugh,TN,1495104583000.0,23688313
147086272,Nashville,"Augusta, GA",1494548278000.0,36.15,-86.86,Toni ,TN,1499266829000.0,23688313
236738974,Nashville,,1505657178000.0,36.22,-86.74,Toni Wheeler,TN,1507811367000.0,23688313
233402553,Nashville,,1502005837000.0,36.16,-86.66,Tony Pozsgay,TN,1502005837000.0,23688313
226248808,Brentwood,,1494556409000.0,36.0,-86.79,Tori,TN,1494556409000.0,23688313
232504296,Nashville,,1500906606000.0,36.06,-86.96,Torrie Washington ,TN,1500906606000.0,23688313
238024246,Nashville,,1507056852000.0,36.18,-86.81,Toya Covington,TN,1507056852000.0,23688313
55518692,Nashville,,1494591952000.0,36.08,-86.72,Tracy,TN,1501586839000.0,23688313
239523016,Nashville,,1508733346000.0,36.17,-86.78,Trish,TN,1508733346000.0,23688313
223825312,Nashville,,1499534336000.0,36.14,-86.81,Valerie Harbin,TN,1494851873000.0,23688313
235045123,Nashville,,1503880608000.0,36.13,-86.8,Veronica Kittle-Kamp,TN,1505179931000.0,23688313
234332374,Nashville,,1503072910000.0,36.17,-86.78,Victoria,TN,1503072910000.0,23688313
235733177,Nashville,,1504639093000.0,36.17,-86.78,Victoria Mount,TN,1504639093000.0,23688313
233292764,Nashville,,1501878078000.0,36.17,-86.72,Weston Lazenby,TN,1501952196000.0,23688313
233585149,Nashville,,1502212891000.0,36.17,-86.78,Yaya,TN,1502212891000.0,23688313
235034626,Franklin,,1503869953000.0,35.92,-86.89,Yuliya Speroff,TN,1503869953000.0,23688313
